{
"type": "FeatureCollection",
"name": "OPP_bars_seattle",
"crs": { "type": "name", "properties": { "name": "urn:ogc:def:crs:OGC:1.3:CRS84" } },
"features": [
{ "type": "Feature", "properties": { "name": "Stonehouse Cafe & Bar", "barclass": "Bar", "barcode": 1 }, "geometry": { "type": "Point", "coordinates": [ -122.254754280575114, 47.51637795 ] } },
{ "type": "Feature", "properties": { "name": "Jude's Old town", "barclass": "Pub", "barcode": 2 }, "geometry": { "type": "Point", "coordinates": [ -122.2613543, 47.5200916 ] } },
{ "type": "Feature", "properties": { "name": "Souvanny's", "barclass": "Bar", "barcode": 1 }, "geometry": { "type": "Point", "coordinates": [ -122.261346, 47.5201473 ] } },
{ "type": "Feature", "properties": { "name": "Machine House Brewery", "barclass": "Pub", "barcode": 2 }, "geometry": { "type": "Point", "coordinates": [ -122.2771911, 47.5507481 ] } },
{ "type": "Feature", "properties": { "name": "Twilight Rainier", "barclass": "Bar", "barcode": 1 }, "geometry": { "type": "Point", "coordinates": [ -122.278202, 47.5516519 ] } },
{ "type": "Feature", "properties": { "name": "Hill City Tap House & Bottle Shop", "barclass": "Bar", "barcode": 1 }, "geometry": { "type": "Point", "coordinates": [ -122.2805787, 47.5536406 ] } },
{ "type": "Feature", "properties": { "name": "Chuck's Hop Shop", "barclass": "Pub", "barcode": 2 }, "geometry": { "type": "Point", "coordinates": [ -122.2706585, 47.5557436 ] } },
{ "type": "Feature", "properties": { "name": "Flying Lion Brewing", "barclass": "Pub", "barcode": 2 }, "geometry": { "type": "Point", "coordinates": [ -122.284337, 47.5560371 ] } },
{ "type": "Feature", "properties": { "name": "Loretta’s Northwesterner", "barclass": "Pub", "barcode": 2 }, "geometry": { "type": "Point", "coordinates": [ -122.3151259, 47.5258713 ] } },
{ "type": "Feature", "properties": { "name": "Great Notion Brewing", "barclass": "Pub", "barcode": 2 }, "geometry": { "type": "Point", "coordinates": [ -122.3147906, 47.5476595 ] } },
{ "type": "Feature", "properties": { "name": "Jellyfish Brewing", "barclass": "Pub", "barcode": 2 }, "geometry": { "type": "Point", "coordinates": [ -122.320148213716806, 47.5488206 ] } },
{ "type": "Feature", "properties": { "name": "Smarty Pants", "barclass": "Pub", "barcode": 2 }, "geometry": { "type": "Point", "coordinates": [ -122.316645, 47.5488214 ] } },
{ "type": "Feature", "properties": { "name": "1988 Cocktail Lounge", "barclass": "Bar", "barcode": 1 }, "geometry": { "type": "Point", "coordinates": [ -122.3175073, 47.548827 ] } },
{ "type": "Feature", "properties": { "name": "Maude's", "barclass": "Bar", "barcode": 1 }, "geometry": { "type": "Point", "coordinates": [ -122.3167201, 47.5489004 ] } },
{ "type": "Feature", "properties": { "name": "9 Pound Hammer", "barclass": "Bar", "barcode": 1 }, "geometry": { "type": "Point", "coordinates": [ -122.3168396, 47.5489844 ] } },
{ "type": "Feature", "properties": { "name": "Jules Maes Saloon", "barclass": "Pub", "barcode": 2 }, "geometry": { "type": "Point", "coordinates": [ -122.317554, 47.5496126 ] } },
{ "type": "Feature", "properties": { "name": "Full Throttle Bottles", "barclass": "Bar", "barcode": 1 }, "geometry": { "type": "Point", "coordinates": [ -122.3176879, 47.5498276 ] } },
{ "type": "Feature", "properties": { "name": "Machine House Brewery", "barclass": "Pub", "barcode": 2 }, "geometry": { "type": "Point", "coordinates": [ -122.3171301, 47.5502618 ] } },
{ "type": "Feature", "properties": { "name": "Rumba Notes Lounge", "barclass": "Bar", "barcode": 1 }, "geometry": { "type": "Point", "coordinates": [ -122.2845967, 47.556039 ] } },
{ "type": "Feature", "properties": { "name": "Lavana Lounge", "barclass": "Bar", "barcode": 1 }, "geometry": { "type": "Point", "coordinates": [ -122.2847191, 47.5560399 ] } },
{ "type": "Feature", "properties": { "name": "Columbia City Theater", "barclass": "Nightclub", "barcode": 3 }, "geometry": { "type": "Point", "coordinates": [ -122.284272194759524, 47.55720465 ] } },
{ "type": "Feature", "properties": { "name": "Billiard Hoang", "barclass": "Pub", "barcode": 2 }, "geometry": { "type": "Point", "coordinates": [ -122.290149, 47.5573095 ] } },
{ "type": "Feature", "properties": { "name": "Rough & Tumble", "barclass": "Pub", "barcode": 2 }, "geometry": { "type": "Point", "coordinates": [ -122.284491884846972, 47.55739325 ] } },
{ "type": "Feature", "properties": { "name": "Lottie's Lounge", "barclass": "Bar", "barcode": 1 }, "geometry": { "type": "Point", "coordinates": [ -122.2848018, 47.5577593 ] } },
{ "type": "Feature", "properties": { "name": "Rookies Sports Bar", "barclass": "Pub", "barcode": 2 }, "geometry": { "type": "Point", "coordinates": [ -122.2841586, 47.5579567 ] } },
{ "type": "Feature", "properties": { "name": "Fremont Brewing", "barclass": "Pub", "barcode": 2 }, "geometry": { "type": "Point", "coordinates": [ -122.2850109, 47.5587746 ] } },
{ "type": "Feature", "properties": { "name": "Clock-out Lounge", "barclass": "Bar", "barcode": 1 }, "geometry": { "type": "Point", "coordinates": [ -122.30395, 47.5590274 ] } },
{ "type": "Feature", "properties": { "name": "Little Thing Wine", "barclass": "Bar", "barcode": 1 }, "geometry": { "type": "Point", "coordinates": [ -122.3101921, 47.5767981 ] } },
{ "type": "Feature", "properties": { "name": "Mexican Bar", "barclass": "Bar", "barcode": 1 }, "geometry": { "type": "Point", "coordinates": [ -122.3220637, 47.5390962 ] } },
{ "type": "Feature", "properties": { "name": "Georgetown Liquor Company", "barclass": "Pub", "barcode": 2 }, "geometry": { "type": "Point", "coordinates": [ -122.3213648, 47.5532471 ] } },
{ "type": "Feature", "properties": { "name": "Georgetown Brewing Company", "barclass": "Bar", "barcode": 1 }, "geometry": { "type": "Point", "coordinates": [ -122.3256809, 47.5552618 ] } },
{ "type": "Feature", "properties": { "name": "A&J's Bar and Grill", "barclass": "Bar", "barcode": 1 }, "geometry": { "type": "Point", "coordinates": [ -122.322960801580351, 47.5682184 ] } },
{ "type": "Feature", "properties": { "name": "The Bar at R", "barclass": "Bar", "barcode": 1 }, "geometry": { "type": "Point", "coordinates": [ -122.3207037, 47.5757668 ] } },
{ "type": "Feature", "properties": { "name": "Kings Hookah Lounge", "barclass": "Bar", "barcode": 1 }, "geometry": { "type": "Point", "coordinates": [ -122.321755, 47.596885 ] } },
{ "type": "Feature", "properties": { "name": "Maekawa Bar", "barclass": "Bar", "barcode": 1 }, "geometry": { "type": "Point", "coordinates": [ -122.3261863, 47.598139 ] } },
{ "type": "Feature", "properties": { "name": "Fort St. George", "barclass": "Bar", "barcode": 1 }, "geometry": { "type": "Point", "coordinates": [ -122.3261176, 47.5981835 ] } },
{ "type": "Feature", "properties": { "name": "Joe's Bar And Grill", "barclass": "Pub", "barcode": 2 }, "geometry": { "type": "Point", "coordinates": [ -122.3275111, 47.5984737 ] } },
{ "type": "Feature", "properties": { "name": "Quarter Lounge", "barclass": "Bar", "barcode": 1 }, "geometry": { "type": "Point", "coordinates": [ -122.3269348, 47.608458 ] } },
{ "type": "Feature", "properties": { "name": "Seattle Tavern & Pool Room", "barclass": "Pub", "barcode": 2 }, "geometry": { "type": "Point", "coordinates": [ -122.3182768, 47.5504046 ] } },
{ "type": "Feature", "properties": { "name": "Star Brass Works Lounge", "barclass": "Bar", "barcode": 1 }, "geometry": { "type": "Point", "coordinates": [ -122.3183959, 47.5504917 ] } },
{ "type": "Feature", "properties": { "name": "Georgetown Ballroom", "barclass": "Bar", "barcode": 1 }, "geometry": { "type": "Point", "coordinates": [ -122.3193885, 47.5515531 ] } },
{ "type": "Feature", "properties": { "name": null, "barclass": "Bar", "barcode": 1 }, "geometry": { "type": "Point", "coordinates": [ -122.3162488, 47.5996845 ] } },
{ "type": "Feature", "properties": { "name": "Bar Bayonne", "barclass": "Bar", "barcode": 1 }, "geometry": { "type": "Point", "coordinates": [ -122.314839, 47.6060679 ] } },
{ "type": "Feature", "properties": { "name": "Red Lounge", "barclass": "Bar", "barcode": 1 }, "geometry": { "type": "Point", "coordinates": [ -122.3159671, 47.6064051 ] } },
{ "type": "Feature", "properties": { "name": "The Chieftain", "barclass": "Pub", "barcode": 2 }, "geometry": { "type": "Point", "coordinates": [ -122.316427910082467, 47.61072175 ] } },
{ "type": "Feature", "properties": { "name": "Rhein Haus Seattle", "barclass": "Biergarten", "barcode": 4 }, "geometry": { "type": "Point", "coordinates": [ -122.3165703, 47.6109242 ] } },
{ "type": "Feature", "properties": { "name": "Canon", "barclass": "Bar", "barcode": 1 }, "geometry": { "type": "Point", "coordinates": [ -122.316475843368124, 47.6112731 ] } },
{ "type": "Feature", "properties": { "name": "Garage", "barclass": "Pub", "barcode": 2 }, "geometry": { "type": "Point", "coordinates": [ -122.320259509318419, 47.6123749 ] } },
{ "type": "Feature", "properties": { "name": "The Velvet Elk", "barclass": "Bar", "barcode": 1 }, "geometry": { "type": "Point", "coordinates": [ -122.2879723, 47.5781719 ] } },
{ "type": "Feature", "properties": { "name": "Perihelion Brewery", "barclass": "Pub", "barcode": 2 }, "geometry": { "type": "Point", "coordinates": [ -122.311819, 47.5784714 ] } },
{ "type": "Feature", "properties": { "name": "Freedom Bar & Lounge", "barclass": "Bar", "barcode": 1 }, "geometry": { "type": "Point", "coordinates": [ -122.3022352, 47.5833726 ] } },
{ "type": "Feature", "properties": { "name": "Slightly Furry Beverage Company", "barclass": "Pub", "barcode": 2 }, "geometry": { "type": "Point", "coordinates": [ -122.3109253, 47.5943506 ] } },
{ "type": "Feature", "properties": { "name": "23rd Ave Brewery", "barclass": "Pub", "barcode": 2 }, "geometry": { "type": "Point", "coordinates": [ -122.3017913, 47.599127 ] } },
{ "type": "Feature", "properties": { "name": "Standard Public House", "barclass": "Pub", "barcode": 2 }, "geometry": { "type": "Point", "coordinates": [ -122.2995712, 47.5994107 ] } },
{ "type": "Feature", "properties": { "name": "Twilight Exit", "barclass": "Bar", "barcode": 1 }, "geometry": { "type": "Point", "coordinates": [ -122.2994054, 47.6081896 ] } },
{ "type": "Feature", "properties": { "name": "The Neighbor Lady", "barclass": "Pub", "barcode": 2 }, "geometry": { "type": "Point", "coordinates": [ -122.3021762, 47.6121611 ] } },
{ "type": "Feature", "properties": { "name": "Chuck's Hop Shop", "barclass": "Pub", "barcode": 2 }, "geometry": { "type": "Point", "coordinates": [ -122.305762173678659, 47.61270085 ] } },
{ "type": "Feature", "properties": { "name": "The Hideout", "barclass": "Bar", "barcode": 1 }, "geometry": { "type": "Point", "coordinates": [ -122.3254463, 47.6094367 ] } },
{ "type": "Feature", "properties": { "name": "Club Z", "barclass": "Nightclub", "barcode": 3 }, "geometry": { "type": "Point", "coordinates": [ -122.3280614, 47.6136346 ] } },
{ "type": "Feature", "properties": { "name": "Q Nightclub", "barclass": "Nightclub", "barcode": 3 }, "geometry": { "type": "Point", "coordinates": [ -122.3203363, 47.613746 ] } },
{ "type": "Feature", "properties": { "name": "Paper Fan Cocktail Bar", "barclass": "Bar", "barcode": 1 }, "geometry": { "type": "Point", "coordinates": [ -122.3241801, 47.6139075 ] } },
{ "type": "Feature", "properties": { "name": "The Last Drop", "barclass": "Pub", "barcode": 2 }, "geometry": { "type": "Point", "coordinates": [ -122.3249471, 47.6139747 ] } },
{ "type": "Feature", "properties": { "name": "Six Arms", "barclass": "Pub", "barcode": 2 }, "geometry": { "type": "Point", "coordinates": [ -122.327754, 47.6141346 ] } },
{ "type": "Feature", "properties": { "name": "Life on Mars", "barclass": "Bar", "barcode": 1 }, "geometry": { "type": "Point", "coordinates": [ -122.3222957, 47.6142279 ] } },
{ "type": "Feature", "properties": { "name": "La Josie's", "barclass": "Bar", "barcode": 1 }, "geometry": { "type": "Point", "coordinates": [ -122.3249011, 47.6142339 ] } },
{ "type": "Feature", "properties": { "name": "The Belmont", "barclass": "Bar", "barcode": 1 }, "geometry": { "type": "Point", "coordinates": [ -122.3246571, 47.6142379 ] } },
{ "type": "Feature", "properties": { "name": "Seattle Eagle", "barclass": "Bar", "barcode": 1 }, "geometry": { "type": "Point", "coordinates": [ -122.327169311571197, 47.6143237 ] } },
{ "type": "Feature", "properties": { "name": "Bitter/Raw", "barclass": "Bar", "barcode": 1 }, "geometry": { "type": "Point", "coordinates": [ -122.3197209, 47.6123773 ] } },
{ "type": "Feature", "properties": { "name": "Union", "barclass": "Bar", "barcode": 1 }, "geometry": { "type": "Point", "coordinates": [ -122.3189306, 47.6127716 ] } },
{ "type": "Feature", "properties": { "name": "Pony", "barclass": "Bar", "barcode": 1 }, "geometry": { "type": "Point", "coordinates": [ -122.315761852474395, 47.61308485 ] } },
{ "type": "Feature", "properties": { "name": "Needle & Thread", "barclass": "Bar", "barcode": 1 }, "geometry": { "type": "Point", "coordinates": [ -122.3165636, 47.6132023 ] } },
{ "type": "Feature", "properties": { "name": "Tavern Law", "barclass": "Bar", "barcode": 1 }, "geometry": { "type": "Point", "coordinates": [ -122.316628, 47.6132837 ] } },
{ "type": "Feature", "properties": { "name": "Footprint Wine", "barclass": "Bar", "barcode": 1 }, "geometry": { "type": "Point", "coordinates": [ -122.3158996, 47.6133546 ] } },
{ "type": "Feature", "properties": { "name": "Diesel", "barclass": "Bar", "barcode": 1 }, "geometry": { "type": "Point", "coordinates": [ -122.314450931463284, 47.6133645 ] } },
{ "type": "Feature", "properties": { "name": "Madison Pub", "barclass": "Bar", "barcode": 1 }, "geometry": { "type": "Point", "coordinates": [ -122.314925927161056, 47.61341015 ] } },
{ "type": "Feature", "properties": { "name": "Chop Suey", "barclass": "Bar", "barcode": 1 }, "geometry": { "type": "Point", "coordinates": [ -122.314455249507347, 47.6135323 ] } },
{ "type": "Feature", "properties": { "name": "Time Warp", "barclass": "Bar", "barcode": 1 }, "geometry": { "type": "Point", "coordinates": [ -122.3192629, 47.6135863 ] } },
{ "type": "Feature", "properties": { "name": "The Runaway", "barclass": "Bar", "barcode": 1 }, "geometry": { "type": "Point", "coordinates": [ -122.3196258, 47.6137463 ] } },
{ "type": "Feature", "properties": { "name": "Barboza", "barclass": "Nightclub", "barcode": 3 }, "geometry": { "type": "Point", "coordinates": [ -122.3196284, 47.6138274 ] } },
{ "type": "Feature", "properties": { "name": "Quinn's", "barclass": "Pub", "barcode": 2 }, "geometry": { "type": "Point", "coordinates": [ -122.319228575125408, 47.6138658 ] } },
{ "type": "Feature", "properties": { "name": "Neumos", "barclass": "Nightclub", "barcode": 3 }, "geometry": { "type": "Point", "coordinates": [ -122.3196108, 47.613954 ] } },
{ "type": "Feature", "properties": { "name": "Elysian Brewing", "barclass": "Pub", "barcode": 2 }, "geometry": { "type": "Point", "coordinates": [ -122.3157647, 47.6139598 ] } },
{ "type": "Feature", "properties": { "name": "Wildrose", "barclass": "Bar", "barcode": 1 }, "geometry": { "type": "Point", "coordinates": [ -122.3182962, 47.6139709 ] } },
{ "type": "Feature", "properties": { "name": "Cha Cha Lounge", "barclass": "Bar", "barcode": 1 }, "geometry": { "type": "Point", "coordinates": [ -122.3187251, 47.6139807 ] } },
{ "type": "Feature", "properties": { "name": "Comet Tavern", "barclass": "Bar", "barcode": 1 }, "geometry": { "type": "Point", "coordinates": [ -122.3196324, 47.6142126 ] } },
{ "type": "Feature", "properties": { "name": "Culutura", "barclass": "Bar", "barcode": 1 }, "geometry": { "type": "Point", "coordinates": [ -122.3198006, 47.6142138 ] } },
{ "type": "Feature", "properties": { "name": "Cultura", "barclass": "Nightclub", "barcode": 3 }, "geometry": { "type": "Point", "coordinates": [ -122.3199026, 47.6142159 ] } },
{ "type": "Feature", "properties": { "name": "The Stumbling Monk", "barclass": "Bar", "barcode": 1 }, "geometry": { "type": "Point", "coordinates": [ -122.3241621, 47.6194827 ] } },
{ "type": "Feature", "properties": { "name": "CC's Seattle", "barclass": "Bar", "barcode": 1 }, "geometry": { "type": "Point", "coordinates": [ -122.3233324, 47.6197166 ] } },
{ "type": "Feature", "properties": { "name": "Bar the Way", "barclass": "Bar", "barcode": 1 }, "geometry": { "type": "Point", "coordinates": [ -122.3231802, 47.6197359 ] } },
{ "type": "Feature", "properties": { "name": "The Wash", "barclass": "Bar", "barcode": 1 }, "geometry": { "type": "Point", "coordinates": [ -122.322038, 47.6197933 ] } },
{ "type": "Feature", "properties": { "name": "Post Pike Bar & Cafe", "barclass": "Bar", "barcode": 1 }, "geometry": { "type": "Point", "coordinates": [ -122.32055475, 47.62037275 ] } },
{ "type": "Feature", "properties": { "name": "Julia's", "barclass": "Bar", "barcode": 1 }, "geometry": { "type": "Point", "coordinates": [ -122.3206536, 47.621253 ] } },
{ "type": "Feature", "properties": { "name": "Guillotine", "barclass": "Bar", "barcode": 1 }, "geometry": { "type": "Point", "coordinates": [ -122.3207011, 47.6223791 ] } },
{ "type": "Feature", "properties": { "name": "Chandelier Lounge", "barclass": "Bar", "barcode": 1 }, "geometry": { "type": "Point", "coordinates": [ -122.320704, 47.622546 ] } },
{ "type": "Feature", "properties": { "name": "Corvus & Co.", "barclass": "Bar", "barcode": 1 }, "geometry": { "type": "Point", "coordinates": [ -122.321133, 47.6243734 ] } },
{ "type": "Feature", "properties": { "name": "Summit Public House", "barclass": "Bar", "barcode": 1 }, "geometry": { "type": "Point", "coordinates": [ -122.325569, 47.6244062 ] } },
{ "type": "Feature", "properties": { "name": "Marco Polo", "barclass": "Bar", "barcode": 1 }, "geometry": { "type": "Point", "coordinates": [ -122.3298213, 47.5520896 ] } },
{ "type": "Feature", "properties": { "name": "Slim's Last Chance", "barclass": "Bar", "barcode": 1 }, "geometry": { "type": "Point", "coordinates": [ -122.333899674626863, 47.5524903 ] } },
{ "type": "Feature", "properties": { "name": "Siren Tavern", "barclass": "Bar", "barcode": 1 }, "geometry": { "type": "Point", "coordinates": [ -122.3295382, 47.5734961 ] } },
{ "type": "Feature", "properties": { "name": "Supernova", "barclass": "Nightclub", "barcode": 3 }, "geometry": { "type": "Point", "coordinates": [ -122.333591, 47.5745904 ] } },
{ "type": "Feature", "properties": { "name": "Ghostfish Brewing Company", "barclass": "Pub", "barcode": 2 }, "geometry": { "type": "Point", "coordinates": [ -122.33389, 47.5763508 ] } },
{ "type": "Feature", "properties": { "name": "The Comeback", "barclass": "Bar", "barcode": 1 }, "geometry": { "type": "Point", "coordinates": [ -122.3339773, 47.5844928 ] } },
{ "type": "Feature", "properties": { "name": "Efeste Wine Tasting Room", "barclass": "Bar", "barcode": 1 }, "geometry": { "type": "Point", "coordinates": [ -122.3335894, 47.58718965 ] } },
{ "type": "Feature", "properties": { "name": "Showbox SoDo", "barclass": "Nightclub", "barcode": 3 }, "geometry": { "type": "Point", "coordinates": [ -122.333928, 47.5880461 ] } },
{ "type": "Feature", "properties": { "name": "Tony T's Sports Lounge", "barclass": "Pub", "barcode": 2 }, "geometry": { "type": "Point", "coordinates": [ -122.3337659, 47.589594 ] } },
{ "type": "Feature", "properties": { "name": "Jimmy's on First", "barclass": "Bar", "barcode": 1 }, "geometry": { "type": "Point", "coordinates": [ -122.3335121, 47.5925675 ] } },
{ "type": "Feature", "properties": { "name": "The Woods Tasting Room", "barclass": "Pub", "barcode": 2 }, "geometry": { "type": "Point", "coordinates": [ -122.3377893, 47.560755 ] } },
{ "type": "Feature", "properties": { "name": "Schooner Brewing", "barclass": "Pub", "barcode": 2 }, "geometry": { "type": "Point", "coordinates": [ -122.3354879, 47.5678008 ] } },
{ "type": "Feature", "properties": { "name": "Seapine Brewing", "barclass": "Pub", "barcode": 2 }, "geometry": { "type": "Point", "coordinates": [ -122.335560415958156, 47.576005 ] } },
{ "type": "Feature", "properties": { "name": "Monkey Loft", "barclass": "Nightclub", "barcode": 3 }, "geometry": { "type": "Point", "coordinates": [ -122.334466, 47.5771889 ] } },
{ "type": "Feature", "properties": { "name": "Fast Fashion Brewing", "barclass": "Bar", "barcode": 1 }, "geometry": { "type": "Point", "coordinates": [ -122.334422, 47.5874773 ] } },
{ "type": "Feature", "properties": { "name": "Hooverville", "barclass": "Bar", "barcode": 1 }, "geometry": { "type": "Point", "coordinates": [ -122.334481, 47.5875626 ] } },
{ "type": "Feature", "properties": { "name": "Cowgirls Inc", "barclass": "Bar", "barcode": 1 }, "geometry": { "type": "Point", "coordinates": [ -122.3344257, 47.5985061 ] } },
{ "type": "Feature", "properties": { "name": "The Dandy of King Street Crossing", "barclass": "Bar", "barcode": 1 }, "geometry": { "type": "Point", "coordinates": [ -122.334424, 47.5987253 ] } },
{ "type": "Feature", "properties": { "name": "Bar Sosta", "barclass": "Bar", "barcode": 1 }, "geometry": { "type": "Point", "coordinates": [ -122.334414, 47.598848 ] } },
{ "type": "Feature", "properties": { "name": "Chapel Lounge", "barclass": "Nightclub", "barcode": 3 }, "geometry": { "type": "Point", "coordinates": [ -122.3343945, 47.6003478 ] } },
{ "type": "Feature", "properties": { "name": "The Hawks Nest", "barclass": "Bar", "barcode": 1 }, "geometry": { "type": "Point", "coordinates": [ -122.3339041, 47.5932683 ] } },
{ "type": "Feature", "properties": { "name": "The Hall on Occidental", "barclass": "Pub", "barcode": 2 }, "geometry": { "type": "Point", "coordinates": [ -122.3335749, 47.5960708 ] } },
{ "type": "Feature", "properties": { "name": "Sluggers", "barclass": "Bar", "barcode": 1 }, "geometry": { "type": "Point", "coordinates": [ -122.33369885, 47.59714795 ] } },
{ "type": "Feature", "properties": { "name": "Zephyr", "barclass": "Bar", "barcode": 1 }, "geometry": { "type": "Point", "coordinates": [ -122.330647, 47.5981511 ] } },
{ "type": "Feature", "properties": { "name": "King St Bar and Oven", "barclass": "Bar", "barcode": 1 }, "geometry": { "type": "Point", "coordinates": [ -122.332055, 47.598432 ] } },
{ "type": "Feature", "properties": { "name": "Lowrider Brewing", "barclass": "Pub", "barcode": 2 }, "geometry": { "type": "Point", "coordinates": [ -122.3331076, 47.5984388 ] } },
{ "type": "Feature", "properties": { "name": "Best Day Brewing", "barclass": "Bar", "barcode": 1 }, "geometry": { "type": "Point", "coordinates": [ -122.333328, 47.5990995 ] } },
{ "type": "Feature", "properties": { "name": "Temple Billiards", "barclass": "Bar", "barcode": 1 }, "geometry": { "type": "Point", "coordinates": [ -122.333232, 47.5993131 ] } },
{ "type": "Feature", "properties": { "name": "Xtadium", "barclass": "Bar", "barcode": 1 }, "geometry": { "type": "Point", "coordinates": [ -122.331842, 47.5995606 ] } },
{ "type": "Feature", "properties": { "name": "Footie On First", "barclass": "Bar", "barcode": 1 }, "geometry": { "type": "Point", "coordinates": [ -122.334387, 47.5996048 ] } },
{ "type": "Feature", "properties": { "name": "Antipode Gallery", "barclass": "Nightclub", "barcode": 3 }, "geometry": { "type": "Point", "coordinates": [ -122.3338924, 47.5999358 ] } },
{ "type": "Feature", "properties": { "name": "Good Bar", "barclass": "Bar", "barcode": 1 }, "geometry": { "type": "Point", "coordinates": [ -122.3313409, 47.6001618 ] } },
{ "type": "Feature", "properties": { "name": "Flatstick Pub - Pioneer Square", "barclass": "Pub", "barcode": 2 }, "geometry": { "type": "Point", "coordinates": [ -122.331005, 47.6001632 ] } },
{ "type": "Feature", "properties": { "name": "Fair Isle Brewing", "barclass": "Pub", "barcode": 2 }, "geometry": { "type": "Point", "coordinates": [ -122.3339812, 47.6001752 ] } },
{ "type": "Feature", "properties": { "name": "Underbelly", "barclass": "Bar", "barcode": 1 }, "geometry": { "type": "Point", "coordinates": [ -122.3343729, 47.601001 ] } },
{ "type": "Feature", "properties": { "name": "Baba Yaga", "barclass": "Bar", "barcode": 1 }, "geometry": { "type": "Point", "coordinates": [ -122.3331484, 47.6010034 ] } },
{ "type": "Feature", "properties": { "name": "The Meyer", "barclass": "Bar", "barcode": 1 }, "geometry": { "type": "Point", "coordinates": [ -122.3333195, 47.6010056 ] } },
{ "type": "Feature", "properties": { "name": "OHM", "barclass": "Nightclub", "barcode": 3 }, "geometry": { "type": "Point", "coordinates": [ -122.3318762, 47.6010087 ] } },
{ "type": "Feature", "properties": { "name": "Damn the Weather", "barclass": "Pub", "barcode": 2 }, "geometry": { "type": "Point", "coordinates": [ -122.3339605, 47.6011107 ] } },
{ "type": "Feature", "properties": { "name": "Dead Line", "barclass": "Bar", "barcode": 1 }, "geometry": { "type": "Point", "coordinates": [ -122.3339605, 47.6011543 ] } },
{ "type": "Feature", "properties": { "name": "The Central Saloon", "barclass": "Pub", "barcode": 2 }, "geometry": { "type": "Point", "coordinates": [ -122.3344038, 47.6006031 ] } },
{ "type": "Feature", "properties": { "name": "Owl 'N Thistle", "barclass": "Pub", "barcode": 2 }, "geometry": { "type": "Point", "coordinates": [ -122.335675, 47.6033419 ] } },
{ "type": "Feature", "properties": { "name": "Rosebay", "barclass": "Bar", "barcode": 1 }, "geometry": { "type": "Point", "coordinates": [ -122.3361579, 47.6048942 ] } },
{ "type": "Feature", "properties": { "name": "The Bookstore Bar & Cafe", "barclass": "Bar", "barcode": 1 }, "geometry": { "type": "Point", "coordinates": [ -122.3366919, 47.6049139 ] } },
{ "type": "Feature", "properties": { "name": "Copperworks Tasting Room & Distillery", "barclass": "Bar", "barcode": 1 }, "geometry": { "type": "Point", "coordinates": [ -122.33973, 47.606008 ] } },
{ "type": "Feature", "properties": { "name": "Von's 1000 Spirits", "barclass": "Bar", "barcode": 1 }, "geometry": { "type": "Point", "coordinates": [ -122.3383038, 47.6066387 ] } },
{ "type": "Feature", "properties": { "name": "Enoteca Due Leoni", "barclass": "Bar", "barcode": 1 }, "geometry": { "type": "Point", "coordinates": [ -122.3378735, 47.6067741 ] } },
{ "type": "Feature", "properties": { "name": "The Diller Room", "barclass": "Bar", "barcode": 1 }, "geometry": { "type": "Point", "coordinates": [ -122.3378903, 47.6068071 ] } },
{ "type": "Feature", "properties": { "name": "Seattle Beer Company", "barclass": "Bar", "barcode": 1 }, "geometry": { "type": "Point", "coordinates": [ -122.341186, 47.6082021 ] } },
{ "type": "Feature", "properties": { "name": "Alibi Room", "barclass": "Bar", "barcode": 1 }, "geometry": { "type": "Point", "coordinates": [ -122.3403644, 47.6082567 ] } },
{ "type": "Feature", "properties": { "name": "Merchant's Cafe and Saloon", "barclass": "Pub", "barcode": 2 }, "geometry": { "type": "Point", "coordinates": [ -122.33342827506101, 47.60154785 ] } },
{ "type": "Feature", "properties": { "name": "Trinity Nightclub", "barclass": "Nightclub", "barcode": 3 }, "geometry": { "type": "Point", "coordinates": [ -122.3333473, 47.6016022 ] } },
{ "type": "Feature", "properties": { "name": "Shawn O'Donnell's American Grill and Irish Pub", "barclass": "Pub", "barcode": 2 }, "geometry": { "type": "Point", "coordinates": [ -122.331971, 47.6019851 ] } },
{ "type": "Feature", "properties": { "name": "The Collins Pub", "barclass": "Bar", "barcode": 1 }, "geometry": { "type": "Point", "coordinates": [ -122.332192, 47.6022402 ] } },
{ "type": "Feature", "properties": { "name": "Doc Maynard's Public House", "barclass": "Bar", "barcode": 1 }, "geometry": { "type": "Point", "coordinates": [ -122.333801, 47.6022919 ] } },
{ "type": "Feature", "properties": { "name": "The 515", "barclass": "Bar", "barcode": 1 }, "geometry": { "type": "Point", "coordinates": [ -122.3307478, 47.6067302 ] } },
{ "type": "Feature", "properties": { "name": "Trace", "barclass": "Bar", "barcode": 1 }, "geometry": { "type": "Point", "coordinates": [ -122.3339425, 47.6074907 ] } },
{ "type": "Feature", "properties": { "name": "Olympic Bar", "barclass": "Bar", "barcode": 1 }, "geometry": { "type": "Point", "coordinates": [ -122.3340253, 47.6081354 ] } },
{ "type": "Feature", "properties": { "name": "Regatta Bar & Grille", "barclass": "Bar", "barcode": 1 }, "geometry": { "type": "Point", "coordinates": [ -122.3320046, 47.608152 ] } },
{ "type": "Feature", "properties": { "name": "Founders Club", "barclass": "Bar", "barcode": 1 }, "geometry": { "type": "Point", "coordinates": [ -122.3338261, 47.6081626 ] } },
{ "type": "Feature", "properties": { "name": "The Blarney Stone Pub", "barclass": "Pub", "barcode": 2 }, "geometry": { "type": "Point", "coordinates": [ -122.3393223, 47.6083465 ] } },
{ "type": "Feature", "properties": { "name": "Old Stove Brewing Co. Marketfront", "barclass": "Pub", "barcode": 2 }, "geometry": { "type": "Point", "coordinates": [ -122.3428497, 47.6094952 ] } },
{ "type": "Feature", "properties": { "name": "Rachel's Ginger Beer - Pike Place Market", "barclass": "Bar", "barcode": 1 }, "geometry": { "type": "Point", "coordinates": [ -122.3413569, 47.609505 ] } },
{ "type": "Feature", "properties": { "name": "The Tap Room at Pike Place", "barclass": "Bar", "barcode": 1 }, "geometry": { "type": "Point", "coordinates": [ -122.3408711, 47.6095283 ] } },
{ "type": "Feature", "properties": { "name": "Elephant and Castle", "barclass": "Pub", "barcode": 2 }, "geometry": { "type": "Point", "coordinates": [ -122.3353594, 47.6099366 ] } },
{ "type": "Feature", "properties": { "name": "White Horse Trading Co.", "barclass": "Bar", "barcode": 1 }, "geometry": { "type": "Point", "coordinates": [ -122.3420495, 47.6101993 ] } },
{ "type": "Feature", "properties": { "name": "The Nest at Thompson Seattle", "barclass": "Bar", "barcode": 1 }, "geometry": { "type": "Point", "coordinates": [ -122.341378, 47.6105188 ] } },
{ "type": "Feature", "properties": { "name": "Karoo", "barclass": "Bar", "barcode": 1 }, "geometry": { "type": "Point", "coordinates": [ -122.3421511, 47.6106015 ] } },
{ "type": "Feature", "properties": { "name": "Jelly Bar", "barclass": "Bar", "barcode": 1 }, "geometry": { "type": "Point", "coordinates": [ -122.3408634, 47.6108398 ] } },
{ "type": "Feature", "properties": { "name": "WeRise Wines", "barclass": "Bar", "barcode": 1 }, "geometry": { "type": "Point", "coordinates": [ -122.3410265, 47.6111204 ] } },
{ "type": "Feature", "properties": { "name": "Fog Room", "barclass": "Bar", "barcode": 1 }, "geometry": { "type": "Point", "coordinates": [ -122.3399742, 47.6111373 ] } },
{ "type": "Feature", "properties": { "name": "Spin Seattle", "barclass": "Bar", "barcode": 1 }, "geometry": { "type": "Point", "coordinates": [ -122.3350611, 47.6114967 ] } },
{ "type": "Feature", "properties": { "name": "Retro Restaurant Lounge", "barclass": "Bar", "barcode": 1 }, "geometry": { "type": "Point", "coordinates": [ -122.3400275, 47.6115023 ] } },
{ "type": "Feature", "properties": { "name": "Cloudburst Brewing", "barclass": "Pub", "barcode": 2 }, "geometry": { "type": "Point", "coordinates": [ -122.3452717, 47.6116138 ] } },
{ "type": "Feature", "properties": { "name": "Tap House Grill", "barclass": "Pub", "barcode": 2 }, "geometry": { "type": "Point", "coordinates": [ -122.3346425, 47.6116164 ] } },
{ "type": "Feature", "properties": { "name": "Oliver's Lounge", "barclass": "Bar", "barcode": 1 }, "geometry": { "type": "Point", "coordinates": [ -122.3382256, 47.6121922 ] } },
{ "type": "Feature", "properties": { "name": "Just The Tap", "barclass": "Pub", "barcode": 2 }, "geometry": { "type": "Point", "coordinates": [ -122.3456212, 47.6124652 ] } },
{ "type": "Feature", "properties": { "name": "Black Cat", "barclass": "Bar", "barcode": 1 }, "geometry": { "type": "Point", "coordinates": [ -122.3448425, 47.6125721 ] } },
{ "type": "Feature", "properties": { "name": "Suite 410 Bar & Lounge", "barclass": "Bar", "barcode": 1 }, "geometry": { "type": "Point", "coordinates": [ -122.3386268, 47.6125905 ] } },
{ "type": "Feature", "properties": { "name": "Annex", "barclass": "Nightclub", "barcode": 3 }, "geometry": { "type": "Point", "coordinates": [ -122.3434526, 47.6129842 ] } },
{ "type": "Feature", "properties": { "name": "Fountain Wine Bar & Lounge", "barclass": "Bar", "barcode": 1 }, "geometry": { "type": "Point", "coordinates": [ -122.334003, 47.611069 ] } },
{ "type": "Feature", "properties": { "name": "Inside Passage", "barclass": "Bar", "barcode": 1 }, "geometry": { "type": "Point", "coordinates": [ -122.3286412, 47.6137735 ] } },
{ "type": "Feature", "properties": { "name": "Pike Brewing Taproom", "barclass": "Bar", "barcode": 1 }, "geometry": { "type": "Point", "coordinates": [ -122.3305087, 47.6144046 ] } },
{ "type": "Feature", "properties": { "name": "Still Liquor", "barclass": "Bar", "barcode": 1 }, "geometry": { "type": "Point", "coordinates": [ -122.3283112, 47.614602 ] } },
{ "type": "Feature", "properties": { "name": "Vice", "barclass": "Nightclub", "barcode": 3 }, "geometry": { "type": "Point", "coordinates": [ -122.3284395, 47.6147343 ] } },
{ "type": "Feature", "properties": { "name": "Keys on Main", "barclass": "Bar", "barcode": 1 }, "geometry": { "type": "Point", "coordinates": [ -122.331073, 47.6166458 ] } },
{ "type": "Feature", "properties": { "name": "Kremwerk", "barclass": "Nightclub", "barcode": 3 }, "geometry": { "type": "Point", "coordinates": [ -122.3311153, 47.6168989 ] } },
{ "type": "Feature", "properties": { "name": "Timbre Room", "barclass": "Nightclub", "barcode": 3 }, "geometry": { "type": "Point", "coordinates": [ -122.3311669, 47.6169221 ] } },
{ "type": "Feature", "properties": { "name": "Cherry Seattle", "barclass": "Nightclub", "barcode": 3 }, "geometry": { "type": "Point", "coordinates": [ -122.3311272, 47.616956 ] } },
{ "type": "Feature", "properties": { "name": "The Raven", "barclass": "Bar", "barcode": 1 }, "geometry": { "type": "Point", "coordinates": [ -122.3310274, 47.6169641 ] } },
{ "type": "Feature", "properties": { "name": "Screwdriver Bar", "barclass": "Bar", "barcode": 1 }, "geometry": { "type": "Point", "coordinates": [ -122.3470666, 47.6139031 ] } },
{ "type": "Feature", "properties": { "name": "Vindicktive Wings", "barclass": "Pub", "barcode": 2 }, "geometry": { "type": "Point", "coordinates": [ -122.3471252, 47.6139415 ] } },
{ "type": "Feature", "properties": { "name": "Belltown Yacht Club", "barclass": "Nightclub", "barcode": 3 }, "geometry": { "type": "Point", "coordinates": [ -122.3468379, 47.6140747 ] } },
{ "type": "Feature", "properties": { "name": "Ora", "barclass": "Nightclub", "barcode": 3 }, "geometry": { "type": "Point", "coordinates": [ -122.3474762, 47.6141416 ] } },
{ "type": "Feature", "properties": { "name": "Hatch Cantina", "barclass": "Pub", "barcode": 2 }, "geometry": { "type": "Point", "coordinates": [ -122.345655, 47.6142866 ] } },
{ "type": "Feature", "properties": { "name": "Rocco's", "barclass": "Bar", "barcode": 1 }, "geometry": { "type": "Point", "coordinates": [ -122.3460301, 47.6144724 ] } },
{ "type": "Feature", "properties": { "name": "Cyclops", "barclass": "Bar", "barcode": 1 }, "geometry": { "type": "Point", "coordinates": [ -122.3487511, 47.6145057 ] } },
{ "type": "Feature", "properties": { "name": "Shorty's", "barclass": "Pub", "barcode": 2 }, "geometry": { "type": "Point", "coordinates": [ -122.3460868, 47.6145079 ] } },
{ "type": "Feature", "properties": { "name": "Belltown Pizza & Game Room", "barclass": "Bar", "barcode": 1 }, "geometry": { "type": "Point", "coordinates": [ -122.3481044, 47.6145208 ] } },
{ "type": "Feature", "properties": { "name": "Cotto", "barclass": "Bar", "barcode": 1 }, "geometry": { "type": "Point", "coordinates": [ -122.3461938, 47.614565 ] } },
{ "type": "Feature", "properties": { "name": "Whiskey West", "barclass": "Bar", "barcode": 1 }, "geometry": { "type": "Point", "coordinates": [ -122.3874303, 47.5451395 ] } },
{ "type": "Feature", "properties": { "name": "Beveridge Place Pub", "barclass": "Pub", "barcode": 2 }, "geometry": { "type": "Point", "coordinates": [ -122.387499784930355, 47.5454269 ] } },
{ "type": "Feature", "properties": { "name": "The Bridge", "barclass": "Bar", "barcode": 1 }, "geometry": { "type": "Point", "coordinates": [ -122.3874357, 47.5465502 ] } },
{ "type": "Feature", "properties": { "name": "Box Bar", "barclass": "Bar", "barcode": 1 }, "geometry": { "type": "Point", "coordinates": [ -122.3872698, 47.5537792 ] } },
{ "type": "Feature", "properties": { "name": "Till Dawn", "barclass": "Bar", "barcode": 1 }, "geometry": { "type": "Point", "coordinates": [ -122.386683, 47.5561107 ] } },
{ "type": "Feature", "properties": { "name": "Alaska Junction Breakfast Lounge", "barclass": "Pub", "barcode": 2 }, "geometry": { "type": "Point", "coordinates": [ -122.3872054, 47.5602548 ] } },
{ "type": "Feature", "properties": { "name": "Elliott Bay Brewery and Pub", "barclass": "Pub", "barcode": 2 }, "geometry": { "type": "Point", "coordinates": [ -122.3865765, 47.5604072 ] } },
{ "type": "Feature", "properties": { "name": "Poggie Tavern", "barclass": "Bar", "barcode": 1 }, "geometry": { "type": "Point", "coordinates": [ -122.3870106, 47.5606177 ] } },
{ "type": "Feature", "properties": { "name": "Corner Pocket", "barclass": "Pub", "barcode": 2 }, "geometry": { "type": "Point", "coordinates": [ -122.387089, 47.561274 ] } },
{ "type": "Feature", "properties": { "name": "Revelry Room", "barclass": "Bar", "barcode": 1 }, "geometry": { "type": "Point", "coordinates": [ -122.3871735, 47.5615374 ] } },
{ "type": "Feature", "properties": { "name": "Triangle Pub", "barclass": "Pub", "barcode": 2 }, "geometry": { "type": "Point", "coordinates": [ -122.3553382, 47.5178407 ] } },
{ "type": "Feature", "properties": { "name": "Mr. B’s Mead Center", "barclass": "Pub", "barcode": 2 }, "geometry": { "type": "Point", "coordinates": [ -122.355473955611842, 47.51810825 ] } },
{ "type": "Feature", "properties": { "name": "Fountain Nightclub", "barclass": "Bar", "barcode": 1 }, "geometry": { "type": "Point", "coordinates": [ -122.346538, 47.6123872 ] } },
{ "type": "Feature", "properties": { "name": "Roquette", "barclass": "Bar", "barcode": 1 }, "geometry": { "type": "Point", "coordinates": [ -122.346165, 47.613372 ] } },
{ "type": "Feature", "properties": { "name": "Ampersand Lounge", "barclass": "Bar", "barcode": 1 }, "geometry": { "type": "Point", "coordinates": [ -122.3458134, 47.6137106 ] } },
{ "type": "Feature", "properties": { "name": "Can Bar", "barclass": "Bar", "barcode": 1 }, "geometry": { "type": "Point", "coordinates": [ -122.3567134, 47.5183644 ] } },
{ "type": "Feature", "properties": { "name": "2Fingers Social", "barclass": "Bar", "barcode": 1 }, "geometry": { "type": "Point", "coordinates": [ -122.358351049848835, 47.52060825 ] } },
{ "type": "Feature", "properties": { "name": "Ounces Taproom & Beer Garden", "barclass": "Bar", "barcode": 1 }, "geometry": { "type": "Point", "coordinates": [ -122.362786644460641, 47.56963065 ] } },
{ "type": "Feature", "properties": { "name": "Uptown Hophouse", "barclass": "Pub", "barcode": 2 }, "geometry": { "type": "Point", "coordinates": [ -122.3555931, 47.6204014 ] } },
{ "type": "Feature", "properties": { "name": "Queen Anne Beerhall", "barclass": "Bar", "barcode": 1 }, "geometry": { "type": "Point", "coordinates": [ -122.3597403, 47.62075775 ] } },
{ "type": "Feature", "properties": { "name": "Buckley's - Queen Anne", "barclass": "Pub", "barcode": 2 }, "geometry": { "type": "Point", "coordinates": [ -122.3577372, 47.6208303 ] } },
{ "type": "Feature", "properties": { "name": "Badlands", "barclass": "Bar", "barcode": 1 }, "geometry": { "type": "Point", "coordinates": [ -122.356578, 47.6243134 ] } },
{ "type": "Feature", "properties": { "name": "Ozzie's Bar", "barclass": "Bar", "barcode": 1 }, "geometry": { "type": "Point", "coordinates": [ -122.3582883, 47.6244856 ] } },
{ "type": "Feature", "properties": { "name": "The Camp West", "barclass": "Bar", "barcode": 1 }, "geometry": { "type": "Point", "coordinates": [ -122.3869753, 47.5618055 ] } },
{ "type": "Feature", "properties": { "name": "The Beer Junction", "barclass": "Pub", "barcode": 2 }, "geometry": { "type": "Point", "coordinates": [ -122.3870064, 47.5625293 ] } },
{ "type": "Feature", "properties": { "name": "The Alley", "barclass": "Bar", "barcode": 1 }, "geometry": { "type": "Point", "coordinates": [ -122.3873313, 47.5626162 ] } },
{ "type": "Feature", "properties": { "name": "Cold Crash Brewing Co. Tasting Room", "barclass": "Pub", "barcode": 2 }, "geometry": { "type": "Point", "coordinates": [ -122.39402782461994, 47.56272145 ] } },
{ "type": "Feature", "properties": { "name": "Three 9 Lounge", "barclass": "Bar", "barcode": 1 }, "geometry": { "type": "Point", "coordinates": [ -122.3817282, 47.5627477 ] } },
{ "type": "Feature", "properties": { "name": "Shadowland", "barclass": "Bar", "barcode": 1 }, "geometry": { "type": "Point", "coordinates": [ -122.3865862, 47.5629874 ] } },
{ "type": "Feature", "properties": { "name": "Itto's Vino", "barclass": "Bar", "barcode": 1 }, "geometry": { "type": "Point", "coordinates": [ -122.386569, 47.5648463 ] } },
{ "type": "Feature", "properties": { "name": "Larry's Tavern", "barclass": "Pub", "barcode": 2 }, "geometry": { "type": "Point", "coordinates": [ -122.387156211314419, 47.5735911 ] } },
{ "type": "Feature", "properties": { "name": "Little Donkey", "barclass": "Bar", "barcode": 1 }, "geometry": { "type": "Point", "coordinates": [ -122.3870271, 47.5736822 ] } },
{ "type": "Feature", "properties": { "name": "Driftwood", "barclass": "Pub", "barcode": 2 }, "geometry": { "type": "Point", "coordinates": [ -122.4103152, 47.5790584 ] } },
{ "type": "Feature", "properties": { "name": "The Good Society Brewery and Public House", "barclass": "Pub", "barcode": 2 }, "geometry": { "type": "Point", "coordinates": [ -122.3871296, 47.5791923 ] } },
{ "type": "Feature", "properties": { "name": "El Chup", "barclass": "Bar", "barcode": 1 }, "geometry": { "type": "Point", "coordinates": [ -122.4073055, 47.580075 ] } },
{ "type": "Feature", "properties": { "name": "Otter On The Rocks", "barclass": "Bar", "barcode": 1 }, "geometry": { "type": "Point", "coordinates": [ -122.3855548, 47.5813423 ] } },
{ "type": "Feature", "properties": { "name": "Admiral Benbow", "barclass": "Bar", "barcode": 1 }, "geometry": { "type": "Point", "coordinates": [ -122.385737, 47.5814842 ] } },
{ "type": "Feature", "properties": { "name": "Admiral Pub", "barclass": "Pub", "barcode": 2 }, "geometry": { "type": "Point", "coordinates": [ -122.3862912, 47.5827154 ] } },
{ "type": "Feature", "properties": { "name": "The Nook", "barclass": "Bar", "barcode": 1 }, "geometry": { "type": "Point", "coordinates": [ -122.38621272574909, 47.58372605 ] } },
{ "type": "Feature", "properties": { "name": "Magnolia Village Pub", "barclass": "Pub", "barcode": 2 }, "geometry": { "type": "Point", "coordinates": [ -122.3993643, 47.639425 ] } },
{ "type": "Feature", "properties": { "name": "Mulleady's", "barclass": "Pub", "barcode": 2 }, "geometry": { "type": "Point", "coordinates": [ -122.3835401, 47.6482614 ] } },
{ "type": "Feature", "properties": { "name": "Boxcar Ale House", "barclass": "Bar", "barcode": 1 }, "geometry": { "type": "Point", "coordinates": [ -122.3822704, 47.6505885 ] } },
{ "type": "Feature", "properties": { "name": "Figurehead Brewing Co.", "barclass": "Bar", "barcode": 1 }, "geometry": { "type": "Point", "coordinates": [ -122.383705, 47.6562238 ] } },
{ "type": "Feature", "properties": { "name": "Some Random Bar", "barclass": "Bar", "barcode": 1 }, "geometry": { "type": "Point", "coordinates": [ -122.3497647, 47.6155028 ] } },
{ "type": "Feature", "properties": { "name": "The 5 Point", "barclass": "Bar", "barcode": 1 }, "geometry": { "type": "Point", "coordinates": [ -122.3473344, 47.6181294 ] } },
{ "type": "Feature", "properties": { "name": "Swamp Cow kava bar", "barclass": "Bar", "barcode": 1 }, "geometry": { "type": "Point", "coordinates": [ -122.3536462, 47.6184462 ] } },
{ "type": "Feature", "properties": { "name": "TeKu Tavern", "barclass": "Bar", "barcode": 1 }, "geometry": { "type": "Point", "coordinates": [ -122.3460434, 47.6187394 ] } },
{ "type": "Feature", "properties": { "name": "The Loupe Lounge", "barclass": "Bar", "barcode": 1 }, "geometry": { "type": "Point", "coordinates": [ -122.3493623, 47.6205152 ] } },
{ "type": "Feature", "properties": { "name": "Tom's Watch Bar", "barclass": "Bar", "barcode": 1 }, "geometry": { "type": "Point", "coordinates": [ -122.35504840098244, 47.62068485 ] } },
{ "type": "Feature", "properties": { "name": "Rochambeau", "barclass": "Pub", "barcode": 2 }, "geometry": { "type": "Point", "coordinates": [ -122.3516934, 47.6253173 ] } },
{ "type": "Feature", "properties": { "name": "Solo Bar", "barclass": "Pub", "barcode": 2 }, "geometry": { "type": "Point", "coordinates": [ -122.3520571, 47.6255427 ] } },
{ "type": "Feature", "properties": { "name": "Streamline Tavern", "barclass": "Pub", "barcode": 2 }, "geometry": { "type": "Point", "coordinates": [ -122.353153, 47.6255799 ] } },
{ "type": "Feature", "properties": { "name": "McMenamins Queen Anne", "barclass": "Pub", "barcode": 2 }, "geometry": { "type": "Point", "coordinates": [ -122.351754, 47.6255822 ] } },
{ "type": "Feature", "properties": { "name": "Tin Lizzie Lounge", "barclass": "Bar", "barcode": 1 }, "geometry": { "type": "Point", "coordinates": [ -122.3565653, 47.6249277 ] } },
{ "type": "Feature", "properties": { "name": "Traveling Goat", "barclass": "Bar", "barcode": 1 }, "geometry": { "type": "Point", "coordinates": [ -122.3569223, 47.6252403 ] } },
{ "type": "Feature", "properties": { "name": "The Masonry", "barclass": "Pub", "barcode": 2 }, "geometry": { "type": "Point", "coordinates": [ -122.3557247, 47.6255544 ] } },
{ "type": "Feature", "properties": { "name": "Fast Fashion", "barclass": "Bar", "barcode": 1 }, "geometry": { "type": "Point", "coordinates": [ -122.3559497, 47.625555 ] } },
{ "type": "Feature", "properties": { "name": "The Sitting Room", "barclass": "Bar", "barcode": 1 }, "geometry": { "type": "Point", "coordinates": [ -122.3585581, 47.6258319 ] } },
{ "type": "Feature", "properties": { "name": "Batch 206 Distillery", "barclass": "Bar", "barcode": 1 }, "geometry": { "type": "Point", "coordinates": [ -122.3742762, 47.6306513 ] } },
{ "type": "Feature", "properties": { "name": "Sully's Lounge", "barclass": "Bar", "barcode": 1 }, "geometry": { "type": "Point", "coordinates": [ -122.357273210146104, 47.6343506 ] } },
{ "type": "Feature", "properties": { "name": "Targy's", "barclass": "Pub", "barcode": 2 }, "geometry": { "type": "Point", "coordinates": [ -122.365163, 47.6378861 ] } },
{ "type": "Feature", "properties": { "name": "Hilltop Ale House", "barclass": "Pub", "barcode": 2 }, "geometry": { "type": "Point", "coordinates": [ -122.3571107, 47.6380526 ] } },
{ "type": "Feature", "properties": { "name": "The Good Society Brewery & Barrel House", "barclass": "Pub", "barcode": 2 }, "geometry": { "type": "Point", "coordinates": [ -122.364771, 47.6394797 ] } },
{ "type": "Feature", "properties": { "name": "Cairde Public House", "barclass": "Pub", "barcode": 2 }, "geometry": { "type": "Point", "coordinates": [ -122.3478265, 47.6256049 ] } },
{ "type": "Feature", "properties": { "name": "Bad Bar", "barclass": "Bar", "barcode": 1 }, "geometry": { "type": "Point", "coordinates": [ -122.347734, 47.6269337 ] } },
{ "type": "Feature", "properties": { "name": "Mansion Creek Cellars", "barclass": "Bar", "barcode": 1 }, "geometry": { "type": "Point", "coordinates": [ -122.3470126, 47.6493086 ] } },
{ "type": "Feature", "properties": { "name": "Schilling Cider House", "barclass": "Pub", "barcode": 2 }, "geometry": { "type": "Point", "coordinates": [ -122.3492088, 47.6496206 ] } },
{ "type": "Feature", "properties": { "name": "The Barrel Thief", "barclass": "Pub", "barcode": 2 }, "geometry": { "type": "Point", "coordinates": [ -122.3514784, 47.6506413 ] } },
{ "type": "Feature", "properties": { "name": "Triangle Spirits", "barclass": "Bar", "barcode": 1 }, "geometry": { "type": "Point", "coordinates": [ -122.3508326, 47.6508151 ] } },
{ "type": "Feature", "properties": { "name": "Mr. B's Meadery", "barclass": "Bar", "barcode": 1 }, "geometry": { "type": "Point", "coordinates": [ -122.3524015, 47.6515172 ] } },
{ "type": "Feature", "properties": { "name": "Bar House", "barclass": "Bar", "barcode": 1 }, "geometry": { "type": "Point", "coordinates": [ -122.3521824, 47.6515174 ] } },
{ "type": "Feature", "properties": { "name": "Shawn O'Donnell's American Grill and Irish Pub", "barclass": "Pub", "barcode": 2 }, "geometry": { "type": "Point", "coordinates": [ -122.350184, 47.6515569 ] } },
{ "type": "Feature", "properties": { "name": "Hidden Hall", "barclass": "Nightclub", "barcode": 3 }, "geometry": { "type": "Point", "coordinates": [ -122.354208397802196, 47.6516233 ] } },
{ "type": "Feature", "properties": { "name": "Bar Miriam", "barclass": "Bar", "barcode": 1 }, "geometry": { "type": "Point", "coordinates": [ -122.361358, 47.6394825 ] } },
{ "type": "Feature", "properties": { "name": "The Fremont Social", "barclass": "Bar", "barcode": 1 }, "geometry": { "type": "Point", "coordinates": [ -122.3563034, 47.651428 ] } },
{ "type": "Feature", "properties": { "name": "Old Stove Brewing", "barclass": "Pub", "barcode": 2 }, "geometry": { "type": "Point", "coordinates": [ -122.3645639, 47.6521302 ] } },
{ "type": "Feature", "properties": { "name": "Twist of Fate", "barclass": "Bar", "barcode": 1 }, "geometry": { "type": "Point", "coordinates": [ -122.3555593, 47.6522807 ] } },
{ "type": "Feature", "properties": { "name": "Petoskey’s", "barclass": "Pub", "barcode": 2 }, "geometry": { "type": "Point", "coordinates": [ -122.3565691, 47.6525414 ] } },
{ "type": "Feature", "properties": { "name": "Stampede Cocktail Club", "barclass": "Bar", "barcode": 1 }, "geometry": { "type": "Point", "coordinates": [ -122.3567849, 47.6525775 ] } },
{ "type": "Feature", "properties": { "name": "The George & Dragon Pub", "barclass": "Pub", "barcode": 2 }, "geometry": { "type": "Point", "coordinates": [ -122.356147096810332, 47.65302995 ] } },
{ "type": "Feature", "properties": { "name": "Captive Spirits", "barclass": "Bar", "barcode": 1 }, "geometry": { "type": "Point", "coordinates": [ -122.3732521, 47.6565408 ] } },
{ "type": "Feature", "properties": { "name": "Last Call", "barclass": "Bar", "barcode": 1 }, "geometry": { "type": "Point", "coordinates": [ -122.36344795, 47.6573167 ] } },
{ "type": "Feature", "properties": { "name": "4Bs", "barclass": "Pub", "barcode": 2 }, "geometry": { "type": "Point", "coordinates": [ -122.364500907734708, 47.65910525 ] } },
{ "type": "Feature", "properties": { "name": "ST Hooligans", "barclass": "Bar", "barcode": 1 }, "geometry": { "type": "Point", "coordinates": [ -122.3657442, 47.6602513 ] } },
{ "type": "Feature", "properties": { "name": "Pono Ranch", "barclass": "Pub", "barcode": 2 }, "geometry": { "type": "Point", "coordinates": [ -122.376603364457267, 47.66191075 ] } },
{ "type": "Feature", "properties": { "name": "The Jolly Roger Taproom", "barclass": "Pub", "barcode": 2 }, "geometry": { "type": "Point", "coordinates": [ -122.3717959, 47.6626819 ] } },
{ "type": "Feature", "properties": { "name": "Pine Tavern", "barclass": "Pub", "barcode": 2 }, "geometry": { "type": "Point", "coordinates": [ -122.3787054, 47.66425 ] } },
{ "type": "Feature", "properties": { "name": "Bale Breaker Yonder Taproom", "barclass": "Pub", "barcode": 2 }, "geometry": { "type": "Point", "coordinates": [ -122.3675601, 47.6645486 ] } },
{ "type": "Feature", "properties": { "name": "Fair Isle Brewing", "barclass": "Pub", "barcode": 2 }, "geometry": { "type": "Point", "coordinates": [ -122.3703583, 47.6645771 ] } },
{ "type": "Feature", "properties": { "name": "Old Stove Brewing Co - Gardens", "barclass": "Pub", "barcode": 2 }, "geometry": { "type": "Point", "coordinates": [ -122.378321968700888, 47.66461665 ] } },
{ "type": "Feature", "properties": { "name": "Lucky Envelope Brewing", "barclass": "Pub", "barcode": 2 }, "geometry": { "type": "Point", "coordinates": [ -122.3691195, 47.6648619 ] } },
{ "type": "Feature", "properties": { "name": "Trailbend Taproom", "barclass": "Pub", "barcode": 2 }, "geometry": { "type": "Point", "coordinates": [ -122.37162245, 47.66525095 ] } },
{ "type": "Feature", "properties": { "name": "Reuben's Brews: The Taproom", "barclass": "Pub", "barcode": 2 }, "geometry": { "type": "Point", "coordinates": [ -122.3732325, 47.6654085 ] } },
{ "type": "Feature", "properties": { "name": "Connect Lounge", "barclass": "Bar", "barcode": 1 }, "geometry": { "type": "Point", "coordinates": [ -122.3469696, 47.6146068 ] } },
{ "type": "Feature", "properties": { "name": "Rendezvous", "barclass": "Bar", "barcode": 1 }, "geometry": { "type": "Point", "coordinates": [ -122.3462961, 47.6146245 ] } },
{ "type": "Feature", "properties": { "name": "Pub 70", "barclass": "Pub", "barcode": 2 }, "geometry": { "type": "Point", "coordinates": [ -122.3547916, 47.6146314 ] } },
{ "type": "Feature", "properties": { "name": "The Crocodile", "barclass": "Nightclub", "barcode": 3 }, "geometry": { "type": "Point", "coordinates": [ -122.3490734, 47.6146474 ] } },
{ "type": "Feature", "properties": { "name": "Vue", "barclass": "Nightclub", "barcode": 3 }, "geometry": { "type": "Point", "coordinates": [ -122.3463704, 47.6146943 ] } },
{ "type": "Feature", "properties": { "name": "Chiho Bistro", "barclass": "Bar", "barcode": 1 }, "geometry": { "type": "Point", "coordinates": [ -122.3465581, 47.614777 ] } },
{ "type": "Feature", "properties": { "name": "Rob Roy", "barclass": "Bar", "barcode": 1 }, "geometry": { "type": "Point", "coordinates": [ -122.3466051, 47.6148035 ] } },
{ "type": "Feature", "properties": { "name": "Here Today Brewery & Kitchen", "barclass": "Pub", "barcode": 2 }, "geometry": { "type": "Point", "coordinates": [ -122.353981, 47.6149875 ] } },
{ "type": "Feature", "properties": { "name": "Navy Strength", "barclass": "Pub", "barcode": 2 }, "geometry": { "type": "Point", "coordinates": [ -122.348148, 47.6153176 ] } },
{ "type": "Feature", "properties": { "name": "Vinnie's Wine Shop", "barclass": "Pub", "barcode": 2 }, "geometry": { "type": "Point", "coordinates": [ -122.3482781, 47.6153953 ] } },
{ "type": "Feature", "properties": { "name": "Neighbours", "barclass": "Bar", "barcode": 1 }, "geometry": { "type": "Point", "coordinates": [ -122.3210341, 47.6144236 ] } },
{ "type": "Feature", "properties": { "name": "Marseille", "barclass": "Bar", "barcode": 1 }, "geometry": { "type": "Point", "coordinates": [ -122.3281535, 47.6148398 ] } },
{ "type": "Feature", "properties": { "name": "Linda's Tavern", "barclass": "Pub", "barcode": 2 }, "geometry": { "type": "Point", "coordinates": [ -122.32301146301414, 47.61506625 ] } },
{ "type": "Feature", "properties": { "name": "Massive", "barclass": "Bar", "barcode": 1 }, "geometry": { "type": "Point", "coordinates": [ -122.3237201, 47.6150824 ] } },
{ "type": "Feature", "properties": { "name": "Raygun Lounge", "barclass": "Bar", "barcode": 1 }, "geometry": { "type": "Point", "coordinates": [ -122.3251369, 47.6150856 ] } },
{ "type": "Feature", "properties": { "name": "Sugar Hill", "barclass": "Bar", "barcode": 1 }, "geometry": { "type": "Point", "coordinates": [ -122.3260787, 47.6153516 ] } },
{ "type": "Feature", "properties": { "name": "El Lugar", "barclass": "Bar", "barcode": 1 }, "geometry": { "type": "Point", "coordinates": [ -122.3239879, 47.6153627 ] } },
{ "type": "Feature", "properties": { "name": "Cantina del Sol", "barclass": "Bar", "barcode": 1 }, "geometry": { "type": "Point", "coordinates": [ -122.3257687, 47.6153671 ] } },
{ "type": "Feature", "properties": { "name": "The Pine Box", "barclass": "Pub", "barcode": 2 }, "geometry": { "type": "Point", "coordinates": [ -122.3276703, 47.6154981 ] } },
{ "type": "Feature", "properties": { "name": "Donna's", "barclass": "Bar", "barcode": 1 }, "geometry": { "type": "Point", "coordinates": [ -122.3275746, 47.6166381 ] } },
{ "type": "Feature", "properties": { "name": "The Whisky Bar", "barclass": "Bar", "barcode": 1 }, "geometry": { "type": "Point", "coordinates": [ -122.3436702, 47.6131095 ] } },
{ "type": "Feature", "properties": { "name": "Bathtub Gin", "barclass": "Bar", "barcode": 1 }, "geometry": { "type": "Point", "coordinates": [ -122.3450044, 47.6131345 ] } },
{ "type": "Feature", "properties": { "name": "Jupiter Bar", "barclass": "Bar", "barcode": 1 }, "geometry": { "type": "Point", "coordinates": [ -122.3438682, 47.6132144 ] } },
{ "type": "Feature", "properties": { "name": "5 Star", "barclass": "Bar", "barcode": 1 }, "geometry": { "type": "Point", "coordinates": [ -122.3455807, 47.613772 ] } },
{ "type": "Feature", "properties": { "name": "Phocific Standard Time", "barclass": "Bar", "barcode": 1 }, "geometry": { "type": "Point", "coordinates": [ -122.3372723, 47.614704 ] } },
{ "type": "Feature", "properties": { "name": "Le Caviste", "barclass": "Bar", "barcode": 1 }, "geometry": { "type": "Point", "coordinates": [ -122.3371456, 47.6147087 ] } },
{ "type": "Feature", "properties": { "name": "The Cottontail", "barclass": "Bar", "barcode": 1 }, "geometry": { "type": "Point", "coordinates": [ -122.3437346, 47.6147483 ] } },
{ "type": "Feature", "properties": { "name": "The Victor Tavern", "barclass": "Pub", "barcode": 2 }, "geometry": { "type": "Point", "coordinates": [ -122.3400988, 47.6151947 ] } },
{ "type": "Feature", "properties": { "name": "Deep Dive", "barclass": "Bar", "barcode": 1 }, "geometry": { "type": "Point", "coordinates": [ -122.3393252, 47.615603 ] } },
{ "type": "Feature", "properties": { "name": "Thomas Street Warehouse", "barclass": "Pub", "barcode": 2 }, "geometry": { "type": "Point", "coordinates": [ -122.339237, 47.6207496 ] } },
{ "type": "Feature", "properties": { "name": "Pie Bar", "barclass": "Bar", "barcode": 1 }, "geometry": { "type": "Point", "coordinates": [ -122.3273958, 47.6166974 ] } },
{ "type": "Feature", "properties": { "name": "Knee High Stocking Company", "barclass": "Bar", "barcode": 1 }, "geometry": { "type": "Point", "coordinates": [ -122.3274506, 47.6169643 ] } },
{ "type": "Feature", "properties": { "name": "The Crescent", "barclass": "Bar", "barcode": 1 }, "geometry": { "type": "Point", "coordinates": [ -122.3263046, 47.6174661 ] } },
{ "type": "Feature", "properties": { "name": "Hula Hula", "barclass": "Bar", "barcode": 1 }, "geometry": { "type": "Point", "coordinates": [ -122.3259419, 47.6179198 ] } },
{ "type": "Feature", "properties": { "name": "Montana", "barclass": "Bar", "barcode": 1 }, "geometry": { "type": "Point", "coordinates": [ -122.3262971, 47.6179414 ] } },
{ "type": "Feature", "properties": { "name": "Revolver Bar", "barclass": "Bar", "barcode": 1 }, "geometry": { "type": "Point", "coordinates": [ -122.3260709, 47.6181916 ] } },
{ "type": "Feature", "properties": { "name": "Hillside Bar", "barclass": "Bar", "barcode": 1 }, "geometry": { "type": "Point", "coordinates": [ -122.3259852, 47.6183009 ] } },
{ "type": "Feature", "properties": { "name": "Yeti Bar", "barclass": "Bar", "barcode": 1 }, "geometry": { "type": "Point", "coordinates": [ -122.321079, 47.6185153 ] } },
{ "type": "Feature", "properties": { "name": "Captain Blacks", "barclass": "Bar", "barcode": 1 }, "geometry": { "type": "Point", "coordinates": [ -122.3241849, 47.6193202 ] } },
{ "type": "Feature", "properties": { "name": "The Doctor's Office", "barclass": "Bar", "barcode": 1 }, "geometry": { "type": "Point", "coordinates": [ -122.3242875, 47.6194168 ] } },
{ "type": "Feature", "properties": { "name": "Flatstick Pub", "barclass": "Pub", "barcode": 2 }, "geometry": { "type": "Point", "coordinates": [ -122.338768, 47.6250152 ] } },
{ "type": "Feature", "properties": { "name": "Tapster", "barclass": "Pub", "barcode": 2 }, "geometry": { "type": "Point", "coordinates": [ -122.3366232, 47.6255812 ] } },
{ "type": "Feature", "properties": { "name": "Art Marble 21", "barclass": "Bar", "barcode": 1 }, "geometry": { "type": "Point", "coordinates": [ -122.3394539, 47.6264312 ] } },
{ "type": "Feature", "properties": { "name": "The Toledo", "barclass": "Bar", "barcode": 1 }, "geometry": { "type": "Point", "coordinates": [ -122.342022, 47.6338758 ] } },
{ "type": "Feature", "properties": { "name": "Mini Bar Seattle", "barclass": "Pub", "barcode": 2 }, "geometry": { "type": "Point", "coordinates": [ -122.3431933, 47.6484836 ] } },
{ "type": "Feature", "properties": { "name": "Fremont Dock", "barclass": "Pub", "barcode": 2 }, "geometry": { "type": "Point", "coordinates": [ -122.343790287548075, 47.64888835 ] } },
{ "type": "Feature", "properties": { "name": "Fremont Brewing Urban Beer Garden", "barclass": "Pub", "barcode": 2 }, "geometry": { "type": "Point", "coordinates": [ -122.344455482955652, 47.6490437 ] } },
{ "type": "Feature", "properties": { "name": "Pacific Inn Pub", "barclass": "Pub", "barcode": 2 }, "geometry": { "type": "Point", "coordinates": [ -122.343021978760163, 47.6496255 ] } },
{ "type": "Feature", "properties": { "name": "Figurehead Stone Way", "barclass": "Pub", "barcode": 2 }, "geometry": { "type": "Point", "coordinates": [ -122.3429942, 47.6499568 ] } },
{ "type": "Feature", "properties": { "name": "Union Saloon", "barclass": "Pub", "barcode": 2 }, "geometry": { "type": "Point", "coordinates": [ -122.336536475877367, 47.65183235 ] } },
{ "type": "Feature", "properties": { "name": "El Corazón", "barclass": "Nightclub", "barcode": 3 }, "geometry": { "type": "Point", "coordinates": [ -122.3293154, 47.6187293 ] } },
{ "type": "Feature", "properties": { "name": "Funhouse", "barclass": "Nightclub", "barcode": 3 }, "geometry": { "type": "Point", "coordinates": [ -122.3293152, 47.6188871 ] } },
{ "type": "Feature", "properties": { "name": "Drift Yoga + Juice Bar", "barclass": "Bar", "barcode": 1 }, "geometry": { "type": "Point", "coordinates": [ -122.3314594, 47.6218152 ] } },
{ "type": "Feature", "properties": { "name": "Bar Harbor", "barclass": "Bar", "barcode": 1 }, "geometry": { "type": "Point", "coordinates": [ -122.3338904, 47.6220825 ] } },
{ "type": "Feature", "properties": { "name": "Associated Vintners Tasting Room & Wine Bar", "barclass": "Bar", "barcode": 1 }, "geometry": { "type": "Point", "coordinates": [ -122.3339593, 47.6229056 ] } },
{ "type": "Feature", "properties": { "name": "Lowlander Brewing", "barclass": "Bar", "barcode": 1 }, "geometry": { "type": "Point", "coordinates": [ -122.3295779, 47.6236561 ] } },
{ "type": "Feature", "properties": { "name": "Gasworks Brewing", "barclass": "Bar", "barcode": 1 }, "geometry": { "type": "Point", "coordinates": [ -122.3294682, 47.6514871 ] } },
{ "type": "Feature", "properties": { "name": "The Octopus Bar", "barclass": "Bar", "barcode": 1 }, "geometry": { "type": "Point", "coordinates": [ -122.332721, 47.6612626 ] } },
{ "type": "Feature", "properties": { "name": "Al's Tavern", "barclass": "Pub", "barcode": 2 }, "geometry": { "type": "Point", "coordinates": [ -122.3311202, 47.6612631 ] } },
{ "type": "Feature", "properties": { "name": "Korochka Tavern", "barclass": "Bar", "barcode": 1 }, "geometry": { "type": "Point", "coordinates": [ -122.3305611, 47.6612662 ] } },
{ "type": "Feature", "properties": { "name": "Changes", "barclass": "Bar", "barcode": 1 }, "geometry": { "type": "Point", "coordinates": [ -122.3334927, 47.6612762 ] } },
{ "type": "Feature", "properties": { "name": "Sea Monster Lounge", "barclass": "Bar", "barcode": 1 }, "geometry": { "type": "Point", "coordinates": [ -122.332319, 47.6615049 ] } },
{ "type": "Feature", "properties": { "name": "Murphy's", "barclass": "Pub", "barcode": 2 }, "geometry": { "type": "Point", "coordinates": [ -122.3339048, 47.6615168 ] } },
{ "type": "Feature", "properties": { "name": "Leny's Place", "barclass": "Pub", "barcode": 2 }, "geometry": { "type": "Point", "coordinates": [ -122.3320871, 47.6687601 ] } },
{ "type": "Feature", "properties": { "name": "TangleTown Public House", "barclass": "Pub", "barcode": 2 }, "geometry": { "type": "Point", "coordinates": [ -122.333474, 47.6687837 ] } },
{ "type": "Feature", "properties": { "name": "Alsan Brewing", "barclass": "Pub", "barcode": 2 }, "geometry": { "type": "Point", "coordinates": [ -122.3315371, 47.6689603 ] } },
{ "type": "Feature", "properties": { "name": "Hannyatou", "barclass": "Bar", "barcode": 1 }, "geometry": { "type": "Point", "coordinates": [ -122.3441909, 47.6539761 ] } },
{ "type": "Feature", "properties": { "name": "Russells", "barclass": "Bar", "barcode": 1 }, "geometry": { "type": "Point", "coordinates": [ -122.342611, 47.6571111 ] } },
{ "type": "Feature", "properties": { "name": "Respite", "barclass": "Bar", "barcode": 1 }, "geometry": { "type": "Point", "coordinates": [ -122.3421028, 47.6571564 ] } },
{ "type": "Feature", "properties": { "name": "U Wine Bar", "barclass": "Bar", "barcode": 1 }, "geometry": { "type": "Point", "coordinates": [ -122.3424229, 47.6609496 ] } },
{ "type": "Feature", "properties": { "name": "Occhi Belli", "barclass": "Bar", "barcode": 1 }, "geometry": { "type": "Point", "coordinates": [ -122.339467244578003, 47.66118285 ] } },
{ "type": "Feature", "properties": { "name": "Über", "barclass": "Pub", "barcode": 2 }, "geometry": { "type": "Point", "coordinates": [ -122.344687, 47.6838372 ] } },
{ "type": "Feature", "properties": { "name": "Easy Pace Brewing", "barclass": "Pub", "barcode": 2 }, "geometry": { "type": "Point", "coordinates": [ -122.325554, 47.680189 ] } },
{ "type": "Feature", "properties": { "name": "Little Red Hen", "barclass": "Bar", "barcode": 1 }, "geometry": { "type": "Point", "coordinates": [ -122.324803, 47.6802354 ] } },
{ "type": "Feature", "properties": { "name": "The Atlantic Crossing", "barclass": "Pub", "barcode": 2 }, "geometry": { "type": "Point", "coordinates": [ -122.3245931, 47.6806719 ] } },
{ "type": "Feature", "properties": { "name": "The Old 5th Avenue", "barclass": "Pub", "barcode": 2 }, "geometry": { "type": "Point", "coordinates": [ -122.323192, 47.6906483 ] } },
{ "type": "Feature", "properties": { "name": "Watershed Pub", "barclass": "Pub", "barcode": 2 }, "geometry": { "type": "Point", "coordinates": [ -122.3255337, 47.701915 ] } },
{ "type": "Feature", "properties": { "name": "32 Bar & Grill", "barclass": "Pub", "barcode": 2 }, "geometry": { "type": "Point", "coordinates": [ -122.3256875, 47.7062696 ] } },
{ "type": "Feature", "properties": { "name": "Madrona Arms", "barclass": "Pub", "barcode": 2 }, "geometry": { "type": "Point", "coordinates": [ -122.2891486, 47.6127914 ] } },
{ "type": "Feature", "properties": { "name": "Bottlehouse", "barclass": "Pub", "barcode": 2 }, "geometry": { "type": "Point", "coordinates": [ -122.289003413718405, 47.61348555 ] } },
{ "type": "Feature", "properties": { "name": "Bar Cotto", "barclass": "Bar", "barcode": 1 }, "geometry": { "type": "Point", "coordinates": [ -122.3125981, 47.6150507 ] } },
{ "type": "Feature", "properties": { "name": "The BottleNeck Lounge", "barclass": "Bar", "barcode": 1 }, "geometry": { "type": "Point", "coordinates": [ -122.3016, 47.6199858 ] } },
{ "type": "Feature", "properties": { "name": "Liberty", "barclass": "Bar", "barcode": 1 }, "geometry": { "type": "Point", "coordinates": [ -122.312827, 47.6235665 ] } },
{ "type": "Feature", "properties": { "name": "Harry's Bar", "barclass": "Bar", "barcode": 1 }, "geometry": { "type": "Point", "coordinates": [ -122.3124231, 47.6237638 ] } },
{ "type": "Feature", "properties": { "name": "Bar Cantinetta", "barclass": "Bar", "barcode": 1 }, "geometry": { "type": "Point", "coordinates": [ -122.3127903, 47.6240947 ] } },
{ "type": "Feature", "properties": { "name": "Pitch the Baby", "barclass": "Pub", "barcode": 2 }, "geometry": { "type": "Point", "coordinates": [ -122.3071283, 47.6245355 ] } },
{ "type": "Feature", "properties": { "name": "The Red Onion", "barclass": "Pub", "barcode": 2 }, "geometry": { "type": "Point", "coordinates": [ -122.2780581, 47.6359569 ] } },
{ "type": "Feature", "properties": { "name": "The Attic", "barclass": "Pub", "barcode": 2 }, "geometry": { "type": "Point", "coordinates": [ -122.2775671, 47.6362868 ] } },
{ "type": "Feature", "properties": { "name": "Unicorn Bar", "barclass": "Bar", "barcode": 1 }, "geometry": { "type": "Point", "coordinates": [ -122.317246, 47.614234 ] } },
{ "type": "Feature", "properties": { "name": "Flight", "barclass": "Bar", "barcode": 1 }, "geometry": { "type": "Point", "coordinates": [ -122.3153374, 47.6143867 ] } },
{ "type": "Feature", "properties": { "name": "Five Iron Golf", "barclass": "Bar", "barcode": 1 }, "geometry": { "type": "Point", "coordinates": [ -122.318365, 47.6146451 ] } },
{ "type": "Feature", "properties": { "name": "queer/bar", "barclass": "Nightclub", "barcode": 3 }, "geometry": { "type": "Point", "coordinates": [ -122.3179499, 47.6147799 ] } },
{ "type": "Feature", "properties": { "name": "The Cuff Complex", "barclass": "Nightclub", "barcode": 3 }, "geometry": { "type": "Point", "coordinates": [ -122.316159106482331, 47.61494345 ] } },
{ "type": "Feature", "properties": { "name": "Artusi", "barclass": "Bar", "barcode": 1 }, "geometry": { "type": "Point", "coordinates": [ -122.3143967, 47.615173 ] } },
{ "type": "Feature", "properties": { "name": "Rock Box", "barclass": "Bar", "barcode": 1 }, "geometry": { "type": "Point", "coordinates": [ -122.3202129, 47.6154799 ] } },
{ "type": "Feature", "properties": { "name": "Hopvine Pub", "barclass": "Pub", "barcode": 2 }, "geometry": { "type": "Point", "coordinates": [ -122.312828, 47.6233694 ] } },
{ "type": "Feature", "properties": { "name": "Marina Cantina", "barclass": "Bar", "barcode": 1 }, "geometry": { "type": "Point", "coordinates": [ -122.3141937, 47.6514659 ] } },
{ "type": "Feature", "properties": { "name": "College Inn Pub", "barclass": "Pub", "barcode": 2 }, "geometry": { "type": "Point", "coordinates": [ -122.3131194, 47.6555347 ] } },
{ "type": "Feature", "properties": { "name": "Sol Liquor Lounge", "barclass": "Bar", "barcode": 1 }, "geometry": { "type": "Point", "coordinates": [ -122.3254752, 47.6245856 ] } },
{ "type": "Feature", "properties": { "name": "Bait Shop", "barclass": "Bar", "barcode": 1 }, "geometry": { "type": "Point", "coordinates": [ -122.3207356, 47.6246294 ] } },
{ "type": "Feature", "properties": { "name": "De Luxe Bar & Grill", "barclass": "Pub", "barcode": 2 }, "geometry": { "type": "Point", "coordinates": [ -122.3211759, 47.6250278 ] } },
{ "type": "Feature", "properties": { "name": "The Lookout", "barclass": "Pub", "barcode": 2 }, "geometry": { "type": "Point", "coordinates": [ -122.326779, 47.6267473 ] } },
{ "type": "Feature", "properties": { "name": "Eastlake Zoo Tavern", "barclass": "Bar", "barcode": 1 }, "geometry": { "type": "Point", "coordinates": [ -122.3260998, 47.6398557 ] } },
{ "type": "Feature", "properties": { "name": "The Roanoke", "barclass": "Bar", "barcode": 1 }, "geometry": { "type": "Point", "coordinates": [ -122.320308225171573, 47.64173795 ] } },
{ "type": "Feature", "properties": { "name": "Fram Brews", "barclass": "Bar", "barcode": 1 }, "geometry": { "type": "Point", "coordinates": [ -122.3258671, 47.6469639 ] } },
{ "type": "Feature", "properties": { "name": "The Rebel", "barclass": "Pub", "barcode": 2 }, "geometry": { "type": "Point", "coordinates": [ -122.3246285, 47.6612317 ] } },
{ "type": "Feature", "properties": { "name": "Latona Pub", "barclass": "Pub", "barcode": 2 }, "geometry": { "type": "Point", "coordinates": [ -122.3255853, 47.6758124 ] } },
{ "type": "Feature", "properties": { "name": "Jellyfish Brewing", "barclass": "Pub", "barcode": 2 }, "geometry": { "type": "Point", "coordinates": [ -122.3277255, 47.6781854 ] } },
{ "type": "Feature", "properties": { "name": "McGilvra's", "barclass": "Pub", "barcode": 2 }, "geometry": { "type": "Point", "coordinates": [ -122.2773302, 47.6364484 ] } },
{ "type": "Feature", "properties": { "name": "BARlamos", "barclass": "Bar", "barcode": 1 }, "geometry": { "type": "Point", "coordinates": [ -122.2883733, 47.6609842 ] } },
{ "type": "Feature", "properties": { "name": "Burke-Gilman Brewing Company", "barclass": "Pub", "barcode": 2 }, "geometry": { "type": "Point", "coordinates": [ -122.2881595, 47.6614079 ] } },
{ "type": "Feature", "properties": { "name": "Q20 Public House", "barclass": "Bar", "barcode": 1 }, "geometry": { "type": "Point", "coordinates": [ -122.2968137, 47.6624098 ] } },
{ "type": "Feature", "properties": { "name": "Rachel's Ginger Beer - University Village", "barclass": "Bar", "barcode": 1 }, "geometry": { "type": "Point", "coordinates": [ -122.2996888, 47.6625118 ] } },
{ "type": "Feature", "properties": { "name": "Tig Kitchen and Bar", "barclass": "Bar", "barcode": 1 }, "geometry": { "type": "Point", "coordinates": [ -122.3128116, 47.6677591 ] } },
{ "type": "Feature", "properties": { "name": "Ravenna Brewing Company", "barclass": "Pub", "barcode": 2 }, "geometry": { "type": "Point", "coordinates": [ -122.299167339493749, 47.6683287 ] } },
{ "type": "Feature", "properties": { "name": "The Duchess Tavern", "barclass": "Pub", "barcode": 2 }, "geometry": { "type": "Point", "coordinates": [ -122.2960883, 47.6684047 ] } },
{ "type": "Feature", "properties": { "name": "Pub at Third Place Books", "barclass": "Pub", "barcode": 2 }, "geometry": { "type": "Point", "coordinates": [ -122.3063181, 47.6758864 ] } },
{ "type": "Feature", "properties": { "name": "The Shambles", "barclass": "Bar", "barcode": 1 }, "geometry": { "type": "Point", "coordinates": [ -122.3123628, 47.6865034 ] } },
{ "type": "Feature", "properties": { "name": "Big Time Brewery and Alehouse", "barclass": "Pub", "barcode": 2 }, "geometry": { "type": "Point", "coordinates": [ -122.3134407, 47.6578581 ] } },
{ "type": "Feature", "properties": { "name": "Finn MacCool's", "barclass": "Pub", "barcode": 2 }, "geometry": { "type": "Point", "coordinates": [ -122.31337, 47.6588831 ] } },
{ "type": "Feature", "properties": { "name": "Alley Cat Lounge", "barclass": "Bar", "barcode": 1 }, "geometry": { "type": "Point", "coordinates": [ -122.3136812, 47.6599823 ] } },
{ "type": "Feature", "properties": { "name": "Earl's on the Ave", "barclass": "Bar", "barcode": 1 }, "geometry": { "type": "Point", "coordinates": [ -122.31331, 47.6608156 ] } },
{ "type": "Feature", "properties": { "name": "The Mountaineering Club", "barclass": "Bar", "barcode": 1 }, "geometry": { "type": "Point", "coordinates": [ -122.3146422, 47.6615147 ] } },
{ "type": "Feature", "properties": { "name": "Ladd & Lass Brewing", "barclass": "Pub", "barcode": 2 }, "geometry": { "type": "Point", "coordinates": [ -122.319801733640674, 47.6615295 ] } },
{ "type": "Feature", "properties": { "name": "Novabox Karaoke", "barclass": "Nightclub", "barcode": 3 }, "geometry": { "type": "Point", "coordinates": [ -122.3129288, 47.6644102 ] } },
{ "type": "Feature", "properties": { "name": "The Monkey Pub", "barclass": "Bar", "barcode": 1 }, "geometry": { "type": "Point", "coordinates": [ -122.3175596, 47.6673198 ] } },
{ "type": "Feature", "properties": { "name": "The Kraken Bar & Lounge", "barclass": "Bar", "barcode": 1 }, "geometry": { "type": "Point", "coordinates": [ -122.317125534328198, 47.67147225 ] } },
{ "type": "Feature", "properties": { "name": "Die Bierstube", "barclass": "Bar", "barcode": 1 }, "geometry": { "type": "Point", "coordinates": [ -122.317208, 47.6730045 ] } },
{ "type": "Feature", "properties": { "name": "Triple R Brewing Alley Tavern", "barclass": "Pub", "barcode": 2 }, "geometry": { "type": "Point", "coordinates": [ -122.3179691, 47.675186 ] } },
{ "type": "Feature", "properties": { "name": "The Westy", "barclass": "Pub", "barcode": 2 }, "geometry": { "type": "Point", "coordinates": [ -122.3150052, 47.6757049 ] } },
{ "type": "Feature", "properties": { "name": "Teddy's Off Roosevelt", "barclass": "Pub", "barcode": 2 }, "geometry": { "type": "Point", "coordinates": [ -122.3167726, 47.6759639 ] } },
{ "type": "Feature", "properties": { "name": "Project 9 Brewing Company", "barclass": "Pub", "barcode": 2 }, "geometry": { "type": "Point", "coordinates": [ -122.313066511059532, 47.6864758 ] } },
{ "type": "Feature", "properties": { "name": "The Rez", "barclass": "Pub", "barcode": 2 }, "geometry": { "type": "Point", "coordinates": [ -122.3177826, 47.6906378 ] } },
{ "type": "Feature", "properties": { "name": "The Maple", "barclass": "Pub", "barcode": 2 }, "geometry": { "type": "Point", "coordinates": [ -122.317878766433722, 47.69391945 ] } },
{ "type": "Feature", "properties": { "name": "The Growler Guys", "barclass": "Bar", "barcode": 1 }, "geometry": { "type": "Point", "coordinates": [ -122.30728502739619, 47.6906035 ] } },
{ "type": "Feature", "properties": { "name": "Wedgewood Public House", "barclass": "Pub", "barcode": 2 }, "geometry": { "type": "Point", "coordinates": [ -122.2909926, 47.6906209 ] } },
{ "type": "Feature", "properties": { "name": "The Shanty Tavern", "barclass": "Pub", "barcode": 2 }, "geometry": { "type": "Point", "coordinates": [ -122.305060074711236, 47.69405075 ] } },
{ "type": "Feature", "properties": { "name": "Fiddler's Inn", "barclass": "Pub", "barcode": 2 }, "geometry": { "type": "Point", "coordinates": [ -122.290937325534941, 47.6963926 ] } },
{ "type": "Feature", "properties": { "name": "Boud's Pinehurst Pub", "barclass": "Pub", "barcode": 2 }, "geometry": { "type": "Point", "coordinates": [ -122.312821032163555, 47.7155566 ] } },
{ "type": "Feature", "properties": { "name": "Back Door Pub", "barclass": "Pub", "barcode": 2 }, "geometry": { "type": "Point", "coordinates": [ -122.2955772, 47.7182759 ] } },
{ "type": "Feature", "properties": { "name": "Double J Saloon", "barclass": "Bar", "barcode": 1 }, "geometry": { "type": "Point", "coordinates": [ -122.2943823, 47.7202867 ] } },
{ "type": "Feature", "properties": { "name": "Elliott Bay Brewery", "barclass": "Pub", "barcode": 2 }, "geometry": { "type": "Point", "coordinates": [ -122.294893, 47.7203026 ] } },
{ "type": "Feature", "properties": { "name": "The Beer Authority", "barclass": "Pub", "barcode": 2 }, "geometry": { "type": "Point", "coordinates": [ -122.293348, 47.7219293 ] } },
{ "type": "Feature", "properties": { "name": "Hellbent Brewing Company", "barclass": "Pub", "barcode": 2 }, "geometry": { "type": "Point", "coordinates": [ -122.2931111, 47.7238772 ] } },
{ "type": "Feature", "properties": { "name": "Caroline Tavern", "barclass": "Pub", "barcode": 2 }, "geometry": { "type": "Point", "coordinates": [ -122.312409224608786, 47.72864075 ] } },
{ "type": "Feature", "properties": { "name": "Dirty Couch Brewing", "barclass": "Bar", "barcode": 1 }, "geometry": { "type": "Point", "coordinates": [ -122.3917378, 47.6611005 ] } },
{ "type": "Feature", "properties": { "name": "Barnacle", "barclass": "Bar", "barcode": 1 }, "geometry": { "type": "Point", "coordinates": [ -122.3801074, 47.6636107 ] } },
{ "type": "Feature", "properties": { "name": "Roam", "barclass": "Bar", "barcode": 1 }, "geometry": { "type": "Point", "coordinates": [ -122.3813084, 47.6644602 ] } },
{ "type": "Feature", "properties": { "name": "Kochendorfer’s", "barclass": "Pub", "barcode": 2 }, "geometry": { "type": "Point", "coordinates": [ -122.3792267, 47.6644647 ] } },
{ "type": "Feature", "properties": { "name": "Shibuya Hifi", "barclass": "Bar", "barcode": 1 }, "geometry": { "type": "Point", "coordinates": [ -122.3792513, 47.6645576 ] } },
{ "type": "Feature", "properties": { "name": "The Little Beast", "barclass": "Pub", "barcode": 2 }, "geometry": { "type": "Point", "coordinates": [ -122.3812745, 47.6645689 ] } },
{ "type": "Feature", "properties": { "name": "Bad Albert's Tap & Grill", "barclass": "Pub", "barcode": 2 }, "geometry": { "type": "Point", "coordinates": [ -122.3808628, 47.6646073 ] } },
{ "type": "Feature", "properties": { "name": "Mox Boarding House", "barclass": "Bar", "barcode": 1 }, "geometry": { "type": "Point", "coordinates": [ -122.38047, 47.6649868 ] } },
{ "type": "Feature", "properties": { "name": "Conor Byrne", "barclass": "Pub", "barcode": 2 }, "geometry": { "type": "Point", "coordinates": [ -122.38188, 47.6654648 ] } },
{ "type": "Feature", "properties": { "name": "The Lock & Keel", "barclass": "Bar", "barcode": 1 }, "geometry": { "type": "Point", "coordinates": [ -122.3819197, 47.6655268 ] } },
{ "type": "Feature", "properties": { "name": "Tractor Tavern", "barclass": "Nightclub", "barcode": 3 }, "geometry": { "type": "Point", "coordinates": [ -122.382802950829145, 47.6657081 ] } },
{ "type": "Feature", "properties": { "name": "MacLeod's", "barclass": "Pub", "barcode": 2 }, "geometry": { "type": "Point", "coordinates": [ -122.3823178, 47.6658489 ] } },
{ "type": "Feature", "properties": { "name": "King's Hardware", "barclass": "Pub", "barcode": 2 }, "geometry": { "type": "Point", "coordinates": [ -122.3829726, 47.6660199 ] } },
{ "type": "Feature", "properties": { "name": "Hattie's Hat", "barclass": "Bar", "barcode": 1 }, "geometry": { "type": "Point", "coordinates": [ -122.3830931, 47.6661245 ] } },
{ "type": "Feature", "properties": { "name": "Tilda's Lounge", "barclass": "Bar", "barcode": 1 }, "geometry": { "type": "Point", "coordinates": [ -122.3832786, 47.6662191 ] } },
{ "type": "Feature", "properties": { "name": "Bar Sabine", "barclass": "Bar", "barcode": 1 }, "geometry": { "type": "Point", "coordinates": [ -122.383505, 47.666453 ] } },
{ "type": "Feature", "properties": { "name": "Good Grief", "barclass": "Pub", "barcode": 2 }, "geometry": { "type": "Point", "coordinates": [ -122.3834951, 47.6668953 ] } },
{ "type": "Feature", "properties": { "name": "Rough & Tumble", "barclass": "Pub", "barcode": 2 }, "geometry": { "type": "Point", "coordinates": [ -122.3849553, 47.667089 ] } },
{ "type": "Feature", "properties": { "name": "Slim Goody", "barclass": "Pub", "barcode": 2 }, "geometry": { "type": "Point", "coordinates": [ -122.385196, 47.6677273 ] } },
{ "type": "Feature", "properties": { "name": "Cloudburst on Shilshole", "barclass": "Pub", "barcode": 2 }, "geometry": { "type": "Point", "coordinates": [ -122.3865064, 47.6680068 ] } },
{ "type": "Feature", "properties": { "name": "Aslan Brewing", "barclass": "Pub", "barcode": 2 }, "geometry": { "type": "Point", "coordinates": [ -122.3539893, 47.651973 ] } },
{ "type": "Feature", "properties": { "name": "LTD", "barclass": "Pub", "barcode": 2 }, "geometry": { "type": "Point", "coordinates": [ -122.3552217, 47.6521561 ] } },
{ "type": "Feature", "properties": { "name": "Mermaid Lounge", "barclass": "Pub", "barcode": 2 }, "geometry": { "type": "Point", "coordinates": [ -122.3554032, 47.6522408 ] } },
{ "type": "Feature", "properties": { "name": "Nectar Lounge", "barclass": "Nightclub", "barcode": 3 }, "geometry": { "type": "Point", "coordinates": [ -122.353854152020205, 47.6523876 ] } },
{ "type": "Feature", "properties": { "name": "LZ's Tavern", "barclass": "Pub", "barcode": 2 }, "geometry": { "type": "Point", "coordinates": [ -122.349878, 47.6589451 ] } },
{ "type": "Feature", "properties": { "name": "Sully's Snowgoose Saloon", "barclass": "Bar", "barcode": 1 }, "geometry": { "type": "Point", "coordinates": [ -122.3545747, 47.6737415 ] } },
{ "type": "Feature", "properties": { "name": "The Whits End", "barclass": "Bar", "barcode": 1 }, "geometry": { "type": "Point", "coordinates": [ -122.3541234, 47.6763512 ] } },
{ "type": "Feature", "properties": { "name": "Ridgewood Bottle & Tap", "barclass": "Pub", "barcode": 2 }, "geometry": { "type": "Point", "coordinates": [ -122.354558, 47.6778315 ] } },
{ "type": "Feature", "properties": { "name": "Chez Phinney", "barclass": "Bar", "barcode": 1 }, "geometry": { "type": "Point", "coordinates": [ -122.355108, 47.6826657 ] } },
{ "type": "Feature", "properties": { "name": "Phinney Station", "barclass": "Bar", "barcode": 1 }, "geometry": { "type": "Point", "coordinates": [ -122.354938047844314, 47.6831258 ] } },
{ "type": "Feature", "properties": { "name": "Skål Beer Hall", "barclass": "Pub", "barcode": 2 }, "geometry": { "type": "Point", "coordinates": [ -122.3858361, 47.668145 ] } },
{ "type": "Feature", "properties": { "name": "Mezcaleria", "barclass": "Bar", "barcode": 1 }, "geometry": { "type": "Point", "coordinates": [ -122.3849236, 47.6681735 ] } },
{ "type": "Feature", "properties": { "name": "The Sunset Tavern", "barclass": "Pub", "barcode": 2 }, "geometry": { "type": "Point", "coordinates": [ -122.3860837, 47.6682756 ] } },
{ "type": "Feature", "properties": { "name": "Egan's Ballard Jam House", "barclass": "Nightclub", "barcode": 3 }, "geometry": { "type": "Point", "coordinates": [ -122.3793412, 47.6685088 ] } },
{ "type": "Feature", "properties": { "name": "Ocho", "barclass": "Bar", "barcode": 1 }, "geometry": { "type": "Point", "coordinates": [ -122.3873367, 47.668518 ] } },
{ "type": "Feature", "properties": { "name": "The Hazlewood", "barclass": "Bar", "barcode": 1 }, "geometry": { "type": "Point", "coordinates": [ -122.3866864, 47.6685187 ] } },
{ "type": "Feature", "properties": { "name": "Sloop Tavern", "barclass": "Pub", "barcode": 2 }, "geometry": { "type": "Point", "coordinates": [ -122.3943139, 47.6688132 ] } },
{ "type": "Feature", "properties": { "name": "The Old Pequliar", "barclass": "Bar", "barcode": 1 }, "geometry": { "type": "Point", "coordinates": [ -122.379941, 47.6688331 ] } },
{ "type": "Feature", "properties": { "name": "The Ink Drinker", "barclass": "Pub", "barcode": 2 }, "geometry": { "type": "Point", "coordinates": [ -122.3842733, 47.6688541 ] } },
{ "type": "Feature", "properties": { "name": "Kangaroo & Kiwi", "barclass": "Pub", "barcode": 2 }, "geometry": { "type": "Point", "coordinates": [ -122.383397, 47.6689195 ] } },
{ "type": "Feature", "properties": { "name": "Reuben's Brews: Barrel House", "barclass": "Pub", "barcode": 2 }, "geometry": { "type": "Point", "coordinates": [ -122.3721823, 47.665488 ] } },
{ "type": "Feature", "properties": { "name": "Great Notion", "barclass": "Pub", "barcode": 2 }, "geometry": { "type": "Point", "coordinates": [ -122.3739041, 47.6658597 ] } },
{ "type": "Feature", "properties": { "name": "Urban Family Brewing Co.", "barclass": "Pub", "barcode": 2 }, "geometry": { "type": "Point", "coordinates": [ -122.37103, 47.6661818 ] } },
{ "type": "Feature", "properties": { "name": "Stoup Brewing", "barclass": "Pub", "barcode": 2 }, "geometry": { "type": "Point", "coordinates": [ -122.3711856, 47.6666124 ] } },
{ "type": "Feature", "properties": { "name": "Channel Marker Cider", "barclass": "Pub", "barcode": 2 }, "geometry": { "type": "Point", "coordinates": [ -122.376489475043101, 47.66662285 ] } },
{ "type": "Feature", "properties": { "name": "Obec Brewing", "barclass": "Pub", "barcode": 2 }, "geometry": { "type": "Point", "coordinates": [ -122.3726404, 47.6666365 ] } },
{ "type": "Feature", "properties": { "name": "The Tin Hat", "barclass": "Bar", "barcode": 1 }, "geometry": { "type": "Point", "coordinates": [ -122.3629711, 47.6760806 ] } },
{ "type": "Feature", "properties": { "name": "The Dray", "barclass": "Bar", "barcode": 1 }, "geometry": { "type": "Point", "coordinates": [ -122.3649587, 47.6761005 ] } },
{ "type": "Feature", "properties": { "name": "Molly Maguire's", "barclass": "Pub", "barcode": 2 }, "geometry": { "type": "Point", "coordinates": [ -122.3640757, 47.6761076 ] } },
{ "type": "Feature", "properties": { "name": "Essex", "barclass": "Bar", "barcode": 1 }, "geometry": { "type": "Point", "coordinates": [ -122.3749126, 47.6794441 ] } },
{ "type": "Feature", "properties": { "name": "The Old County", "barclass": "Pub", "barcode": 2 }, "geometry": { "type": "Point", "coordinates": [ -122.3878342, 47.671402 ] } },
{ "type": "Feature", "properties": { "name": "Olaf's", "barclass": "Bar", "barcode": 1 }, "geometry": { "type": "Point", "coordinates": [ -122.387841, 47.6746914 ] } },
{ "type": "Feature", "properties": { "name": "Rupee Bar", "barclass": "Bar", "barcode": 1 }, "geometry": { "type": "Point", "coordinates": [ -122.3878503, 47.6748368 ] } },
{ "type": "Feature", "properties": { "name": "Picolino's", "barclass": "Bar", "barcode": 1 }, "geometry": { "type": "Point", "coordinates": [ -122.3985649, 47.6754205 ] } },
{ "type": "Feature", "properties": { "name": "Single Hill Commons", "barclass": "Pub", "barcode": 2 }, "geometry": { "type": "Point", "coordinates": [ -122.3873246, 47.6754273 ] } },
{ "type": "Feature", "properties": { "name": "Baker's", "barclass": "Bar", "barcode": 1 }, "geometry": { "type": "Point", "coordinates": [ -122.3982329, 47.6755569 ] } },
{ "type": "Feature", "properties": { "name": "Holy Mountain Brewing Taproom", "barclass": "Pub", "barcode": 2 }, "geometry": { "type": "Point", "coordinates": [ -122.3555482, 47.6798973 ] } },
{ "type": "Feature", "properties": { "name": "Prost!", "barclass": "Pub", "barcode": 2 }, "geometry": { "type": "Point", "coordinates": [ -122.3555016, 47.6822274 ] } },
{ "type": "Feature", "properties": { "name": "74th Street Alehouse", "barclass": "Pub", "barcode": 2 }, "geometry": { "type": "Point", "coordinates": [ -122.3554886, 47.6826633 ] } },
{ "type": "Feature", "properties": { "name": "Thunderbird Tavern", "barclass": "Bar", "barcode": 1 }, "geometry": { "type": "Point", "coordinates": [ -122.377086879985626, 47.68370775 ] } },
{ "type": "Feature", "properties": { "name": "The Crown", "barclass": "Pub", "barcode": 2 }, "geometry": { "type": "Point", "coordinates": [ -122.37649115974105, 47.6870423 ] } },
{ "type": "Feature", "properties": { "name": "Snapshot Brewing", "barclass": "Bar", "barcode": 1 }, "geometry": { "type": "Point", "coordinates": [ -122.3556688, 47.6871665 ] } },
{ "type": "Feature", "properties": { "name": "Ruby", "barclass": "Bar", "barcode": 1 }, "geometry": { "type": "Point", "coordinates": [ -122.359472655606112, 47.6904149 ] } },
{ "type": "Feature", "properties": { "name": "Cozy Nut Tavern", "barclass": "Bar", "barcode": 1 }, "geometry": { "type": "Point", "coordinates": [ -122.3568921, 47.6904644 ] } },
{ "type": "Feature", "properties": { "name": "Bar Sur Mer", "barclass": "Bar", "barcode": 1 }, "geometry": { "type": "Point", "coordinates": [ -122.3557919, 47.690492 ] } },
{ "type": "Feature", "properties": { "name": "Dark Room", "barclass": "Bar", "barcode": 1 }, "geometry": { "type": "Point", "coordinates": [ -122.355516, 47.6908187 ] } },
{ "type": "Feature", "properties": { "name": "Draft Punk", "barclass": "Bar", "barcode": 1 }, "geometry": { "type": "Point", "coordinates": [ -122.3550624, 47.6849065 ] } },
{ "type": "Feature", "properties": { "name": "The Angry Beaver", "barclass": "Pub", "barcode": 2 }, "geometry": { "type": "Point", "coordinates": [ -122.3551066, 47.6902592 ] } },
{ "type": "Feature", "properties": { "name": "Bleachers Pub", "barclass": "Pub", "barcode": 2 }, "geometry": { "type": "Point", "coordinates": [ -122.3550798, 47.6917436 ] } },
{ "type": "Feature", "properties": { "name": "Halcyon Brewing Company", "barclass": "Pub", "barcode": 2 }, "geometry": { "type": "Point", "coordinates": [ -122.355083, 47.6918221 ] } },
{ "type": "Feature", "properties": { "name": "Flying Bike Co-op Brewery", "barclass": "Pub", "barcode": 2 }, "geometry": { "type": "Point", "coordinates": [ -122.355072, 47.6920561 ] } },
{ "type": "Feature", "properties": { "name": "Shanghai Room", "barclass": "Bar", "barcode": 1 }, "geometry": { "type": "Point", "coordinates": [ -122.355109, 47.6922042 ] } },
{ "type": "Feature", "properties": { "name": "Lamplighter Public House", "barclass": "Pub", "barcode": 2 }, "geometry": { "type": "Point", "coordinates": [ -122.366918456739697, 47.69087815 ] } },
{ "type": "Feature", "properties": { "name": "Chuck's Hop Shop", "barclass": "Pub", "barcode": 2 }, "geometry": { "type": "Point", "coordinates": [ -122.36573525, 47.69089805 ] } },
{ "type": "Feature", "properties": { "name": "Hounds Tooth Public House", "barclass": "Pub", "barcode": 2 }, "geometry": { "type": "Point", "coordinates": [ -122.3555406, 47.6923048 ] } },
{ "type": "Feature", "properties": { "name": "Thirsty Fish", "barclass": "Pub", "barcode": 2 }, "geometry": { "type": "Point", "coordinates": [ -122.3751861, 47.695226 ] } },
{ "type": "Feature", "properties": { "name": "The Pub at Piper's Creek", "barclass": "Pub", "barcode": 2 }, "geometry": { "type": "Point", "coordinates": [ -122.355755, 47.7058974 ] } },
{ "type": "Feature", "properties": { "name": "Broadview Tap House", "barclass": "Pub", "barcode": 2 }, "geometry": { "type": "Point", "coordinates": [ -122.3561739, 47.7193324 ] } }
]
}
