{
"type": "FeatureCollection",
"name": "OPP_bars_atlanta",
"crs": { "type": "name", "properties": { "name": "urn:ogc:def:crs:OGC:1.3:CRS84" } },
"features": [
{ "type": "Feature", "properties": { "name": "Wild Heaven West End Brewery & Garden", "barclass": "Pub", "barcode": 2 }, "geometry": { "type": "Point", "coordinates": [ -84.4190159, 33.7300696 ] } },
{ "type": "Feature", "properties": { "name": "Sakura Sake Bar", "barclass": "Bar", "barcode": 1 }, "geometry": { "type": "Point", "coordinates": [ -84.4209331, 33.7311658 ] } },
{ "type": "Feature", "properties": { "name": "656 Sports Bar & Grille", "barclass": "Pub", "barcode": 2 }, "geometry": { "type": "Point", "coordinates": [ -84.3944989, 33.7369717 ] } },
{ "type": "Feature", "properties": { "name": "Boggs Social & Supply", "barclass": "Bar", "barcode": 1 }, "geometry": { "type": "Point", "coordinates": [ -84.4303675, 33.7373438 ] } },
{ "type": "Feature", "properties": { "name": "CRU Hookah Lounge", "barclass": "Bar", "barcode": 1 }, "geometry": { "type": "Point", "coordinates": [ -84.4029379, 33.7465075 ] } },
{ "type": "Feature", "properties": { "name": "Magic City", "barclass": "Nightclub", "barcode": 3 }, "geometry": { "type": "Point", "coordinates": [ -84.397249, 33.7482138 ] } },
{ "type": "Feature", "properties": { "name": "Chillz Restaurant & Bar", "barclass": "Pub", "barcode": 2 }, "geometry": { "type": "Point", "coordinates": [ -84.3942038, 33.7369659 ] } },
{ "type": "Feature", "properties": { "name": "Halfway Crooks Beer", "barclass": "Bar", "barcode": 1 }, "geometry": { "type": "Point", "coordinates": [ -84.385815595834032, 33.73706415 ] } },
{ "type": "Feature", "properties": { "name": "Royal Peacock Lounge", "barclass": "Bar", "barcode": 1 }, "geometry": { "type": "Point", "coordinates": [ -84.3816274, 33.7556803 ] } },
{ "type": "Feature", "properties": { "name": "Sidebar Atlanta", "barclass": "Bar", "barcode": 1 }, "geometry": { "type": "Point", "coordinates": [ -84.3898504324128, 33.75679575 ] } },
{ "type": "Feature", "properties": { "name": "Skylounge At Glenn", "barclass": "Bar", "barcode": 1 }, "geometry": { "type": "Point", "coordinates": [ -84.3930425, 33.7570711 ] } },
{ "type": "Feature", "properties": { "name": "Park Bar", "barclass": "Bar", "barcode": 1 }, "geometry": { "type": "Point", "coordinates": [ -84.392804, 33.7581942 ] } },
{ "type": "Feature", "properties": { "name": "Peachtree Sports Club", "barclass": "Bar", "barcode": 1 }, "geometry": { "type": "Point", "coordinates": [ -84.3871329, 33.7595697 ] } },
{ "type": "Feature", "properties": { "name": "Red Phone Booth", "barclass": "Bar", "barcode": 1 }, "geometry": { "type": "Point", "coordinates": [ -84.386898, 33.7595892 ] } },
{ "type": "Feature", "properties": { "name": "Lyfe Atl", "barclass": "Nightclub", "barcode": 3 }, "geometry": { "type": "Point", "coordinates": [ -84.38394705, 33.75994365 ] } },
{ "type": "Feature", "properties": { "name": "Pulse Bar", "barclass": "Bar", "barcode": 1 }, "geometry": { "type": "Point", "coordinates": [ -84.384881, 33.76166 ] } },
{ "type": "Feature", "properties": { "name": "Bamboo Atlanta", "barclass": "Nightclub", "barcode": 3 }, "geometry": { "type": "Point", "coordinates": [ -84.3960252, 33.7497702 ] } },
{ "type": "Feature", "properties": { "name": "Speakeasy Lounge", "barclass": "Bar", "barcode": 1 }, "geometry": { "type": "Point", "coordinates": [ -84.3952481, 33.7502683 ] } },
{ "type": "Feature", "properties": { "name": "Chic Restaurant and Lounge", "barclass": "Nightclub", "barcode": 3 }, "geometry": { "type": "Point", "coordinates": [ -84.3963107, 33.7506932 ] } },
{ "type": "Feature", "properties": { "name": "Fellaship ATL", "barclass": "Bar", "barcode": 1 }, "geometry": { "type": "Point", "coordinates": [ -84.3990701, 33.752088 ] } },
{ "type": "Feature", "properties": { "name": "Highball", "barclass": "Bar", "barcode": 1 }, "geometry": { "type": "Point", "coordinates": [ -84.4009327, 33.7587257 ] } },
{ "type": "Feature", "properties": { "name": "Nest on Four", "barclass": "Bar", "barcode": 1 }, "geometry": { "type": "Point", "coordinates": [ -84.400515474642361, 33.7589975 ] } },
{ "type": "Feature", "properties": { "name": "Slingshot Social Game Club", "barclass": "Bar", "barcode": 1 }, "geometry": { "type": "Point", "coordinates": [ -84.4107161, 33.7785625 ] } },
{ "type": "Feature", "properties": { "name": "Northside Tavern", "barclass": "Bar", "barcode": 1 }, "geometry": { "type": "Point", "coordinates": [ -84.4120813, 33.7836184 ] } },
{ "type": "Feature", "properties": { "name": "Northside Tavern", "barclass": "Bar", "barcode": 1 }, "geometry": { "type": "Point", "coordinates": [ -84.412048656907288, 33.7836216 ] } },
{ "type": "Feature", "properties": { "name": "Ormsby’s", "barclass": "Bar", "barcode": 1 }, "geometry": { "type": "Point", "coordinates": [ -84.4120393, 33.7857639 ] } },
{ "type": "Feature", "properties": { "name": "Noni's", "barclass": "Bar", "barcode": 1 }, "geometry": { "type": "Point", "coordinates": [ -84.3758902, 33.7542642 ] } },
{ "type": "Feature", "properties": { "name": "Sister Louisa's Church of the Living Room & Ping Pong Emporium", "barclass": "Bar", "barcode": 1 }, "geometry": { "type": "Point", "coordinates": [ -84.372352106182802, 33.7544842 ] } },
{ "type": "Feature", "properties": { "name": "Lore", "barclass": "Bar", "barcode": 1 }, "geometry": { "type": "Point", "coordinates": [ -84.37249314880836, 33.7544842 ] } },
{ "type": "Feature", "properties": { "name": null, "barclass": "Bar", "barcode": 1 }, "geometry": { "type": "Point", "coordinates": [ -84.373873018459562, 33.75453185 ] } },
{ "type": "Feature", "properties": { "name": null, "barclass": "Biergarten", "barcode": 4 }, "geometry": { "type": "Point", "coordinates": [ -84.373961032783996, 33.7545455 ] } },
{ "type": "Feature", "properties": { "name": "Tap Out Billiards", "barclass": "Pub", "barcode": 2 }, "geometry": { "type": "Point", "coordinates": [ -84.3790761, 33.7556459 ] } },
{ "type": "Feature", "properties": { "name": "Clues and Cocktails", "barclass": "Bar", "barcode": 1 }, "geometry": { "type": "Point", "coordinates": [ -84.377333007433435, 33.7556674 ] } },
{ "type": "Feature", "properties": { "name": "Pal's Lounge", "barclass": "Bar", "barcode": 1 }, "geometry": { "type": "Point", "coordinates": [ -84.3793241, 33.7557457 ] } },
{ "type": "Feature", "properties": { "name": null, "barclass": "Nightclub", "barcode": 3 }, "geometry": { "type": "Point", "coordinates": [ -84.379156529946073, 33.75575115 ] } },
{ "type": "Feature", "properties": { "name": "Blake's on the Park", "barclass": "Bar", "barcode": 1 }, "geometry": { "type": "Point", "coordinates": [ -84.3799211, 33.7816659 ] } },
{ "type": "Feature", "properties": { "name": "Publik Draft House", "barclass": "Pub", "barcode": 2 }, "geometry": { "type": "Point", "coordinates": [ -84.3850584, 33.7723842 ] } },
{ "type": "Feature", "properties": { "name": "The Marquee Club", "barclass": "Bar", "barcode": 1 }, "geometry": { "type": "Point", "coordinates": [ -84.385087856184214, 33.77279075 ] } },
{ "type": "Feature", "properties": { "name": "Aroma Midtown", "barclass": "Nightclub", "barcode": 3 }, "geometry": { "type": "Point", "coordinates": [ -84.389480187819373, 33.7737009 ] } },
{ "type": "Feature", "properties": { "name": "Bulldog's Bar", "barclass": "Bar", "barcode": 1 }, "geometry": { "type": "Point", "coordinates": [ -84.3840397, 33.7790254 ] } },
{ "type": "Feature", "properties": { "name": "Kat's Cafe", "barclass": "Bar", "barcode": 1 }, "geometry": { "type": "Point", "coordinates": [ -84.3808443, 33.781105 ] } },
{ "type": "Feature", "properties": { "name": "X Midtown", "barclass": "Nightclub", "barcode": 3 }, "geometry": { "type": "Point", "coordinates": [ -84.380794613781575, 33.78152025 ] } },
{ "type": "Feature", "properties": { "name": "Prime Cigar Bar", "barclass": "Bar", "barcode": 1 }, "geometry": { "type": "Point", "coordinates": [ -84.383577904797974, 33.78289105 ] } },
{ "type": "Feature", "properties": { "name": "Eleventh Street Pub", "barclass": "Pub", "barcode": 2 }, "geometry": { "type": "Point", "coordinates": [ -84.3877103, 33.7831468 ] } },
{ "type": "Feature", "properties": { "name": "Wicked Wolf Atlanta", "barclass": "Bar", "barcode": 1 }, "geometry": { "type": "Point", "coordinates": [ -84.3844496, 33.7834469 ] } },
{ "type": "Feature", "properties": { "name": "Blackjack Bar Tapas", "barclass": "Bar", "barcode": 1 }, "geometry": { "type": "Point", "coordinates": [ -84.3842587, 33.7842037 ] } },
{ "type": "Feature", "properties": { "name": "Seven Midtown", "barclass": "Bar", "barcode": 1 }, "geometry": { "type": "Point", "coordinates": [ -84.384549394493035, 33.78465285 ] } },
{ "type": "Feature", "properties": { "name": "My Sister's Room", "barclass": "Bar", "barcode": 1 }, "geometry": { "type": "Point", "coordinates": [ -84.384603225177074, 33.7848437 ] } },
{ "type": "Feature", "properties": { "name": "The Office Bar", "barclass": "Bar", "barcode": 1 }, "geometry": { "type": "Point", "coordinates": [ -84.3876001, 33.7850567 ] } },
{ "type": "Feature", "properties": { "name": "Embr Lounge", "barclass": "Bar", "barcode": 1 }, "geometry": { "type": "Point", "coordinates": [ -84.3843546, 33.7856916 ] } },
{ "type": "Feature", "properties": { "name": "Veranda", "barclass": "Bar", "barcode": 1 }, "geometry": { "type": "Point", "coordinates": [ -84.384546999063872, 33.78587045 ] } },
{ "type": "Feature", "properties": { "name": "Bar Moxy", "barclass": "Bar", "barcode": 1 }, "geometry": { "type": "Point", "coordinates": [ -84.385988, 33.7858797 ] } },
{ "type": "Feature", "properties": { "name": "High Note Food & Drink", "barclass": "Bar", "barcode": 1 }, "geometry": { "type": "Point", "coordinates": [ -84.3859379, 33.7860804 ] } },
{ "type": "Feature", "properties": { "name": "Bar Margot", "barclass": "Bar", "barcode": 1 }, "geometry": { "type": "Point", "coordinates": [ -84.3855115, 33.7863823 ] } },
{ "type": "Feature", "properties": { "name": "1231 Rooftop Bar", "barclass": "Bar", "barcode": 1 }, "geometry": { "type": "Point", "coordinates": [ -84.3876231, 33.7884018 ] } },
{ "type": "Feature", "properties": { "name": "May Peel", "barclass": "Bar", "barcode": 1 }, "geometry": { "type": "Point", "coordinates": [ -84.3883445, 33.7903082 ] } },
{ "type": "Feature", "properties": { "name": "The Whelan", "barclass": "Pub", "barcode": 2 }, "geometry": { "type": "Point", "coordinates": [ -84.426118, 33.789128 ] } },
{ "type": "Feature", "properties": { "name": "The Champagne Bar", "barclass": "Pub", "barcode": 2 }, "geometry": { "type": "Point", "coordinates": [ -84.3957538, 33.7932374 ] } },
{ "type": "Feature", "properties": { "name": "Monday Night Brewing - The Grove", "barclass": "Pub", "barcode": 2 }, "geometry": { "type": "Point", "coordinates": [ -84.4098768, 33.7949913 ] } },
{ "type": "Feature", "properties": { "name": "Fire Maker Beer Garden", "barclass": "Pub", "barcode": 2 }, "geometry": { "type": "Point", "coordinates": [ -84.4194845, 33.8004189 ] } },
{ "type": "Feature", "properties": { "name": "Bold Monk Brewing Co.", "barclass": "Pub", "barcode": 2 }, "geometry": { "type": "Point", "coordinates": [ -84.426295, 33.802028 ] } },
{ "type": "Feature", "properties": { "name": "The Bar", "barclass": "Bar", "barcode": 1 }, "geometry": { "type": "Point", "coordinates": [ -84.4125757, 33.8030045 ] } },
{ "type": "Feature", "properties": { "name": "Mr. C's Bar and Grille", "barclass": "Pub", "barcode": 2 }, "geometry": { "type": "Point", "coordinates": [ -84.4126236, 33.8086637 ] } },
{ "type": "Feature", "properties": { "name": "Scofflaw Brewing Company", "barclass": "Pub", "barcode": 2 }, "geometry": { "type": "Point", "coordinates": [ -84.444864261483616, 33.81333435 ] } },
{ "type": "Feature", "properties": { "name": "Red Brick Brewing Company", "barclass": "Bar", "barcode": 1 }, "geometry": { "type": "Point", "coordinates": [ -84.434541383898647, 33.81830375 ] } },
{ "type": "Feature", "properties": { "name": "Aveline", "barclass": "Bar", "barcode": 1 }, "geometry": { "type": "Point", "coordinates": [ -84.3880018, 33.7909073 ] } },
{ "type": "Feature", "properties": { "name": "SweetWater Brewing Company", "barclass": "Bar", "barcode": 1 }, "geometry": { "type": "Point", "coordinates": [ -84.381072193762321, 33.80802235 ] } },
{ "type": "Feature", "properties": { "name": "Park Bench", "barclass": "Bar", "barcode": 1 }, "geometry": { "type": "Point", "coordinates": [ -84.380661054036949, 33.8410105 ] } },
{ "type": "Feature", "properties": { "name": "Stagecoach", "barclass": "Bar", "barcode": 1 }, "geometry": { "type": "Point", "coordinates": [ -84.380540572779466, 33.84102885 ] } },
{ "type": "Feature", "properties": { "name": "The Pool Hall", "barclass": "Bar", "barcode": 1 }, "geometry": { "type": "Point", "coordinates": [ -84.380343565350472, 33.84104465 ] } },
{ "type": "Feature", "properties": { "name": "Five Paces Inn", "barclass": "Bar", "barcode": 1 }, "geometry": { "type": "Point", "coordinates": [ -84.380223430326112, 33.8415201 ] } },
{ "type": "Feature", "properties": { "name": "Churchill's", "barclass": "Bar", "barcode": 1 }, "geometry": { "type": "Point", "coordinates": [ -84.380256487870582, 33.84260705 ] } },
{ "type": "Feature", "properties": { "name": "East Andrews", "barclass": "Bar", "barcode": 1 }, "geometry": { "type": "Point", "coordinates": [ -84.380721772445682, 33.84303775 ] } },
{ "type": "Feature", "properties": { "name": "The IVY", "barclass": "Bar", "barcode": 1 }, "geometry": { "type": "Point", "coordinates": [ -84.3819611, 33.8564562 ] } },
{ "type": "Feature", "properties": { "name": "District", "barclass": "Nightclub", "barcode": 3 }, "geometry": { "type": "Point", "coordinates": [ -84.378524992806462, 33.8119526 ] } },
{ "type": "Feature", "properties": { "name": "Havana Club", "barclass": "Nightclub", "barcode": 3 }, "geometry": { "type": "Point", "coordinates": [ -84.370499099774889, 33.84095755 ] } },
{ "type": "Feature", "properties": { "name": "Kramer's", "barclass": "Bar", "barcode": 1 }, "geometry": { "type": "Point", "coordinates": [ -84.378646793141073, 33.8415668 ] } },
{ "type": "Feature", "properties": { "name": "The Red Door Tavern", "barclass": "Bar", "barcode": 1 }, "geometry": { "type": "Point", "coordinates": [ -84.37924410350243, 33.84194165 ] } },
{ "type": "Feature", "properties": { "name": "The Lost Dog Tavern", "barclass": "Bar", "barcode": 1 }, "geometry": { "type": "Point", "coordinates": [ -84.379473706988875, 33.84202175 ] } },
{ "type": "Feature", "properties": { "name": "Dive Bar", "barclass": "Bar", "barcode": 1 }, "geometry": { "type": "Point", "coordinates": [ -84.379203469179316, 33.84208475 ] } },
{ "type": "Feature", "properties": { "name": "Hangovers", "barclass": "Bar", "barcode": 1 }, "geometry": { "type": "Point", "coordinates": [ -84.379231044452183, 33.84222335 ] } },
{ "type": "Feature", "properties": { "name": "Buckhead Saloon", "barclass": "Bar", "barcode": 1 }, "geometry": { "type": "Point", "coordinates": [ -84.378762946209875, 33.8431473 ] } },
{ "type": "Feature", "properties": { "name": "Industry Tavern", "barclass": "Pub", "barcode": 2 }, "geometry": { "type": "Point", "coordinates": [ -84.3713222, 33.845228 ] } },
{ "type": "Feature", "properties": { "name": "Buteco", "barclass": "Bar", "barcode": 1 }, "geometry": { "type": "Point", "coordinates": [ -84.37703839681194, 33.7250434 ] } },
{ "type": "Feature", "properties": { "name": "Eventide Brewing", "barclass": "Pub", "barcode": 2 }, "geometry": { "type": "Point", "coordinates": [ -84.377062909799321, 33.72670205 ] } },
{ "type": "Feature", "properties": { "name": "Republic Social House", "barclass": "Pub", "barcode": 2 }, "geometry": { "type": "Point", "coordinates": [ -84.373189219889809, 33.74656175 ] } },
{ "type": "Feature", "properties": { "name": null, "barclass": "Bar", "barcode": 1 }, "geometry": { "type": "Point", "coordinates": [ -84.371061377303988, 33.7519751 ] } },
{ "type": "Feature", "properties": { "name": "Locker Club", "barclass": "Bar", "barcode": 1 }, "geometry": { "type": "Point", "coordinates": [ -84.3716369, 33.7540764 ] } },
{ "type": "Feature", "properties": { "name": "Soundtable", "barclass": "Bar", "barcode": 1 }, "geometry": { "type": "Point", "coordinates": [ -84.3718028, 33.7541221 ] } },
{ "type": "Feature", "properties": { "name": "Joystick Game Bar", "barclass": "Bar", "barcode": 1 }, "geometry": { "type": "Point", "coordinates": [ -84.373615173308764, 33.7541555 ] } },
{ "type": "Feature", "properties": { "name": "Old Fourth", "barclass": "Bar", "barcode": 1 }, "geometry": { "type": "Point", "coordinates": [ -84.3716339, 33.7541737 ] } },
{ "type": "Feature", "properties": { "name": "Delightful Eatz", "barclass": "Bar", "barcode": 1 }, "geometry": { "type": "Point", "coordinates": [ -84.373773482088922, 33.75418895 ] } },
{ "type": "Feature", "properties": { "name": "Church Annex", "barclass": "Bar", "barcode": 1 }, "geometry": { "type": "Point", "coordinates": [ -84.371551, 33.7541932 ] } },
{ "type": "Feature", "properties": { "name": "The Midway", "barclass": "Pub", "barcode": 2 }, "geometry": { "type": "Point", "coordinates": [ -84.3442075, 33.7394488 ] } },
{ "type": "Feature", "properties": { "name": "529 Bar", "barclass": "Bar", "barcode": 1 }, "geometry": { "type": "Point", "coordinates": [ -84.345262578456101, 33.73988615 ] } },
{ "type": "Feature", "properties": { "name": "Trophy Room", "barclass": "Bar", "barcode": 1 }, "geometry": { "type": "Point", "coordinates": [ -84.3450572, 33.7400225 ] } },
{ "type": "Feature", "properties": { "name": "Mary's", "barclass": "Pub", "barcode": 2 }, "geometry": { "type": "Point", "coordinates": [ -84.3455594, 33.7400251 ] } },
{ "type": "Feature", "properties": { "name": "Flatiron Restaurant & Bar", "barclass": "Pub", "barcode": 2 }, "geometry": { "type": "Point", "coordinates": [ -84.3450562, 33.7400362 ] } },
{ "type": "Feature", "properties": { "name": "The Glenwood", "barclass": "Bar", "barcode": 1 }, "geometry": { "type": "Point", "coordinates": [ -84.3461245, 33.7400514 ] } },
{ "type": "Feature", "properties": { "name": "Hippin' Hops", "barclass": "Bar", "barcode": 1 }, "geometry": { "type": "Point", "coordinates": [ -84.3447766, 33.7402333 ] } },
{ "type": "Feature", "properties": { "name": "Gaja", "barclass": "Bar", "barcode": 1 }, "geometry": { "type": "Point", "coordinates": [ -84.3463186, 33.740555 ] } },
{ "type": "Feature", "properties": { "name": "East Side Lounge", "barclass": "Bar", "barcode": 1 }, "geometry": { "type": "Point", "coordinates": [ -84.3462601, 33.7407694 ] } },
{ "type": "Feature", "properties": { "name": "The Earl", "barclass": "Bar", "barcode": 1 }, "geometry": { "type": "Point", "coordinates": [ -84.345904642516444, 33.7409779 ] } },
{ "type": "Feature", "properties": { "name": "Cockpit", "barclass": "Bar", "barcode": 1 }, "geometry": { "type": "Point", "coordinates": [ -84.3684433, 33.7418767 ] } },
{ "type": "Feature", "properties": { "name": "Three Taverns", "barclass": "Pub", "barcode": 2 }, "geometry": { "type": "Point", "coordinates": [ -84.3601883, 33.7456893 ] } },
{ "type": "Feature", "properties": { "name": "El Malo", "barclass": "Bar", "barcode": 1 }, "geometry": { "type": "Point", "coordinates": [ -84.3605017, 33.7460275 ] } },
{ "type": "Feature", "properties": { "name": "Milltown Arms Tavern", "barclass": "Bar", "barcode": 1 }, "geometry": { "type": "Point", "coordinates": [ -84.367914525121492, 33.74963085 ] } },
{ "type": "Feature", "properties": { "name": "97 Estoria", "barclass": "Bar", "barcode": 1 }, "geometry": { "type": "Point", "coordinates": [ -84.363455978231286, 33.7519921 ] } },
{ "type": "Feature", "properties": { "name": "Pour Taproom", "barclass": "Bar", "barcode": 1 }, "geometry": { "type": "Point", "coordinates": [ -84.365444, 33.7562599 ] } },
{ "type": "Feature", "properties": { "name": "Krog Bar", "barclass": "Bar", "barcode": 1 }, "geometry": { "type": "Point", "coordinates": [ -84.3645264, 33.7562632 ] } },
{ "type": "Feature", "properties": { "name": "The James Room", "barclass": "Bar", "barcode": 1 }, "geometry": { "type": "Point", "coordinates": [ -84.3653939, 33.7564632 ] } },
{ "type": "Feature", "properties": { "name": "Hop City Bar", "barclass": "Bar", "barcode": 1 }, "geometry": { "type": "Point", "coordinates": [ -84.3638692, 33.7570559 ] } },
{ "type": "Feature", "properties": { "name": "Lingering Shade Social Club", "barclass": "Bar", "barcode": 1 }, "geometry": { "type": "Point", "coordinates": [ -84.3650448, 33.7577819 ] } },
{ "type": "Feature", "properties": { "name": "The Pub", "barclass": "Pub", "barcode": 2 }, "geometry": { "type": "Point", "coordinates": [ -84.3466195, 33.7411039 ] } },
{ "type": "Feature", "properties": { "name": "The Wrecking Bar Brewpub", "barclass": "Pub", "barcode": 2 }, "geometry": { "type": "Point", "coordinates": [ -84.3496422, 33.762309 ] } },
{ "type": "Feature", "properties": { "name": "Front Page News", "barclass": "Pub", "barcode": 2 }, "geometry": { "type": "Point", "coordinates": [ -84.348756, 33.764036 ] } },
{ "type": "Feature", "properties": { "name": "Euclid Yacht Club", "barclass": "Bar", "barcode": 1 }, "geometry": { "type": "Point", "coordinates": [ -84.3501136, 33.7648449 ] } },
{ "type": "Feature", "properties": { "name": "The Porter", "barclass": "Pub", "barcode": 2 }, "geometry": { "type": "Point", "coordinates": [ -84.349617, 33.765187 ] } },
{ "type": "Feature", "properties": { "name": "Brewhouse Pub", "barclass": "Pub", "barcode": 2 }, "geometry": { "type": "Point", "coordinates": [ -84.3488434, 33.7652432 ] } },
{ "type": "Feature", "properties": { "name": "Corner Tavern", "barclass": "Pub", "barcode": 2 }, "geometry": { "type": "Point", "coordinates": [ -84.3492889, 33.7655421 ] } },
{ "type": "Feature", "properties": { "name": "Victory Sandwich Bar", "barclass": "Pub", "barcode": 2 }, "geometry": { "type": "Point", "coordinates": [ -84.3577859, 33.7639997 ] } },
{ "type": "Feature", "properties": { "name": "Aisle 5", "barclass": "Bar", "barcode": 1 }, "geometry": { "type": "Point", "coordinates": [ -84.350248129590909, 33.76422715 ] } },
{ "type": "Feature", "properties": { "name": "Bantam Pub", "barclass": "Pub", "barcode": 2 }, "geometry": { "type": "Point", "coordinates": [ -84.3630041, 33.7663377 ] } },
{ "type": "Feature", "properties": { "name": "N.Highland Pub", "barclass": "Pub", "barcode": 2 }, "geometry": { "type": "Point", "coordinates": [ -84.3529143, 33.7666683 ] } },
{ "type": "Feature", "properties": { "name": "Manuel's Tavern", "barclass": "Pub", "barcode": 2 }, "geometry": { "type": "Point", "coordinates": [ -84.352723, 33.7707666 ] } },
{ "type": "Feature", "properties": { "name": "Madeira Park", "barclass": "Bar", "barcode": 1 }, "geometry": { "type": "Point", "coordinates": [ -84.3527277, 33.7718177 ] } },
{ "type": "Feature", "properties": { "name": "The Tap", "barclass": "Bar", "barcode": 1 }, "geometry": { "type": "Point", "coordinates": [ -84.3663093, 33.7730641 ] } },
{ "type": "Feature", "properties": { "name": "The Righteous Room", "barclass": "Bar", "barcode": 1 }, "geometry": { "type": "Point", "coordinates": [ -84.3529817, 33.7734475 ] } },
{ "type": "Feature", "properties": { "name": null, "barclass": "Bar", "barcode": 1 }, "geometry": { "type": "Point", "coordinates": [ -84.36430055, 33.7736684 ] } },
{ "type": "Feature", "properties": { "name": "The Local", "barclass": "Pub", "barcode": 2 }, "geometry": { "type": "Point", "coordinates": [ -84.362290349902295, 33.7741056 ] } },
{ "type": "Feature", "properties": { "name": "Star Community Bar", "barclass": "Bar", "barcode": 1 }, "geometry": { "type": "Point", "coordinates": [ -84.348823995326001, 33.76625395 ] } },
{ "type": "Feature", "properties": { "name": "MJQ", "barclass": "Nightclub", "barcode": 3 }, "geometry": { "type": "Point", "coordinates": [ -84.363341, 33.774226 ] } },
{ "type": "Feature", "properties": { "name": "Hand In Hand", "barclass": "Pub", "barcode": 2 }, "geometry": { "type": "Point", "coordinates": [ -84.3527826, 33.7749822 ] } },
{ "type": "Feature", "properties": { "name": "Neighbor's", "barclass": "Pub", "barcode": 2 }, "geometry": { "type": "Point", "coordinates": [ -84.3530571, 33.7750662 ] } },
{ "type": "Feature", "properties": { "name": "Dark Horse Tavern", "barclass": "Bar", "barcode": 1 }, "geometry": { "type": "Point", "coordinates": [ -84.3526593, 33.7768237 ] } },
{ "type": "Feature", "properties": { "name": "Limerick Junction", "barclass": "Pub", "barcode": 2 }, "geometry": { "type": "Point", "coordinates": [ -84.3526721, 33.777017 ] } },
{ "type": "Feature", "properties": { "name": "Blind Willie's", "barclass": "Nightclub", "barcode": 3 }, "geometry": { "type": "Point", "coordinates": [ -84.3526721, 33.777114 ] } },
{ "type": "Feature", "properties": { "name": "Dads", "barclass": "Bar", "barcode": 1 }, "geometry": { "type": "Point", "coordinates": [ -84.353050492367686, 33.77832855 ] } },
{ "type": "Feature", "properties": { "name": "Dad's", "barclass": "Bar", "barcode": 1 }, "geometry": { "type": "Point", "coordinates": [ -84.3530248, 33.7783348 ] } },
{ "type": "Feature", "properties": { "name": "Popup Atlanta", "barclass": "Bar", "barcode": 1 }, "geometry": { "type": "Point", "coordinates": [ -84.3671662, 33.7789289 ] } },
{ "type": "Feature", "properties": { "name": "The Independent", "barclass": "Pub", "barcode": 2 }, "geometry": { "type": "Point", "coordinates": [ -84.367107, 33.7791786 ] } },
{ "type": "Feature", "properties": { "name": "Red Light Cafe", "barclass": "Nightclub", "barcode": 3 }, "geometry": { "type": "Point", "coordinates": [ -84.368869348818407, 33.78785715 ] } },
{ "type": "Feature", "properties": { "name": "Mixx Atlanta", "barclass": "Bar", "barcode": 1 }, "geometry": { "type": "Point", "coordinates": [ -84.3710344, 33.7960373 ] } },
{ "type": "Feature", "properties": { "name": "Atlanta Eagle", "barclass": "Bar", "barcode": 1 }, "geometry": { "type": "Point", "coordinates": [ -84.3711336, 33.7961866 ] } },
{ "type": "Feature", "properties": { "name": "Felix's", "barclass": "Bar", "barcode": 1 }, "geometry": { "type": "Point", "coordinates": [ -84.3710687, 33.7966008 ] } },
{ "type": "Feature", "properties": { "name": "Smith's Olde Bar", "barclass": "Bar", "barcode": 1 }, "geometry": { "type": "Point", "coordinates": [ -84.3688064385872, 33.79770375 ] } },
{ "type": "Feature", "properties": { "name": "The Hideaway", "barclass": "Bar", "barcode": 1 }, "geometry": { "type": "Point", "coordinates": [ -84.371752, 33.7982222 ] } },
{ "type": "Feature", "properties": { "name": "Nineteeth Hole", "barclass": "Bar", "barcode": 1 }, "geometry": { "type": "Point", "coordinates": [ -84.3764999, 33.800421 ] } },
{ "type": "Feature", "properties": { "name": "Cirque - Daiquiri Bar & Grill", "barclass": "Bar", "barcode": 1 }, "geometry": { "type": "Point", "coordinates": [ -84.3700338, 33.8109643 ] } },
{ "type": "Feature", "properties": { "name": "Woofs Sports Bar", "barclass": "Bar", "barcode": 1 }, "geometry": { "type": "Point", "coordinates": [ -84.3726225, 33.8116248 ] } },
{ "type": "Feature", "properties": { "name": "Painted Pickle", "barclass": "Bar", "barcode": 1 }, "geometry": { "type": "Point", "coordinates": [ -84.377540879518648, 33.81169055 ] } },
{ "type": "Feature", "properties": { "name": "Moe's and Joe's", "barclass": "Pub", "barcode": 2 }, "geometry": { "type": "Point", "coordinates": [ -84.3541834, 33.7828246 ] } },
{ "type": "Feature", "properties": { "name": null, "barclass": "Pub", "barcode": 2 }, "geometry": { "type": "Point", "coordinates": [ -84.3541969, 33.7828704 ] } },
{ "type": "Feature", "properties": { "name": "Six Feet Under", "barclass": "Pub", "barcode": 2 }, "geometry": { "type": "Point", "coordinates": [ -84.363039727526029, 33.8092783 ] } },
{ "type": "Feature", "properties": { "name": "BJ Rooster's", "barclass": "Bar", "barcode": 1 }, "geometry": { "type": "Point", "coordinates": [ -84.355976364760721, 33.8112824 ] } },
{ "type": "Feature", "properties": { "name": "The Heretic", "barclass": "Bar", "barcode": 1 }, "geometry": { "type": "Point", "coordinates": [ -84.35527792820227, 33.81150115 ] } },
{ "type": "Feature", "properties": { "name": "Blu Lagoon Bar and Bistro", "barclass": "Bar", "barcode": 1 }, "geometry": { "type": "Point", "coordinates": [ -84.3517492, 33.8170292 ] } },
{ "type": "Feature", "properties": { "name": "Tongue & Groove", "barclass": "Bar", "barcode": 1 }, "geometry": { "type": "Point", "coordinates": [ -84.3687794, 33.8223388 ] } },
{ "type": "Feature", "properties": { "name": "TONGUE AND GROOVE", "barclass": "Bar", "barcode": 1 }, "geometry": { "type": "Point", "coordinates": [ -84.3687776, 33.8223733 ] } },
{ "type": "Feature", "properties": { "name": "Wet Willies", "barclass": "Bar", "barcode": 1 }, "geometry": { "type": "Point", "coordinates": [ -84.3676558, 33.8229551 ] } }
]
}
