{
"type": "FeatureCollection",
"name": "OPP_bars_houston",
"crs": { "type": "name", "properties": { "name": "urn:ogc:def:crs:OGC:1.3:CRS84" } },
"features": [
{ "type": "Feature", "properties": { "name": "Bar Louie", "barclass": "Bar", "barcode": 1 }, "geometry": { "type": "Point", "coordinates": [ -95.1494826, 29.5456609 ] } },
{ "type": "Feature", "properties": { "name": "Whiskey Cake", "barclass": "Pub", "barcode": 2 }, "geometry": { "type": "Point", "coordinates": [ -95.1496499, 29.546979 ] } },
{ "type": "Feature", "properties": { "name": "Molly's Pub", "barclass": "Pub", "barcode": 2 }, "geometry": { "type": "Point", "coordinates": [ -95.1231579, 29.5564409 ] } },
{ "type": "Feature", "properties": { "name": "Allegria Wine & Cocktail Lounge", "barclass": "Bar", "barcode": 1 }, "geometry": { "type": "Point", "coordinates": [ -95.1454051, 29.5659521 ] } },
{ "type": "Feature", "properties": { "name": "World Famous Daquiris & Margaritas To Go", "barclass": "Bar", "barcode": 1 }, "geometry": { "type": "Point", "coordinates": [ -95.1537415, 29.5827378 ] } },
{ "type": "Feature", "properties": { "name": "Davenport Lounge", "barclass": "Bar", "barcode": 1 }, "geometry": { "type": "Point", "coordinates": [ -95.1535756, 29.5830227 ] } },
{ "type": "Feature", "properties": { "name": "Rosewater", "barclass": "Bar", "barcode": 1 }, "geometry": { "type": "Point", "coordinates": [ -95.1471084, 29.5844009 ] } },
{ "type": "Feature", "properties": { "name": "Axelrad Beer Garden", "barclass": "Biergarten", "barcode": 4 }, "geometry": { "type": "Point", "coordinates": [ -95.37476423103891, 29.7351514 ] } },
{ "type": "Feature", "properties": { "name": "Shoeshine Charlie's Big Top Lounge", "barclass": "Bar", "barcode": 1 }, "geometry": { "type": "Point", "coordinates": [ -95.3798992, 29.7383182 ] } },
{ "type": "Feature", "properties": { "name": "Continental Club", "barclass": "Bar", "barcode": 1 }, "geometry": { "type": "Point", "coordinates": [ -95.3797861, 29.7384755 ] } },
{ "type": "Feature", "properties": { "name": "Double Trouble", "barclass": "Bar", "barcode": 1 }, "geometry": { "type": "Point", "coordinates": [ -95.3796433, 29.7386508 ] } },
{ "type": "Feature", "properties": { "name": "The Brass Tap", "barclass": "Pub", "barcode": 2 }, "geometry": { "type": "Point", "coordinates": [ -95.3794151, 29.7400304 ] } },
{ "type": "Feature", "properties": { "name": "Social Beer Garden HTX", "barclass": "Pub", "barcode": 2 }, "geometry": { "type": "Point", "coordinates": [ -95.374668050021796, 29.7409197 ] } },
{ "type": "Feature", "properties": { "name": "13 Celsius", "barclass": "Bar", "barcode": 1 }, "geometry": { "type": "Point", "coordinates": [ -95.373764203294783, 29.74123785 ] } },
{ "type": "Feature", "properties": { "name": "Beer Market", "barclass": "Pub", "barcode": 2 }, "geometry": { "type": "Point", "coordinates": [ -95.379631, 29.7419945 ] } },
{ "type": "Feature", "properties": { "name": "Nouveau Antique Art Bar", "barclass": "Bar", "barcode": 1 }, "geometry": { "type": "Point", "coordinates": [ -95.3756618, 29.7429775 ] } },
{ "type": "Feature", "properties": { "name": "On The Rocks Bar & Lounge", "barclass": "Bar", "barcode": 1 }, "geometry": { "type": "Point", "coordinates": [ -95.3563162, 29.7021341 ] } },
{ "type": "Feature", "properties": { "name": "The Den", "barclass": "Bar", "barcode": 1 }, "geometry": { "type": "Point", "coordinates": [ -95.337805, 29.7188647 ] } },
{ "type": "Feature", "properties": { "name": "Calhoun's Rooftop", "barclass": "Bar", "barcode": 1 }, "geometry": { "type": "Point", "coordinates": [ -95.3371295, 29.7228226 ] } },
{ "type": "Feature", "properties": { "name": "Grooves of Houston", "barclass": "Nightclub", "barcode": 3 }, "geometry": { "type": "Point", "coordinates": [ -95.359522235124814, 29.742298 ] } },
{ "type": "Feature", "properties": { "name": "Marquis Bar and Lounge", "barclass": "Bar", "barcode": 1 }, "geometry": { "type": "Point", "coordinates": [ -95.3644921, 29.7440359 ] } },
{ "type": "Feature", "properties": { "name": "Club 2020", "barclass": "Nightclub", "barcode": 3 }, "geometry": { "type": "Point", "coordinates": [ -95.359410329247979, 29.74664875 ] } },
{ "type": "Feature", "properties": { "name": "Around the Corner", "barclass": "Bar", "barcode": 1 }, "geometry": { "type": "Point", "coordinates": [ -95.358084703871697, 29.74674895 ] } },
{ "type": "Feature", "properties": { "name": "Voodoo Queen Daiquiri Drive", "barclass": "Bar", "barcode": 1 }, "geometry": { "type": "Point", "coordinates": [ -95.3378655, 29.7475048 ] } },
{ "type": "Feature", "properties": { "name": "The Secret Group", "barclass": "Nightclub", "barcode": 3 }, "geometry": { "type": "Point", "coordinates": [ -95.35691553838987, 29.74902425 ] } },
{ "type": "Feature", "properties": { "name": "Jet Lounge", "barclass": "Nightclub", "barcode": 3 }, "geometry": { "type": "Point", "coordinates": [ -95.364342050723806, 29.7491182 ] } },
{ "type": "Feature", "properties": { "name": "The Leaf Pub", "barclass": "Pub", "barcode": 2 }, "geometry": { "type": "Point", "coordinates": [ -95.3807681, 29.7436579 ] } },
{ "type": "Feature", "properties": { "name": "Saint Dane's Bar & Grill", "barclass": "Bar", "barcode": 1 }, "geometry": { "type": "Point", "coordinates": [ -95.3812776, 29.74383145 ] } },
{ "type": "Feature", "properties": { "name": "Eleven Eleven", "barclass": "Nightclub", "barcode": 3 }, "geometry": { "type": "Point", "coordinates": [ -95.370188908066183, 29.74424585 ] } },
{ "type": "Feature", "properties": { "name": "Phil & Derek's Speakeasy Comedy Lounge", "barclass": "Bar", "barcode": 1 }, "geometry": { "type": "Point", "coordinates": [ -95.3655081, 29.7443784 ] } },
{ "type": "Feature", "properties": { "name": "Leon's Lounge", "barclass": "Bar", "barcode": 1 }, "geometry": { "type": "Point", "coordinates": [ -95.3736234, 29.7449197 ] } },
{ "type": "Feature", "properties": { "name": "Rich's Houston", "barclass": "Nightclub", "barcode": 3 }, "geometry": { "type": "Point", "coordinates": [ -95.3715298, 29.7451002 ] } },
{ "type": "Feature", "properties": { "name": null, "barclass": "Bar", "barcode": 1 }, "geometry": { "type": "Point", "coordinates": [ -95.373459535924894, 29.74527145 ] } },
{ "type": "Feature", "properties": { "name": "Khon's Wine Darts Coffee Art", "barclass": "Bar", "barcode": 1 }, "geometry": { "type": "Point", "coordinates": [ -95.377516, 29.7452842 ] } },
{ "type": "Feature", "properties": { "name": "Barbarella", "barclass": "Nightclub", "barcode": 3 }, "geometry": { "type": "Point", "coordinates": [ -95.3719684, 29.7456259 ] } },
{ "type": "Feature", "properties": { "name": "Warehouse Live", "barclass": "Nightclub", "barcode": 3 }, "geometry": { "type": "Point", "coordinates": [ -95.3755102, 29.7456965 ] } },
{ "type": "Feature", "properties": { "name": "Lightnin's Good Times", "barclass": "Bar", "barcode": 1 }, "geometry": { "type": "Point", "coordinates": [ -95.3564787, 29.7493595 ] } },
{ "type": "Feature", "properties": { "name": "Truck Yard", "barclass": "Biergarten", "barcode": 4 }, "geometry": { "type": "Point", "coordinates": [ -95.3555656, 29.7500311 ] } },
{ "type": "Feature", "properties": { "name": "Pitch 25", "barclass": "Pub", "barcode": 2 }, "geometry": { "type": "Point", "coordinates": [ -95.3546669, 29.7516917 ] } },
{ "type": "Feature", "properties": { "name": "Warehouse Live", "barclass": "Nightclub", "barcode": 3 }, "geometry": { "type": "Point", "coordinates": [ -95.3544714, 29.7520306 ] } },
{ "type": "Feature", "properties": { "name": "Neil's Bahr", "barclass": "Bar", "barcode": 1 }, "geometry": { "type": "Point", "coordinates": [ -95.3555328, 29.7521467 ] } },
{ "type": "Feature", "properties": { "name": "Little Woodrow's EaDo", "barclass": "Bar", "barcode": 1 }, "geometry": { "type": "Point", "coordinates": [ -95.3548873, 29.7522818 ] } },
{ "type": "Feature", "properties": { "name": "MKT BAR", "barclass": "Bar", "barcode": 1 }, "geometry": { "type": "Point", "coordinates": [ -95.3613855, 29.7546185 ] } },
{ "type": "Feature", "properties": { "name": "Eighteen Twenty Lounge", "barclass": "Bar", "barcode": 1 }, "geometry": { "type": "Point", "coordinates": [ -95.3526611, 29.7583002 ] } },
{ "type": "Feature", "properties": { "name": "Flying Saucer Draught Emporium", "barclass": "Pub", "barcode": 2 }, "geometry": { "type": "Point", "coordinates": [ -95.3631083, 29.7589677 ] } },
{ "type": "Feature", "properties": { "name": "Cellar 7 Wine & Bar Bites", "barclass": "Bar", "barcode": 1 }, "geometry": { "type": "Point", "coordinates": [ -95.3629486, 29.759729 ] } },
{ "type": "Feature", "properties": { "name": "IYKYK", "barclass": "Nightclub", "barcode": 3 }, "geometry": { "type": "Point", "coordinates": [ -95.3616686, 29.760421 ] } },
{ "type": "Feature", "properties": { "name": "Shay McElroy's Irish Pub", "barclass": "Bar", "barcode": 1 }, "geometry": { "type": "Point", "coordinates": [ -95.3624401, 29.7604224 ] } },
{ "type": "Feature", "properties": { "name": "The Moonshiners", "barclass": "Bar", "barcode": 1 }, "geometry": { "type": "Point", "coordinates": [ -95.3618891, 29.7605395 ] } },
{ "type": "Feature", "properties": { "name": "Off The Record", "barclass": "Bar", "barcode": 1 }, "geometry": { "type": "Point", "coordinates": [ -95.3618838, 29.7610587 ] } },
{ "type": "Feature", "properties": { "name": "Bungalow", "barclass": "Bar", "barcode": 1 }, "geometry": { "type": "Point", "coordinates": [ -95.3614046, 29.7611638 ] } },
{ "type": "Feature", "properties": { "name": "Bar Moxy", "barclass": "Bar", "barcode": 1 }, "geometry": { "type": "Point", "coordinates": [ -95.361852, 29.7611841 ] } },
{ "type": "Feature", "properties": { "name": "El Big Bad", "barclass": "Bar", "barcode": 1 }, "geometry": { "type": "Point", "coordinates": [ -95.3625898, 29.7613051 ] } },
{ "type": "Feature", "properties": { "name": "Dean's", "barclass": "Bar", "barcode": 1 }, "geometry": { "type": "Point", "coordinates": [ -95.3613339, 29.7618201 ] } },
{ "type": "Feature", "properties": { "name": "Notsuoh", "barclass": "Bar", "barcode": 1 }, "geometry": { "type": "Point", "coordinates": [ -95.3612534, 29.7619039 ] } },
{ "type": "Feature", "properties": { "name": "Behind Closed Doors", "barclass": "Bar", "barcode": 1 }, "geometry": { "type": "Point", "coordinates": [ -95.3612104, 29.7619536 ] } },
{ "type": "Feature", "properties": { "name": "Cherry", "barclass": "Nightclub", "barcode": 3 }, "geometry": { "type": "Point", "coordinates": [ -95.3611677, 29.7620059 ] } },
{ "type": "Feature", "properties": { "name": "Captain Foxheart's Bad News Bar & Spirit Lodge", "barclass": "Bar", "barcode": 1 }, "geometry": { "type": "Point", "coordinates": [ -95.361147, 29.7620312 ] } },
{ "type": "Feature", "properties": { "name": "Little Dipper", "barclass": "Bar", "barcode": 1 }, "geometry": { "type": "Point", "coordinates": [ -95.361136535193992, 29.76217 ] } },
{ "type": "Feature", "properties": { "name": "La Diabla", "barclass": "Bar", "barcode": 1 }, "geometry": { "type": "Point", "coordinates": [ -95.361006, 29.7622041 ] } },
{ "type": "Feature", "properties": { "name": "CRU", "barclass": "Bar", "barcode": 1 }, "geometry": { "type": "Point", "coordinates": [ -95.3617995, 29.7622899 ] } },
{ "type": "Feature", "properties": { "name": "Angel Share HTX", "barclass": "Bar", "barcode": 1 }, "geometry": { "type": "Point", "coordinates": [ -95.3612432, 29.7623925 ] } },
{ "type": "Feature", "properties": { "name": "Warren's Inn", "barclass": "Bar", "barcode": 1 }, "geometry": { "type": "Point", "coordinates": [ -95.3617298, 29.7624111 ] } },
{ "type": "Feature", "properties": { "name": "Line & Lariat", "barclass": "Bar", "barcode": 1 }, "geometry": { "type": "Point", "coordinates": [ -95.3608224, 29.7624509 ] } },
{ "type": "Feature", "properties": { "name": null, "barclass": "Biergarten", "barcode": 4 }, "geometry": { "type": "Point", "coordinates": [ -95.361520844254343, 29.76248645 ] } },
{ "type": "Feature", "properties": { "name": "La Carafe", "barclass": "Bar", "barcode": 1 }, "geometry": { "type": "Point", "coordinates": [ -95.361828081857965, 29.7631318 ] } },
{ "type": "Feature", "properties": { "name": "Henke & Pillot", "barclass": "Nightclub", "barcode": 3 }, "geometry": { "type": "Point", "coordinates": [ -95.3619351, 29.7631541 ] } },
{ "type": "Feature", "properties": { "name": "Etro Nightclub", "barclass": "Nightclub", "barcode": 3 }, "geometry": { "type": "Point", "coordinates": [ -95.3600352, 29.7634185 ] } },
{ "type": "Feature", "properties": { "name": "Houston Watch Company", "barclass": "Bar", "barcode": 1 }, "geometry": { "type": "Point", "coordinates": [ -95.3605831, 29.7634303 ] } },
{ "type": "Feature", "properties": { "name": "La Calle Cantina", "barclass": "Bar", "barcode": 1 }, "geometry": { "type": "Point", "coordinates": [ -95.360626, 29.7634536 ] } },
{ "type": "Feature", "properties": { "name": "Public Services Wine & Whisky", "barclass": "Bar", "barcode": 1 }, "geometry": { "type": "Point", "coordinates": [ -95.3612355, 29.7634862 ] } },
{ "type": "Feature", "properties": { "name": "Lilly & Bloom", "barclass": "Bar", "barcode": 1 }, "geometry": { "type": "Point", "coordinates": [ -95.3599612, 29.7634896 ] } },
{ "type": "Feature", "properties": { "name": "McIntyre's", "barclass": "Bar", "barcode": 1 }, "geometry": { "type": "Point", "coordinates": [ -95.360068590740497, 29.76436665 ] } },
{ "type": "Feature", "properties": { "name": "The New Potato", "barclass": "Pub", "barcode": 2 }, "geometry": { "type": "Point", "coordinates": [ -95.334089815218306, 29.7651022 ] } },
{ "type": "Feature", "properties": { "name": "Saint Arnolds Beer Garden & Restaurant", "barclass": "Biergarten", "barcode": 4 }, "geometry": { "type": "Point", "coordinates": [ -95.347759449657502, 29.77103655 ] } },
{ "type": "Feature", "properties": { "name": "Bad Astronaut Brewing company", "barclass": "Bar", "barcode": 1 }, "geometry": { "type": "Point", "coordinates": [ -95.3565295, 29.7739942 ] } },
{ "type": "Feature", "properties": { "name": "Red River Ice House", "barclass": "Pub", "barcode": 2 }, "geometry": { "type": "Point", "coordinates": [ -95.431087923521744, 29.6739619 ] } },
{ "type": "Feature", "properties": { "name": "The Roost", "barclass": "Pub", "barcode": 2 }, "geometry": { "type": "Point", "coordinates": [ -95.40482674646185, 29.7134542 ] } },
{ "type": "Feature", "properties": { "name": "Little Woodrow's", "barclass": "Bar", "barcode": 1 }, "geometry": { "type": "Point", "coordinates": [ -95.414605273863828, 29.7157301 ] } },
{ "type": "Feature", "properties": { "name": "The Big Easy", "barclass": "Nightclub", "barcode": 3 }, "geometry": { "type": "Point", "coordinates": [ -95.41821095, 29.7208103 ] } },
{ "type": "Feature", "properties": { "name": "Under the Volcano", "barclass": "Bar", "barcode": 1 }, "geometry": { "type": "Point", "coordinates": [ -95.414784538946463, 29.7252291 ] } },
{ "type": "Feature", "properties": { "name": "McGonigel's Mucky Duck", "barclass": "Pub", "barcode": 2 }, "geometry": { "type": "Point", "coordinates": [ -95.417109, 29.732651 ] } },
{ "type": "Feature", "properties": { "name": "Sante Lounge", "barclass": "Bar", "barcode": 1 }, "geometry": { "type": "Point", "coordinates": [ -95.415508500523231, 29.73392145 ] } },
{ "type": "Feature", "properties": { "name": "Capone's Pizza Oven & Bar", "barclass": "Pub", "barcode": 2 }, "geometry": { "type": "Point", "coordinates": [ -95.415288087924424, 29.73399095 ] } },
{ "type": "Feature", "properties": { "name": "The Cellar Bar", "barclass": "Bar", "barcode": 1 }, "geometry": { "type": "Point", "coordinates": [ -95.4261302, 29.7343954 ] } },
{ "type": "Feature", "properties": { "name": "Valhalla", "barclass": "Pub", "barcode": 2 }, "geometry": { "type": "Point", "coordinates": [ -95.4003646, 29.7192174 ] } },
{ "type": "Feature", "properties": { "name": "Grand Prize Bar", "barclass": "Bar", "barcode": 1 }, "geometry": { "type": "Point", "coordinates": [ -95.39168345, 29.7303364 ] } },
{ "type": "Feature", "properties": { "name": "Penny Whistle Pub", "barclass": "Pub", "barcode": 2 }, "geometry": { "type": "Point", "coordinates": [ -95.4006779, 29.734159 ] } },
{ "type": "Feature", "properties": { "name": "Absinthe", "barclass": "Bar", "barcode": 1 }, "geometry": { "type": "Point", "coordinates": [ -95.387440073971561, 29.7342741 ] } },
{ "type": "Feature", "properties": { "name": "Echoes", "barclass": "Bar", "barcode": 1 }, "geometry": { "type": "Point", "coordinates": [ -95.3900031, 29.7347692 ] } },
{ "type": "Feature", "properties": { "name": null, "barclass": "Pub", "barcode": 2 }, "geometry": { "type": "Point", "coordinates": [ -95.390151, 29.741671 ] } },
{ "type": "Feature", "properties": { "name": "Pistolero's", "barclass": "Bar", "barcode": 1 }, "geometry": { "type": "Point", "coordinates": [ -95.398382749966856, 29.74249425 ] } },
{ "type": "Feature", "properties": { "name": "Boondocks", "barclass": "Bar", "barcode": 1 }, "geometry": { "type": "Point", "coordinates": [ -95.3967856, 29.7426148 ] } },
{ "type": "Feature", "properties": { "name": "Poison Girl", "barclass": "Bar", "barcode": 1 }, "geometry": { "type": "Point", "coordinates": [ -95.4010996, 29.7426736 ] } },
{ "type": "Feature", "properties": { "name": "Roswell's Saloon", "barclass": "Bar", "barcode": 1 }, "geometry": { "type": "Point", "coordinates": [ -95.3967786, 29.7427425 ] } },
{ "type": "Feature", "properties": { "name": "Anvil Bar & Refuge", "barclass": "Bar", "barcode": 1 }, "geometry": { "type": "Point", "coordinates": [ -95.396868378942088, 29.7430843 ] } },
{ "type": "Feature", "properties": { "name": "The Marigold Club", "barclass": "Bar", "barcode": 1 }, "geometry": { "type": "Point", "coordinates": [ -95.4003602, 29.7433844 ] } },
{ "type": "Feature", "properties": { "name": "Catbirds", "barclass": "Pub", "barcode": 2 }, "geometry": { "type": "Point", "coordinates": [ -95.3956533, 29.7436291 ] } },
{ "type": "Feature", "properties": { "name": "AvantGarden", "barclass": "Bar", "barcode": 1 }, "geometry": { "type": "Point", "coordinates": [ -95.386471998255814, 29.74432995 ] } },
{ "type": "Feature", "properties": { "name": "Numbers Night Club", "barclass": "Nightclub", "barcode": 3 }, "geometry": { "type": "Point", "coordinates": [ -95.385053999275911, 29.74484765 ] } },
{ "type": "Feature", "properties": { "name": "Slick Willies", "barclass": "Pub", "barcode": 2 }, "geometry": { "type": "Point", "coordinates": [ -95.393606021059327, 29.74488875 ] } },
{ "type": "Feature", "properties": { "name": "JR's", "barclass": "Bar", "barcode": 1 }, "geometry": { "type": "Point", "coordinates": [ -95.390083735380784, 29.74688 ] } },
{ "type": "Feature", "properties": { "name": "Blur Bar", "barclass": "Nightclub", "barcode": 3 }, "geometry": { "type": "Point", "coordinates": [ -95.389398179267857, 29.74693055 ] } },
{ "type": "Feature", "properties": { "name": "South Beach", "barclass": "Nightclub", "barcode": 3 }, "geometry": { "type": "Point", "coordinates": [ -95.390555565480327, 29.74708535 ] } },
{ "type": "Feature", "properties": { "name": "Varsity Bar", "barclass": "Bar", "barcode": 1 }, "geometry": { "type": "Point", "coordinates": [ -95.388707526189734, 29.74733735 ] } },
{ "type": "Feature", "properties": { "name": "ReBar", "barclass": "Bar", "barcode": 1 }, "geometry": { "type": "Point", "coordinates": [ -95.3823847, 29.7473922 ] } },
{ "type": "Feature", "properties": { "name": "Play", "barclass": "Bar", "barcode": 1 }, "geometry": { "type": "Point", "coordinates": [ -95.3906046, 29.7477903 ] } },
{ "type": "Feature", "properties": { "name": "Pause", "barclass": "Bar", "barcode": 1 }, "geometry": { "type": "Point", "coordinates": [ -95.3908954, 29.7477936 ] } },
{ "type": "Feature", "properties": { "name": "Barcode", "barclass": "Bar", "barcode": 1 }, "geometry": { "type": "Point", "coordinates": [ -95.3902833, 29.7479137 ] } },
{ "type": "Feature", "properties": { "name": "George", "barclass": "Pub", "barcode": 2 }, "geometry": { "type": "Point", "coordinates": [ -95.388726925220681, 29.747978 ] } },
{ "type": "Feature", "properties": { "name": "Ripcord", "barclass": "Bar", "barcode": 1 }, "geometry": { "type": "Point", "coordinates": [ -95.389516768423448, 29.7479874 ] } },
{ "type": "Feature", "properties": { "name": "Boheme", "barclass": "Bar", "barcode": 1 }, "geometry": { "type": "Point", "coordinates": [ -95.386058750275666, 29.7480019 ] } },
{ "type": "Feature", "properties": { "name": "Club 2.0", "barclass": "Nightclub", "barcode": 3 }, "geometry": { "type": "Point", "coordinates": [ -95.3898446, 29.7482807 ] } },
{ "type": "Feature", "properties": { "name": "Lola's Depot", "barclass": "Pub", "barcode": 2 }, "geometry": { "type": "Point", "coordinates": [ -95.390988663524396, 29.7483615 ] } },
{ "type": "Feature", "properties": { "name": "Crocker", "barclass": "Bar", "barcode": 1 }, "geometry": { "type": "Point", "coordinates": [ -95.3898951, 29.7485402 ] } },
{ "type": "Feature", "properties": { "name": "Glitter Karaoke", "barclass": "Bar", "barcode": 1 }, "geometry": { "type": "Point", "coordinates": [ -95.3762084, 29.7457448 ] } },
{ "type": "Feature", "properties": { "name": "Playground", "barclass": "Bar", "barcode": 1 }, "geometry": { "type": "Point", "coordinates": [ -95.373231806278113, 29.74602425 ] } },
{ "type": "Feature", "properties": { "name": "The Dog House Tavern", "barclass": "Bar", "barcode": 1 }, "geometry": { "type": "Point", "coordinates": [ -95.3787933, 29.7486616 ] } },
{ "type": "Feature", "properties": { "name": "On The Kirb", "barclass": "Pub", "barcode": 2 }, "geometry": { "type": "Point", "coordinates": [ -95.3788259, 29.7486857 ] } },
{ "type": "Feature", "properties": { "name": "FAO", "barclass": "Bar", "barcode": 1 }, "geometry": { "type": "Point", "coordinates": [ -95.3760004, 29.7491052 ] } },
{ "type": "Feature", "properties": { "name": "Electric Feelgood", "barclass": "Bar", "barcode": 1 }, "geometry": { "type": "Point", "coordinates": [ -95.3785467, 29.7491455 ] } },
{ "type": "Feature", "properties": { "name": "Dogwood", "barclass": "Bar", "barcode": 1 }, "geometry": { "type": "Point", "coordinates": [ -95.3784366, 29.7492561 ] } },
{ "type": "Feature", "properties": { "name": "Shot Bar", "barclass": "Bar", "barcode": 1 }, "geometry": { "type": "Point", "coordinates": [ -95.3778934, 29.749571 ] } },
{ "type": "Feature", "properties": { "name": "Little Woodrow's", "barclass": "Bar", "barcode": 1 }, "geometry": { "type": "Point", "coordinates": [ -95.3772533, 29.7498187 ] } },
{ "type": "Feature", "properties": { "name": "Lone Star Saloon", "barclass": "Bar", "barcode": 1 }, "geometry": { "type": "Point", "coordinates": [ -95.371421710135138, 29.75076865 ] } },
{ "type": "Feature", "properties": { "name": "Kirby Ice House", "barclass": "Bar", "barcode": 1 }, "geometry": { "type": "Point", "coordinates": [ -95.4245071, 29.7358093 ] } },
{ "type": "Feature", "properties": { "name": "West Alabama Ice House", "barclass": "Biergarten", "barcode": 4 }, "geometry": { "type": "Point", "coordinates": [ -95.407812226074043, 29.73831395 ] } },
{ "type": "Feature", "properties": { "name": null, "barclass": "Pub", "barcode": 2 }, "geometry": { "type": "Point", "coordinates": [ -95.407833438147691, 29.73840585 ] } },
{ "type": "Feature", "properties": { "name": "T.K. Bitterman's", "barclass": "Bar", "barcode": 1 }, "geometry": { "type": "Point", "coordinates": [ -95.4086156, 29.7388996 ] } },
{ "type": "Feature", "properties": { "name": "XX3", "barclass": "Bar", "barcode": 1 }, "geometry": { "type": "Point", "coordinates": [ -95.4214663, 29.7410223 ] } },
{ "type": "Feature", "properties": { "name": "Downing Street Social Club", "barclass": "Bar", "barcode": 1 }, "geometry": { "type": "Point", "coordinates": [ -95.4212877, 29.7410562 ] } },
{ "type": "Feature", "properties": { "name": "Crú Food & Wine Bar", "barclass": "Bar", "barcode": 1 }, "geometry": { "type": "Point", "coordinates": [ -95.4194831, 29.741422 ] } },
{ "type": "Feature", "properties": { "name": "Camerata", "barclass": "Bar", "barcode": 1 }, "geometry": { "type": "Point", "coordinates": [ -95.405933229516023, 29.74288195 ] } },
{ "type": "Feature", "properties": { "name": "Scott Gertner's Rhythm Room", "barclass": "Pub", "barcode": 2 }, "geometry": { "type": "Point", "coordinates": [ -95.4173407, 29.7606789 ] } },
{ "type": "Feature", "properties": { "name": "Little Woodrow's", "barclass": "Bar", "barcode": 1 }, "geometry": { "type": "Point", "coordinates": [ -95.409035576628611, 29.76885755 ] } },
{ "type": "Feature", "properties": { "name": "Spire Night Club", "barclass": "Nightclub", "barcode": 3 }, "geometry": { "type": "Point", "coordinates": [ -95.369788583641792, 29.75129565 ] } },
{ "type": "Feature", "properties": { "name": "Christian's Tailgate Bar & Grill", "barclass": "Bar", "barcode": 1 }, "geometry": { "type": "Point", "coordinates": [ -95.3763539, 29.7525626 ] } },
{ "type": "Feature", "properties": { "name": "#Front Porch Pub", "barclass": "Pub", "barcode": 2 }, "geometry": { "type": "Point", "coordinates": [ -95.377463713865666, 29.7526684 ] } },
{ "type": "Feature", "properties": { "name": "Belle Station", "barclass": "Bar", "barcode": 1 }, "geometry": { "type": "Point", "coordinates": [ -95.377706825145353, 29.75287465 ] } },
{ "type": "Feature", "properties": { "name": "Komodo Pub", "barclass": "Bar", "barcode": 1 }, "geometry": { "type": "Point", "coordinates": [ -95.377181201165101, 29.7530944 ] } },
{ "type": "Feature", "properties": { "name": "Oakmont Houston", "barclass": "Bar", "barcode": 1 }, "geometry": { "type": "Point", "coordinates": [ -95.3769282, 29.753387 ] } },
{ "type": "Feature", "properties": { "name": "Lost & Found", "barclass": "Pub", "barcode": 2 }, "geometry": { "type": "Point", "coordinates": [ -95.38108168584958, 29.75346655 ] } },
{ "type": "Feature", "properties": { "name": "Julep", "barclass": "Bar", "barcode": 1 }, "geometry": { "type": "Point", "coordinates": [ -95.3778952, 29.767533 ] } },
{ "type": "Feature", "properties": { "name": "Henderson Heights Pub", "barclass": "Pub", "barcode": 2 }, "geometry": { "type": "Point", "coordinates": [ -95.3792834, 29.76754515 ] } },
{ "type": "Feature", "properties": { "name": "Betelgeuse Betelgeuse", "barclass": "Bar", "barcode": 1 }, "geometry": { "type": "Point", "coordinates": [ -95.379713035399803, 29.76781715 ] } },
{ "type": "Feature", "properties": { "name": "Rudyards", "barclass": "Pub", "barcode": 2 }, "geometry": { "type": "Point", "coordinates": [ -95.396605183086109, 29.74995335 ] } },
{ "type": "Feature", "properties": { "name": "Cecil's Pub", "barclass": "Pub", "barcode": 2 }, "geometry": { "type": "Point", "coordinates": [ -95.388351221153414, 29.75360175 ] } },
{ "type": "Feature", "properties": { "name": "PJ's Sports Bar", "barclass": "Bar", "barcode": 1 }, "geometry": { "type": "Point", "coordinates": [ -95.3887415, 29.75360265 ] } },
{ "type": "Feature", "properties": { "name": "Pimlico", "barclass": "Pub", "barcode": 2 }, "geometry": { "type": "Point", "coordinates": [ -95.3986026, 29.7583502 ] } },
{ "type": "Feature", "properties": { "name": "Papi's", "barclass": "Nightclub", "barcode": 3 }, "geometry": { "type": "Point", "coordinates": [ -95.3989269, 29.7597835 ] } },
{ "type": "Feature", "properties": { "name": "Trez Art and Wine Bar", "barclass": "Bar", "barcode": 1 }, "geometry": { "type": "Point", "coordinates": [ -95.3916505, 29.7677572 ] } },
{ "type": "Feature", "properties": { "name": "Good God, Nadine's", "barclass": "Bar", "barcode": 1 }, "geometry": { "type": "Point", "coordinates": [ -95.3978889, 29.76817 ] } },
{ "type": "Feature", "properties": { "name": "The Ivy House", "barclass": "Bar", "barcode": 1 }, "geometry": { "type": "Point", "coordinates": [ -95.3879387, 29.76838885 ] } },
{ "type": "Feature", "properties": { "name": "Social Junkie", "barclass": "Bar", "barcode": 1 }, "geometry": { "type": "Point", "coordinates": [ -95.3833875, 29.7685723 ] } },
{ "type": "Feature", "properties": { "name": "Bayou Heights Biergarten", "barclass": "Bar", "barcode": 1 }, "geometry": { "type": "Point", "coordinates": [ -95.3998297, 29.7692445 ] } },
{ "type": "Feature", "properties": { "name": "Azuza", "barclass": "Bar", "barcode": 1 }, "geometry": { "type": "Point", "coordinates": [ -95.40298189732394, 29.769999 ] } },
{ "type": "Feature", "properties": { "name": "Concrete Cowboy", "barclass": "Bar", "barcode": 1 }, "geometry": { "type": "Point", "coordinates": [ -95.415157651284773, 29.77028375 ] } },
{ "type": "Feature", "properties": { "name": "Kung Fu Saloon", "barclass": "Bar", "barcode": 1 }, "geometry": { "type": "Point", "coordinates": [ -95.415696145841423, 29.7702975 ] } },
{ "type": "Feature", "properties": { "name": "Pearl Bar", "barclass": "Bar", "barcode": 1 }, "geometry": { "type": "Point", "coordinates": [ -95.4037774, 29.7704237 ] } },
{ "type": "Feature", "properties": { "name": "Side Peace", "barclass": "Bar", "barcode": 1 }, "geometry": { "type": "Point", "coordinates": [ -95.4038765, 29.7704345 ] } },
{ "type": "Feature", "properties": { "name": "Underdogs Pub", "barclass": "Pub", "barcode": 2 }, "geometry": { "type": "Point", "coordinates": [ -95.40342055, 29.77052105 ] } },
{ "type": "Feature", "properties": { "name": "Axis & Alibi", "barclass": "Bar", "barcode": 1 }, "geometry": { "type": "Point", "coordinates": [ -95.419504681653819, 29.7705438 ] } },
{ "type": "Feature", "properties": { "name": "Clutch Bar", "barclass": "Bar", "barcode": 1 }, "geometry": { "type": "Point", "coordinates": [ -95.416070002883828, 29.7707396 ] } },
{ "type": "Feature", "properties": { "name": "Standard", "barclass": "Bar", "barcode": 1 }, "geometry": { "type": "Point", "coordinates": [ -95.4148013, 29.7707679 ] } },
{ "type": "Feature", "properties": { "name": "Max's Wine Dive", "barclass": "Bar", "barcode": 1 }, "geometry": { "type": "Point", "coordinates": [ -95.4091077, 29.7708152 ] } },
{ "type": "Feature", "properties": { "name": "Porch Swing Pub", "barclass": "Pub", "barcode": 2 }, "geometry": { "type": "Point", "coordinates": [ -95.39773022297085, 29.7700315 ] } },
{ "type": "Feature", "properties": { "name": "Loft 18", "barclass": "Bar", "barcode": 1 }, "geometry": { "type": "Point", "coordinates": [ -95.3822269, 29.7701353 ] } },
{ "type": "Feature", "properties": { "name": "City Orchard Cidery", "barclass": "Bar", "barcode": 1 }, "geometry": { "type": "Point", "coordinates": [ -95.3868917, 29.7708118 ] } },
{ "type": "Feature", "properties": { "name": "Sawyer Yards Ice House", "barclass": "Bar", "barcode": 1 }, "geometry": { "type": "Point", "coordinates": [ -95.382546700546698, 29.77096195 ] } },
{ "type": "Feature", "properties": { "name": "Mutiny Wine Room", "barclass": "Bar", "barcode": 1 }, "geometry": { "type": "Point", "coordinates": [ -95.386821664468215, 29.780578 ] } },
{ "type": "Feature", "properties": { "name": "Better Luck Tomorrow", "barclass": "Bar", "barcode": 1 }, "geometry": { "type": "Point", "coordinates": [ -95.398604106082217, 29.78129 ] } },
{ "type": "Feature", "properties": { "name": "Bobcat Teddy's Ice House", "barclass": "Bar", "barcode": 1 }, "geometry": { "type": "Point", "coordinates": [ -95.388723137452715, 29.7813805 ] } },
{ "type": "Feature", "properties": { "name": "Little Woodrows", "barclass": "Pub", "barcode": 2 }, "geometry": { "type": "Point", "coordinates": [ -95.387324123750545, 29.78139325 ] } },
{ "type": "Feature", "properties": { "name": "EZ's Liquor Lounge", "barclass": "Bar", "barcode": 1 }, "geometry": { "type": "Point", "coordinates": [ -95.3931369, 29.7817125 ] } },
{ "type": "Feature", "properties": { "name": "Benny Thunders", "barclass": "Biergarten", "barcode": 4 }, "geometry": { "type": "Point", "coordinates": [ -95.3933598, 29.7820975 ] } },
{ "type": "Feature", "properties": { "name": "The Anime Bar", "barclass": "Bar", "barcode": 1 }, "geometry": { "type": "Point", "coordinates": [ -95.6501677, 29.6451654 ] } },
{ "type": "Feature", "properties": { "name": "Tresslife Weavery and Braid Bar", "barclass": "Bar", "barcode": 1 }, "geometry": { "type": "Point", "coordinates": [ -95.4966224, 29.6358961 ] } },
{ "type": "Feature", "properties": { "name": "Caribena NigthClub", "barclass": "Nightclub", "barcode": 3 }, "geometry": { "type": "Point", "coordinates": [ -95.493637745589979, 29.63681635 ] } },
{ "type": "Feature", "properties": { "name": "Cozy Corner", "barclass": "Pub", "barcode": 2 }, "geometry": { "type": "Point", "coordinates": [ -95.481490999616881, 29.65425865 ] } },
{ "type": "Feature", "properties": { "name": "Emmit's Place", "barclass": "Nightclub", "barcode": 3 }, "geometry": { "type": "Point", "coordinates": [ -95.462928958576214, 29.65721965 ] } },
{ "type": "Feature", "properties": { "name": "La Sierra", "barclass": "Nightclub", "barcode": 3 }, "geometry": { "type": "Point", "coordinates": [ -95.463235, 29.6575683 ] } },
{ "type": "Feature", "properties": { "name": "Drop of the Creator", "barclass": "Bar", "barcode": 1 }, "geometry": { "type": "Point", "coordinates": [ -95.475936327734587, 29.66158315 ] } },
{ "type": "Feature", "properties": { "name": "Hunter's Pub", "barclass": "Pub", "barcode": 2 }, "geometry": { "type": "Point", "coordinates": [ -95.4628198, 29.6661422 ] } },
{ "type": "Feature", "properties": { "name": "Tipsy Tavern", "barclass": "Pub", "barcode": 2 }, "geometry": { "type": "Point", "coordinates": [ -95.463875123970723, 29.6678601 ] } },
{ "type": "Feature", "properties": { "name": "Sammy's Sports Grill", "barclass": "Bar", "barcode": 1 }, "geometry": { "type": "Point", "coordinates": [ -95.752953, 29.6744553 ] } },
{ "type": "Feature", "properties": { "name": "Jumps Bar & Grill", "barclass": "Bar", "barcode": 1 }, "geometry": { "type": "Point", "coordinates": [ -95.6188116, 29.7216836 ] } },
{ "type": "Feature", "properties": { "name": "The Local Bar Katy", "barclass": "Bar", "barcode": 1 }, "geometry": { "type": "Point", "coordinates": [ -95.7619992, 29.7356507 ] } },
{ "type": "Feature", "properties": { "name": "Ashford Pub", "barclass": "Pub", "barcode": 2 }, "geometry": { "type": "Point", "coordinates": [ -95.6247605, 29.7372774 ] } },
{ "type": "Feature", "properties": { "name": "Bar Louie", "barclass": "Bar", "barcode": 1 }, "geometry": { "type": "Point", "coordinates": [ -95.7741469, 29.7398779 ] } },
{ "type": "Feature", "properties": { "name": "World Of Beer", "barclass": "Bar", "barcode": 1 }, "geometry": { "type": "Point", "coordinates": [ -95.7745788, 29.7408257 ] } },
{ "type": "Feature", "properties": { "name": "Baker Street Pub and Grill", "barclass": "Pub", "barcode": 2 }, "geometry": { "type": "Point", "coordinates": [ -95.776041107547798, 29.7420267 ] } },
{ "type": "Feature", "properties": { "name": "Aura", "barclass": "Nightclub", "barcode": 3 }, "geometry": { "type": "Point", "coordinates": [ -95.6452329, 29.7430166 ] } },
{ "type": "Feature", "properties": { "name": "Little Woodrow's in Bellaire", "barclass": "Bar", "barcode": 1 }, "geometry": { "type": "Point", "coordinates": [ -95.4470177, 29.70558315 ] } },
{ "type": "Feature", "properties": { "name": "9PM Music Venue", "barclass": "Nightclub", "barcode": 3 }, "geometry": { "type": "Point", "coordinates": [ -95.5300125, 29.7281891 ] } },
{ "type": "Feature", "properties": { "name": "The Hideaway", "barclass": "Bar", "barcode": 1 }, "geometry": { "type": "Point", "coordinates": [ -95.514447659226192, 29.7300575 ] } },
{ "type": "Feature", "properties": { "name": "The Richmond Arms Pub", "barclass": "Pub", "barcode": 2 }, "geometry": { "type": "Point", "coordinates": [ -95.483305959877853, 29.7318795 ] } },
{ "type": "Feature", "properties": { "name": "The Concert Pub", "barclass": "Bar", "barcode": 1 }, "geometry": { "type": "Point", "coordinates": [ -95.4781733, 29.7321233 ] } },
{ "type": "Feature", "properties": { "name": "Prospect Park", "barclass": "Pub", "barcode": 2 }, "geometry": { "type": "Point", "coordinates": [ -95.484639221451971, 29.73272075 ] } },
{ "type": "Feature", "properties": { "name": "Kapri Ultra Lounge", "barclass": "Nightclub", "barcode": 3 }, "geometry": { "type": "Point", "coordinates": [ -95.479779805190873, 29.7335431 ] } },
{ "type": "Feature", "properties": { "name": "Spotlight Karaoke", "barclass": "Nightclub", "barcode": 3 }, "geometry": { "type": "Point", "coordinates": [ -95.4854283, 29.7369205 ] } },
{ "type": "Feature", "properties": { "name": "Slick Willies Family Pool Hall", "barclass": "Bar", "barcode": 1 }, "geometry": { "type": "Point", "coordinates": [ -95.48574045, 29.7373954 ] } },
{ "type": "Feature", "properties": { "name": "Molly’s Pub", "barclass": "Pub", "barcode": 2 }, "geometry": { "type": "Point", "coordinates": [ -95.5729607, 29.737622 ] } },
{ "type": "Feature", "properties": { "name": "King's Head Pub", "barclass": "Pub", "barcode": 2 }, "geometry": { "type": "Point", "coordinates": [ -95.6244819, 29.7491465 ] } },
{ "type": "Feature", "properties": { "name": "Big John's Ice House", "barclass": "Bar", "barcode": 1 }, "geometry": { "type": "Point", "coordinates": [ -95.6080887, 29.7544441 ] } },
{ "type": "Feature", "properties": { "name": "EinStein's Pub", "barclass": "Bar", "barcode": 1 }, "geometry": { "type": "Point", "coordinates": [ -95.7509176, 29.7700724 ] } },
{ "type": "Feature", "properties": { "name": "The Cellar Door", "barclass": "Bar", "barcode": 1 }, "geometry": { "type": "Point", "coordinates": [ -95.7499239, 29.7703052 ] } },
{ "type": "Feature", "properties": { "name": "The Bar Next Door", "barclass": "Bar", "barcode": 1 }, "geometry": { "type": "Point", "coordinates": [ -95.609315725156137, 29.7705453 ] } },
{ "type": "Feature", "properties": { "name": "Bourbon Street Sports Bar", "barclass": "Bar", "barcode": 1 }, "geometry": { "type": "Point", "coordinates": [ -95.7508466, 29.7712947 ] } },
{ "type": "Feature", "properties": { "name": "Mo's Place", "barclass": "Bar", "barcode": 1 }, "geometry": { "type": "Point", "coordinates": [ -95.753318213716923, 29.7755521 ] } },
{ "type": "Feature", "properties": { "name": "Watson's House of Ales", "barclass": "Pub", "barcode": 2 }, "geometry": { "type": "Point", "coordinates": [ -95.643492905680461, 29.78276415 ] } },
{ "type": "Feature", "properties": { "name": "Ducky McShweeney's", "barclass": "Bar", "barcode": 1 }, "geometry": { "type": "Point", "coordinates": [ -95.4600718, 29.7451366 ] } },
{ "type": "Feature", "properties": { "name": "The Railyard", "barclass": "Pub", "barcode": 2 }, "geometry": { "type": "Point", "coordinates": [ -95.4490264, 29.7470866 ] } },
{ "type": "Feature", "properties": { "name": "Ron's Pub and White Horse Inn", "barclass": "Pub", "barcode": 2 }, "geometry": { "type": "Point", "coordinates": [ -95.4864675, 29.7486253 ] } },
{ "type": "Feature", "properties": { "name": "Postino Uptown Park", "barclass": "Bar", "barcode": 1 }, "geometry": { "type": "Point", "coordinates": [ -95.4572648, 29.7543327 ] } },
{ "type": "Feature", "properties": { "name": "Vine Wine Room", "barclass": "Bar", "barcode": 1 }, "geometry": { "type": "Point", "coordinates": [ -95.5498403, 29.766815 ] } },
{ "type": "Feature", "properties": { "name": "The Rouxpour", "barclass": "Bar", "barcode": 1 }, "geometry": { "type": "Point", "coordinates": [ -95.5425165, 29.7811628 ] } },
{ "type": "Feature", "properties": { "name": "Sidebar", "barclass": "Bar", "barcode": 1 }, "geometry": { "type": "Point", "coordinates": [ -95.5329691, 29.7829605 ] } },
{ "type": "Feature", "properties": { "name": "Burlap Barrel", "barclass": "Bar", "barcode": 1 }, "geometry": { "type": "Point", "coordinates": [ -95.5614606, 29.7833518 ] } },
{ "type": "Feature", "properties": { "name": "Hugh O’Connors", "barclass": "Pub", "barcode": 2 }, "geometry": { "type": "Point", "coordinates": [ -95.4647005, 29.7859263 ] } },
{ "type": "Feature", "properties": { "name": "Kirby Ice House", "barclass": "Bar", "barcode": 1 }, "geometry": { "type": "Point", "coordinates": [ -95.545604422724239, 29.78678395 ] } },
{ "type": "Feature", "properties": { "name": "Woody's Hideaway", "barclass": "Bar", "barcode": 1 }, "geometry": { "type": "Point", "coordinates": [ -95.5897304, 29.7829486 ] } },
{ "type": "Feature", "properties": { "name": "Little Woodrow's", "barclass": "Bar", "barcode": 1 }, "geometry": { "type": "Point", "coordinates": [ -95.7581046, 29.7843876 ] } },
{ "type": "Feature", "properties": { "name": "Kings Lounge", "barclass": "Bar", "barcode": 1 }, "geometry": { "type": "Point", "coordinates": [ -95.7344779, 29.7869062 ] } },
{ "type": "Feature", "properties": { "name": "Brewskis Pub & Patio", "barclass": "Bar", "barcode": 1 }, "geometry": { "type": "Point", "coordinates": [ -95.7341036, 29.78751 ] } },
{ "type": "Feature", "properties": { "name": "Giau Bar n Bites", "barclass": "Pub", "barcode": 2 }, "geometry": { "type": "Point", "coordinates": [ -95.7709377, 29.7884532 ] } },
{ "type": "Feature", "properties": { "name": "HT Billiard & Bar", "barclass": "Bar", "barcode": 1 }, "geometry": { "type": "Point", "coordinates": [ -95.6878276, 29.8114406 ] } },
{ "type": "Feature", "properties": { "name": "El Patron Sports Bar", "barclass": "Bar", "barcode": 1 }, "geometry": { "type": "Point", "coordinates": [ -95.65999555, 29.8312979 ] } },
{ "type": "Feature", "properties": { "name": "Wild Oats", "barclass": "Bar", "barcode": 1 }, "geometry": { "type": "Point", "coordinates": [ -95.5396369, 29.7922015 ] } },
{ "type": "Feature", "properties": { "name": "Powder Keg", "barclass": "Bar", "barcode": 1 }, "geometry": { "type": "Point", "coordinates": [ -95.5688087, 29.79457675 ] } },
{ "type": "Feature", "properties": { "name": "The Library", "barclass": "Bar", "barcode": 1 }, "geometry": { "type": "Point", "coordinates": [ -95.4975315, 29.8033085 ] } },
{ "type": "Feature", "properties": { "name": "1810 Ojeman", "barclass": "Bar", "barcode": 1 }, "geometry": { "type": "Point", "coordinates": [ -95.5021119, 29.8035673 ] } },
{ "type": "Feature", "properties": { "name": "Viviana's", "barclass": "Nightclub", "barcode": 3 }, "geometry": { "type": "Point", "coordinates": [ -95.4579451, 29.8070682 ] } },
{ "type": "Feature", "properties": { "name": "Cobble & Spoke", "barclass": "Bar", "barcode": 1 }, "geometry": { "type": "Point", "coordinates": [ -95.5236769, 29.807485 ] } },
{ "type": "Feature", "properties": { "name": "La Farra Bar & Cantina", "barclass": "Bar", "barcode": 1 }, "geometry": { "type": "Point", "coordinates": [ -95.4757248, 29.808991 ] } },
{ "type": "Feature", "properties": { "name": "TA's Cargo Club", "barclass": "Nightclub", "barcode": 3 }, "geometry": { "type": "Point", "coordinates": [ -95.4588964, 29.8213485 ] } },
{ "type": "Feature", "properties": { "name": "NJ's", "barclass": "Bar", "barcode": 1 }, "geometry": { "type": "Point", "coordinates": [ -95.4627442, 29.82446 ] } },
{ "type": "Feature", "properties": { "name": "Pachanga Billar", "barclass": "Bar", "barcode": 1 }, "geometry": { "type": "Point", "coordinates": [ -95.4741757, 29.8395033 ] } },
{ "type": "Feature", "properties": { "name": "Outlaw Country", "barclass": "Bar", "barcode": 1 }, "geometry": { "type": "Point", "coordinates": [ -95.6828343, 29.8498813 ] } },
{ "type": "Feature", "properties": { "name": "Uncle Albert's", "barclass": "Pub", "barcode": 2 }, "geometry": { "type": "Point", "coordinates": [ -95.6827913, 29.8623207 ] } },
{ "type": "Feature", "properties": { "name": "Casey's Sports Bar", "barclass": "Bar", "barcode": 1 }, "geometry": { "type": "Point", "coordinates": [ -95.6821932, 29.865711 ] } },
{ "type": "Feature", "properties": { "name": "Tobin's Sports Bar", "barclass": "Bar", "barcode": 1 }, "geometry": { "type": "Point", "coordinates": [ -95.6406484, 29.8802066 ] } },
{ "type": "Feature", "properties": { "name": "Blue Rooster Irish Pub & Grill", "barclass": "Pub", "barcode": 2 }, "geometry": { "type": "Point", "coordinates": [ -95.6152287, 29.9140001 ] } },
{ "type": "Feature", "properties": { "name": "Clicks", "barclass": "Pub", "barcode": 2 }, "geometry": { "type": "Point", "coordinates": [ -95.506385063922778, 29.85078965 ] } },
{ "type": "Feature", "properties": { "name": "Net Rong", "barclass": "Bar", "barcode": 1 }, "geometry": { "type": "Point", "coordinates": [ -95.4758627, 29.8895487 ] } },
{ "type": "Feature", "properties": { "name": "Daquiris To Go", "barclass": "Bar", "barcode": 1 }, "geometry": { "type": "Point", "coordinates": [ -95.4800186, 29.8916203 ] } },
{ "type": "Feature", "properties": { "name": "Micheladas La Barra", "barclass": "Bar", "barcode": 1 }, "geometry": { "type": "Point", "coordinates": [ -95.4809721, 29.9201982 ] } },
{ "type": "Feature", "properties": { "name": "Sports Bar M1", "barclass": "Bar", "barcode": 1 }, "geometry": { "type": "Point", "coordinates": [ -95.4573364, 29.933012 ] } },
{ "type": "Feature", "properties": { "name": "Whiskey River", "barclass": "Nightclub", "barcode": 3 }, "geometry": { "type": "Point", "coordinates": [ -95.5445742, 29.9620343 ] } },
{ "type": "Feature", "properties": { "name": "Acadia Bar & Grill", "barclass": "Bar", "barcode": 1 }, "geometry": { "type": "Point", "coordinates": [ -95.4876616, 29.9923102 ] } },
{ "type": "Feature", "properties": { "name": "Darkhorse Tavern", "barclass": "Bar", "barcode": 1 }, "geometry": { "type": "Point", "coordinates": [ -95.3808572, 29.7680065 ] } },
{ "type": "Feature", "properties": { "name": "Spring Street Beer and Wine Garden", "barclass": "Biergarten", "barcode": 4 }, "geometry": { "type": "Point", "coordinates": [ -95.37210664322501, 29.77492505 ] } },
{ "type": "Feature", "properties": { "name": "White Oak Social", "barclass": "Bar", "barcode": 1 }, "geometry": { "type": "Point", "coordinates": [ -95.3689061, 29.7865317 ] } },
{ "type": "Feature", "properties": { "name": "H-Town Brewing Company", "barclass": "Pub", "barcode": 2 }, "geometry": { "type": "Point", "coordinates": [ -95.366110822564323, 29.78726735 ] } },
{ "type": "Feature", "properties": { "name": null, "barclass": "Bar", "barcode": 1 }, "geometry": { "type": "Point", "coordinates": [ -95.37662965664498, 29.79326485 ] } },
{ "type": "Feature", "properties": { "name": "Santo's Lounge", "barclass": "Bar", "barcode": 1 }, "geometry": { "type": "Point", "coordinates": [ -95.368234186602649, 29.8017145 ] } },
{ "type": "Feature", "properties": { "name": "D & T Drive Inn", "barclass": "Bar", "barcode": 1 }, "geometry": { "type": "Point", "coordinates": [ -95.375852505796445, 29.8034255 ] } },
{ "type": "Feature", "properties": { "name": "Space Cowboy", "barclass": "Bar", "barcode": 1 }, "geometry": { "type": "Point", "coordinates": [ -95.3744329, 29.8042351 ] } },
{ "type": "Feature", "properties": { "name": "Big Owl Draft Brew House", "barclass": "Bar", "barcode": 1 }, "geometry": { "type": "Point", "coordinates": [ -95.3815652, 29.8043828 ] } },
{ "type": "Feature", "properties": { "name": "Meo Bar", "barclass": "Bar", "barcode": 1 }, "geometry": { "type": "Point", "coordinates": [ -95.3814634, 29.8046408 ] } },
{ "type": "Feature", "properties": { "name": "Sirenita", "barclass": "Bar", "barcode": 1 }, "geometry": { "type": "Point", "coordinates": [ -95.25445, 29.6846202 ] } },
{ "type": "Feature", "properties": { "name": "Brewingz", "barclass": "Bar", "barcode": 1 }, "geometry": { "type": "Point", "coordinates": [ -95.3130999, 29.7128482 ] } },
{ "type": "Feature", "properties": { "name": "El Portal Disco", "barclass": "Nightclub", "barcode": 3 }, "geometry": { "type": "Point", "coordinates": [ -95.297900275152244, 29.71656555 ] } },
{ "type": "Feature", "properties": { "name": "Stephanie's Ice House", "barclass": "Bar", "barcode": 1 }, "geometry": { "type": "Point", "coordinates": [ -95.320246561157177, 29.7270311 ] } },
{ "type": "Feature", "properties": { "name": "Bohemeo's", "barclass": "Bar", "barcode": 1 }, "geometry": { "type": "Point", "coordinates": [ -95.3314933, 29.7345771 ] } },
{ "type": "Feature", "properties": { "name": "The Spot", "barclass": "Bar", "barcode": 1 }, "geometry": { "type": "Point", "coordinates": [ -95.303527592697776, 29.73582725 ] } },
{ "type": "Feature", "properties": { "name": "Bar 88", "barclass": "Bar", "barcode": 1 }, "geometry": { "type": "Point", "coordinates": [ -95.2168222, 29.9353464 ] } },
{ "type": "Feature", "properties": { "name": "Gristworkz", "barclass": "Pub", "barcode": 2 }, "geometry": { "type": "Point", "coordinates": [ -95.353540408607586, 29.7747804 ] } },
{ "type": "Feature", "properties": { "name": "Trash Panda Drinking Club", "barclass": "Bar", "barcode": 1 }, "geometry": { "type": "Point", "coordinates": [ -95.3630375, 29.7984195 ] } },
{ "type": "Feature", "properties": { "name": "Selina's Night Club", "barclass": "Nightclub", "barcode": 3 }, "geometry": { "type": "Point", "coordinates": [ -95.34231457418224, 29.83837535 ] } },
{ "type": "Feature", "properties": { "name": "Club 4800", "barclass": "Bar", "barcode": 1 }, "geometry": { "type": "Point", "coordinates": [ -95.341969997003417, 29.8507775 ] } },
{ "type": "Feature", "properties": { "name": "Beerhive", "barclass": "Bar", "barcode": 1 }, "geometry": { "type": "Point", "coordinates": [ -95.3354113, 29.9854404 ] } },
{ "type": "Feature", "properties": { "name": "Barcüterie", "barclass": "Bar", "barcode": 1 }, "geometry": { "type": "Point", "coordinates": [ -95.3461522, 29.9856543 ] } },
{ "type": "Feature", "properties": { "name": "United Club", "barclass": "Bar", "barcode": 1 }, "geometry": { "type": "Point", "coordinates": [ -95.3388532, 29.9856607 ] } },
{ "type": "Feature", "properties": { "name": "Alchemy Cocktail Lounge", "barclass": "Bar", "barcode": 1 }, "geometry": { "type": "Point", "coordinates": [ -95.3381173, 29.98579 ] } },
{ "type": "Feature", "properties": { "name": "3rd Bar Eating House", "barclass": "Pub", "barcode": 2 }, "geometry": { "type": "Point", "coordinates": [ -95.3458236, 29.9859761 ] } },
{ "type": "Feature", "properties": { "name": "1886 Humble Backyard", "barclass": "Bar", "barcode": 1 }, "geometry": { "type": "Point", "coordinates": [ -95.283291376355606, 29.9420271 ] } },
{ "type": "Feature", "properties": { "name": "Hoot County Saloon", "barclass": "Bar", "barcode": 1 }, "geometry": { "type": "Point", "coordinates": [ -95.3329743, 29.9443139 ] } },
{ "type": "Feature", "properties": { "name": "Mojo's Sports Grille", "barclass": "Pub", "barcode": 2 }, "geometry": { "type": "Point", "coordinates": [ -95.162249046529567, 29.9840563 ] } },
{ "type": "Feature", "properties": { "name": "Beerhive", "barclass": "Bar", "barcode": 1 }, "geometry": { "type": "Point", "coordinates": [ -95.3325435, 29.9856418 ] } },
{ "type": "Feature", "properties": { "name": "United Club", "barclass": "Bar", "barcode": 1 }, "geometry": { "type": "Point", "coordinates": [ -95.3336182, 29.9856431 ] } },
{ "type": "Feature", "properties": { "name": "United Polaris Lounge", "barclass": "Bar", "barcode": 1 }, "geometry": { "type": "Point", "coordinates": [ -95.3335031, 29.9856524 ] } },
{ "type": "Feature", "properties": { "name": "Bayou City Bar", "barclass": "Bar", "barcode": 1 }, "geometry": { "type": "Point", "coordinates": [ -95.3322802, 29.987739 ] } },
{ "type": "Feature", "properties": { "name": "On The Rox", "barclass": "Bar", "barcode": 1 }, "geometry": { "type": "Point", "coordinates": [ -95.1704387, 29.9967763 ] } },
{ "type": "Feature", "properties": { "name": "Timeout Tavern", "barclass": "Pub", "barcode": 2 }, "geometry": { "type": "Point", "coordinates": [ -95.1602861, 29.9976702 ] } },
{ "type": "Feature", "properties": { "name": "Olio Panini Bar", "barclass": "Bar", "barcode": 1 }, "geometry": { "type": "Point", "coordinates": [ -95.3425932, 29.987765 ] } },
{ "type": "Feature", "properties": { "name": "United Club", "barclass": "Bar", "barcode": 1 }, "geometry": { "type": "Point", "coordinates": [ -95.3388766, 29.9877905 ] } },
{ "type": "Feature", "properties": { "name": "The Rusty Nail", "barclass": "Bar", "barcode": 1 }, "geometry": { "type": "Point", "coordinates": [ -95.203825, 29.9995768 ] } },
{ "type": "Feature", "properties": { "name": "Cowboy Surfer Kingwood", "barclass": "Bar", "barcode": 1 }, "geometry": { "type": "Point", "coordinates": [ -95.2471801, 30.0614964 ] } },
{ "type": "Feature", "properties": { "name": "Ladybird's", "barclass": "Bar", "barcode": 1 }, "geometry": { "type": "Point", "coordinates": [ -95.418347141974891, 29.7746884 ] } },
{ "type": "Feature", "properties": { "name": "Down The Street", "barclass": "Bar", "barcode": 1 }, "geometry": { "type": "Point", "coordinates": [ -95.4260876, 29.7792999 ] } },
{ "type": "Feature", "properties": { "name": "Patterson Park", "barclass": "Bar", "barcode": 1 }, "geometry": { "type": "Point", "coordinates": [ -95.4064536, 29.7793092 ] } },
{ "type": "Feature", "properties": { "name": "Elder Son Brewing Co.", "barclass": "Bar", "barcode": 1 }, "geometry": { "type": "Point", "coordinates": [ -95.4094638, 29.7883336 ] } },
{ "type": "Feature", "properties": { "name": "I Know The Owner", "barclass": "Bar", "barcode": 1 }, "geometry": { "type": "Point", "coordinates": [ -95.4091867, 29.7902546 ] } },
{ "type": "Feature", "properties": { "name": "Heights Bier Garten", "barclass": "Biergarten", "barcode": 4 }, "geometry": { "type": "Point", "coordinates": [ -95.4103536, 29.7974416 ] } },
{ "type": "Feature", "properties": { "name": "The Kid", "barclass": "Bar", "barcode": 1 }, "geometry": { "type": "Point", "coordinates": [ -95.412632058220112, 29.80236415 ] } },
{ "type": "Feature", "properties": { "name": "T-Bones Sports Pub", "barclass": "Pub", "barcode": 2 }, "geometry": { "type": "Point", "coordinates": [ -95.4321307, 29.8025165 ] } },
{ "type": "Feature", "properties": { "name": "Shady Acres Saloon", "barclass": "Bar", "barcode": 1 }, "geometry": { "type": "Point", "coordinates": [ -95.41874674180329, 29.8028815 ] } },
{ "type": "Feature", "properties": { "name": "Big Star Bar", "barclass": "Bar", "barcode": 1 }, "geometry": { "type": "Point", "coordinates": [ -95.416290935328519, 29.80299 ] } },
{ "type": "Feature", "properties": { "name": "McIntyre's", "barclass": "Bar", "barcode": 1 }, "geometry": { "type": "Point", "coordinates": [ -95.421737900000011, 29.80306245 ] } },
{ "type": "Feature", "properties": { "name": "Cedar Creek", "barclass": "Bar", "barcode": 1 }, "geometry": { "type": "Point", "coordinates": [ -95.417638975967989, 29.803511 ] } },
{ "type": "Feature", "properties": { "name": "Tokyo Joe's Shot Bar", "barclass": "Bar", "barcode": 1 }, "geometry": { "type": "Point", "coordinates": [ -95.4181897, 29.8040375 ] } },
{ "type": "Feature", "properties": { "name": "Providence", "barclass": "Bar", "barcode": 1 }, "geometry": { "type": "Point", "coordinates": [ -95.4228699, 29.8042469 ] } },
{ "type": "Feature", "properties": { "name": "The Rabbit Hole", "barclass": "Bar", "barcode": 1 }, "geometry": { "type": "Point", "coordinates": [ -95.4119474, 29.8086102 ] } },
{ "type": "Feature", "properties": { "name": "Tikila's", "barclass": "Bar", "barcode": 1 }, "geometry": { "type": "Point", "coordinates": [ -95.4100574, 29.8112845 ] } },
{ "type": "Feature", "properties": { "name": "Cottonwood", "barclass": "Bar", "barcode": 1 }, "geometry": { "type": "Point", "coordinates": [ -95.410046420494183, 29.8182906 ] } },
{ "type": "Feature", "properties": { "name": "Catty Corner Ice House", "barclass": "Bar", "barcode": 1 }, "geometry": { "type": "Point", "coordinates": [ -95.419975220802769, 29.8212898 ] } },
{ "type": "Feature", "properties": { "name": "Farmboy Brew Shop", "barclass": "Bar", "barcode": 1 }, "geometry": { "type": "Point", "coordinates": [ -95.4097466, 29.8215703 ] } },
{ "type": "Feature", "properties": { "name": "Plonk Beer & Wine Bistro", "barclass": "Pub", "barcode": 2 }, "geometry": { "type": "Point", "coordinates": [ -95.4311693, 29.8291689 ] } },
{ "type": "Feature", "properties": { "name": "Grace Pizza and Shakes", "barclass": "Bar", "barcode": 1 }, "geometry": { "type": "Point", "coordinates": [ -95.387952738386829, 29.78544305 ] } },
{ "type": "Feature", "properties": { "name": "The Shiloh Club", "barclass": "Bar", "barcode": 1 }, "geometry": { "type": "Point", "coordinates": [ -95.388171004286534, 29.7951262 ] } },
{ "type": "Feature", "properties": { "name": "Heights & Co", "barclass": "Pub", "barcode": 2 }, "geometry": { "type": "Point", "coordinates": [ -95.399258949999989, 29.79603935 ] } },
{ "type": "Feature", "properties": { "name": "The Deuce", "barclass": "Pub", "barcode": 2 }, "geometry": { "type": "Point", "coordinates": [ -95.398965928149579, 29.80818075 ] } },
{ "type": "Feature", "properties": { "name": "Dan Electro's Guitar Bar", "barclass": "Bar", "barcode": 1 }, "geometry": { "type": "Point", "coordinates": [ -95.385731, 29.808576 ] } },
{ "type": "Feature", "properties": { "name": "Lei Low Rum & Tiki Bar", "barclass": "Bar", "barcode": 1 }, "geometry": { "type": "Point", "coordinates": [ -95.3893143, 29.8088112 ] } },
{ "type": "Feature", "properties": { "name": "The Post", "barclass": "Biergarten", "barcode": 4 }, "geometry": { "type": "Point", "coordinates": [ -95.3900935, 29.80883 ] } },
{ "type": "Feature", "properties": { "name": "Club Fuego", "barclass": "Nightclub", "barcode": 3 }, "geometry": { "type": "Point", "coordinates": [ -95.38277555, 29.8368286 ] } },
{ "type": "Feature", "properties": { "name": "Latino's Sports Bar", "barclass": "Bar", "barcode": 1 }, "geometry": { "type": "Point", "coordinates": [ -95.3849537, 29.8554488 ] } },
{ "type": "Feature", "properties": { "name": "La Malquerida Bar", "barclass": "Bar", "barcode": 1 }, "geometry": { "type": "Point", "coordinates": [ -95.384412747311814, 29.8562855 ] } },
{ "type": "Feature", "properties": { "name": "Re:Hab Bar on the Bayou", "barclass": "Bar", "barcode": 1 }, "geometry": { "type": "Point", "coordinates": [ -95.375285505650766, 29.80760105 ] } },
{ "type": "Feature", "properties": { "name": "Monkey's Tail", "barclass": "Bar", "barcode": 1 }, "geometry": { "type": "Point", "coordinates": [ -95.3695505, 29.8118163 ] } },
{ "type": "Feature", "properties": { "name": "Gagootz", "barclass": "Bar", "barcode": 1 }, "geometry": { "type": "Point", "coordinates": [ -95.370110951487874, 29.8127763 ] } },
{ "type": "Feature", "properties": { "name": "Ojos Locos", "barclass": "Bar", "barcode": 1 }, "geometry": { "type": "Point", "coordinates": [ -95.38185137182117, 29.83144795 ] } },
{ "type": "Feature", "properties": { "name": "Malas Copas", "barclass": "Bar", "barcode": 1 }, "geometry": { "type": "Point", "coordinates": [ -95.375111679891972, 29.83736655 ] } },
{ "type": "Feature", "properties": { "name": "Bicheta's Sports Bar", "barclass": "Bar", "barcode": 1 }, "geometry": { "type": "Point", "coordinates": [ -95.3817211, 29.8376786 ] } },
{ "type": "Feature", "properties": { "name": "Los Pecadores", "barclass": "Bar", "barcode": 1 }, "geometry": { "type": "Point", "coordinates": [ -95.3751782, 29.8395185 ] } },
{ "type": "Feature", "properties": { "name": "Jesse's Sports Bar", "barclass": "Bar", "barcode": 1 }, "geometry": { "type": "Point", "coordinates": [ -95.372304783534901, 29.85684725 ] } },
{ "type": "Feature", "properties": { "name": "Las Vegas Night Club", "barclass": "Nightclub", "barcode": 3 }, "geometry": { "type": "Point", "coordinates": [ -95.3691153, 29.88258 ] } },
{ "type": "Feature", "properties": { "name": "Bogies", "barclass": "Bar", "barcode": 1 }, "geometry": { "type": "Point", "coordinates": [ -95.3801547, 30.0189828 ] } },
{ "type": "Feature", "properties": { "name": "Puro Norte Botanero", "barclass": "Bar", "barcode": 1 }, "geometry": { "type": "Point", "coordinates": [ -95.3981135, 29.8704938 ] } },
{ "type": "Feature", "properties": { "name": "Mr", "barclass": "Pub", "barcode": 2 }, "geometry": { "type": "Point", "coordinates": [ -95.379662, 30.028313 ] } },
{ "type": "Feature", "properties": { "name": "Rincon de Buhos", "barclass": "Bar", "barcode": 1 }, "geometry": { "type": "Point", "coordinates": [ -95.4133042, 29.8977991 ] } },
{ "type": "Feature", "properties": { "name": "Chicas Cabaret", "barclass": "Nightclub", "barcode": 3 }, "geometry": { "type": "Point", "coordinates": [ -95.411798, 29.9083552 ] } },
{ "type": "Feature", "properties": { "name": "Painting with a twist", "barclass": "Bar", "barcode": 1 }, "geometry": { "type": "Point", "coordinates": [ -95.4131832, 29.9252855 ] } },
{ "type": "Feature", "properties": { "name": "Barenas Bar", "barclass": "Bar", "barcode": 1 }, "geometry": { "type": "Point", "coordinates": [ -95.4183238, 29.9501091 ] } },
{ "type": "Feature", "properties": { "name": "Slick Willie's", "barclass": "Bar", "barcode": 1 }, "geometry": { "type": "Point", "coordinates": [ -95.4260222, 29.9895206 ] } },
{ "type": "Feature", "properties": { "name": "Ojos Locos", "barclass": "Bar", "barcode": 1 }, "geometry": { "type": "Point", "coordinates": [ -95.425183931438994, 29.9896585 ] } },
{ "type": "Feature", "properties": { "name": "Two Mules Tavern", "barclass": "Bar", "barcode": 1 }, "geometry": { "type": "Point", "coordinates": [ -95.4343182, 30.0537839 ] } },
{ "type": "Feature", "properties": { "name": "Big Tyme Billiards", "barclass": "Bar", "barcode": 1 }, "geometry": { "type": "Point", "coordinates": [ -95.4349567, 30.0541116 ] } },
{ "type": "Feature", "properties": { "name": "Mo's Irish Pub", "barclass": "Pub", "barcode": 2 }, "geometry": { "type": "Point", "coordinates": [ -95.7161085, 29.9796981 ] } },
{ "type": "Feature", "properties": { "name": "Kilburn's Tavern & Grill", "barclass": "Pub", "barcode": 2 }, "geometry": { "type": "Point", "coordinates": [ -95.6151619, 29.9889442 ] } },
{ "type": "Feature", "properties": { "name": "Masone's", "barclass": "Pub", "barcode": 2 }, "geometry": { "type": "Point", "coordinates": [ -95.6212995, 29.9947292 ] } },
{ "type": "Feature", "properties": { "name": null, "barclass": "Bar", "barcode": 1 }, "geometry": { "type": "Point", "coordinates": [ -95.6250429, 29.9948407 ] } },
{ "type": "Feature", "properties": { "name": "Sportin' Woodys", "barclass": "Bar", "barcode": 1 }, "geometry": { "type": "Point", "coordinates": [ -95.6089114, 30.0123695 ] } },
{ "type": "Feature", "properties": { "name": "Mo's Irish Pub", "barclass": "Pub", "barcode": 2 }, "geometry": { "type": "Point", "coordinates": [ -95.5710571, 29.9959783 ] } },
{ "type": "Feature", "properties": { "name": "Daiquiris To Go", "barclass": "Bar", "barcode": 1 }, "geometry": { "type": "Point", "coordinates": [ -95.4538239, 30.01283815 ] } },
{ "type": "Feature", "properties": { "name": "The Fountainhead", "barclass": "Bar", "barcode": 1 }, "geometry": { "type": "Point", "coordinates": [ -95.4516381, 30.0149246 ] } },
{ "type": "Feature", "properties": { "name": "Tropical City Daiquiris To-Go", "barclass": "Bar", "barcode": 1 }, "geometry": { "type": "Point", "coordinates": [ -95.5055806, 30.0677548 ] } },
{ "type": "Feature", "properties": { "name": "The One Club", "barclass": "Bar", "barcode": 1 }, "geometry": { "type": "Point", "coordinates": [ -95.5053462, 30.0678842 ] } },
{ "type": "Feature", "properties": { "name": "Thistle Draftshop", "barclass": "Bar", "barcode": 1 }, "geometry": { "type": "Point", "coordinates": [ -95.4992543, 30.0744877 ] } },
{ "type": "Feature", "properties": { "name": "19th Hole Grill & Bar", "barclass": "Bar", "barcode": 1 }, "geometry": { "type": "Point", "coordinates": [ -95.4466407, 30.1280366 ] } },
{ "type": "Feature", "properties": { "name": "Sawyer Park Icehouse", "barclass": "Bar", "barcode": 1 }, "geometry": { "type": "Point", "coordinates": [ -95.445702700273472, 30.11999515 ] } },
{ "type": "Feature", "properties": { "name": "Buffalo Run", "barclass": "Bar", "barcode": 1 }, "geometry": { "type": "Point", "coordinates": [ -95.436372, 30.1262926 ] } }
]
}
