{
"type": "FeatureCollection",
"name": "OPP_bars_detroit",
"crs": { "type": "name", "properties": { "name": "urn:ogc:def:crs:OGC:1.3:CRS84" } },
"features": [
{ "type": "Feature", "properties": { "name": "Black Horse Cantina", "barclass": "Bar", "barcode": 1 }, "geometry": { "type": "Point", "coordinates": [ -83.11248495000001, 42.29301695 ] } },
{ "type": "Feature", "properties": { "name": "Los Compadres", "barclass": "Pub", "barcode": 2 }, "geometry": { "type": "Point", "coordinates": [ -83.1266414, 42.3012848 ] } },
{ "type": "Feature", "properties": { "name": "Charlie's Bar", "barclass": "Bar", "barcode": 1 }, "geometry": { "type": "Point", "coordinates": [ -83.123534650000011, 42.3060031 ] } },
{ "type": "Feature", "properties": { "name": "El Bosque", "barclass": "Nightclub", "barcode": 3 }, "geometry": { "type": "Point", "coordinates": [ -83.110064308373282, 42.30627905 ] } },
{ "type": "Feature", "properties": { "name": "Revolution Lounge", "barclass": "Bar", "barcode": 1 }, "geometry": { "type": "Point", "coordinates": [ -83.124113186369698, 42.3068019 ] } },
{ "type": "Feature", "properties": { "name": "My Town My Spot", "barclass": "Bar", "barcode": 1 }, "geometry": { "type": "Point", "coordinates": [ -83.12508665, 42.30812015 ] } },
{ "type": "Feature", "properties": { "name": "Sidekicks Saloon", "barclass": "Bar", "barcode": 1 }, "geometry": { "type": "Point", "coordinates": [ -83.11525138524442, 42.30900135 ] } },
{ "type": "Feature", "properties": { "name": "Perfect Beat Night Club", "barclass": "Nightclub", "barcode": 3 }, "geometry": { "type": "Point", "coordinates": [ -83.155828000980392, 42.27495375 ] } },
{ "type": "Feature", "properties": { "name": "Discoteca La Rancherita", "barclass": "Nightclub", "barcode": 3 }, "geometry": { "type": "Point", "coordinates": [ -83.1262546, 42.3098051 ] } },
{ "type": "Feature", "properties": { "name": "Sherry's on Vernor", "barclass": "Bar", "barcode": 1 }, "geometry": { "type": "Point", "coordinates": [ -83.123493388955552, 42.3127803 ] } },
{ "type": "Feature", "properties": { "name": "Cantina Mexicana", "barclass": "Bar", "barcode": 1 }, "geometry": { "type": "Point", "coordinates": [ -83.105511299999989, 42.3165163 ] } },
{ "type": "Feature", "properties": { "name": "Casey's Bar", "barclass": "Bar", "barcode": 1 }, "geometry": { "type": "Point", "coordinates": [ -83.1270761724588, 42.31687085 ] } },
{ "type": "Feature", "properties": { "name": "V.L. Bar", "barclass": "Bar", "barcode": 1 }, "geometry": { "type": "Point", "coordinates": [ -83.098272700043424, 42.31953835 ] } },
{ "type": "Feature", "properties": { "name": "El Club", "barclass": "Nightclub", "barcode": 3 }, "geometry": { "type": "Point", "coordinates": [ -83.093634805930577, 42.321397 ] } },
{ "type": "Feature", "properties": { "name": "Blue Diamond Lounge", "barclass": "Bar", "barcode": 1 }, "geometry": { "type": "Point", "coordinates": [ -83.1071635, 42.3215505 ] } },
{ "type": "Feature", "properties": { "name": "El Durango Bar", "barclass": "Bar", "barcode": 1 }, "geometry": { "type": "Point", "coordinates": [ -83.105117378534487, 42.32283045 ] } },
{ "type": "Feature", "properties": { "name": "Giovanna's Lounge", "barclass": "Bar", "barcode": 1 }, "geometry": { "type": "Point", "coordinates": [ -83.08719101324192, 42.32345755 ] } },
{ "type": "Feature", "properties": { "name": "Black Horse Cantina", "barclass": "Bar", "barcode": 1 }, "geometry": { "type": "Point", "coordinates": [ -83.1330419, 42.3249469 ] } },
{ "type": "Feature", "properties": { "name": "Adam's Apple", "barclass": "Bar", "barcode": 1 }, "geometry": { "type": "Point", "coordinates": [ -83.2249343, 42.3431277 ] } },
{ "type": "Feature", "properties": { "name": "Nick's Bar and Grill", "barclass": "Bar", "barcode": 1 }, "geometry": { "type": "Point", "coordinates": [ -83.210016656928047, 42.34326045 ] } },
{ "type": "Feature", "properties": { "name": "Hurry Inn Sports Bar", "barclass": "Bar", "barcode": 1 }, "geometry": { "type": "Point", "coordinates": [ -83.2312015, 42.3433657 ] } },
{ "type": "Feature", "properties": { "name": "Last Call", "barclass": "Bar", "barcode": 1 }, "geometry": { "type": "Point", "coordinates": [ -83.2312753, 42.3433756 ] } },
{ "type": "Feature", "properties": { "name": "Brooksey's Exclusive Lounge", "barclass": "Bar", "barcode": 1 }, "geometry": { "type": "Point", "coordinates": [ -83.1454316, 42.3445967 ] } },
{ "type": "Feature", "properties": { "name": "Donovan's Pub", "barclass": "Pub", "barcode": 2 }, "geometry": { "type": "Point", "coordinates": [ -83.082460632172285, 42.3253532 ] } },
{ "type": "Feature", "properties": { "name": "Our/Detroit Distillery & Tasting Room", "barclass": "Bar", "barcode": 1 }, "geometry": { "type": "Point", "coordinates": [ -83.0775604, 42.325468 ] } },
{ "type": "Feature", "properties": { "name": "Abick’s", "barclass": "Bar", "barcode": 1 }, "geometry": { "type": "Point", "coordinates": [ -83.1188203, 42.3269226 ] } },
{ "type": "Feature", "properties": { "name": "Two James Spirits", "barclass": "Bar", "barcode": 1 }, "geometry": { "type": "Point", "coordinates": [ -83.0794726, 42.3311486 ] } },
{ "type": "Feature", "properties": { "name": "Motor City Wine", "barclass": "Bar", "barcode": 1 }, "geometry": { "type": "Point", "coordinates": [ -83.073034724720884, 42.3311588 ] } },
{ "type": "Feature", "properties": { "name": "Cas Bar", "barclass": "Bar", "barcode": 1 }, "geometry": { "type": "Point", "coordinates": [ -83.1389316, 42.331321 ] } },
{ "type": "Feature", "properties": { "name": "LJ's", "barclass": "Bar", "barcode": 1 }, "geometry": { "type": "Point", "coordinates": [ -83.0754917, 42.3315506 ] } },
{ "type": "Feature", "properties": { "name": "The Sugar House", "barclass": "Bar", "barcode": 1 }, "geometry": { "type": "Point", "coordinates": [ -83.0757759, 42.3315604 ] } },
{ "type": "Feature", "properties": { "name": "Nancy Wiskey", "barclass": "Pub", "barcode": 2 }, "geometry": { "type": "Point", "coordinates": [ -83.072560401498521, 42.3354151 ] } },
{ "type": "Feature", "properties": { "name": "The Blue Bird Inn", "barclass": "Nightclub", "barcode": 3 }, "geometry": { "type": "Point", "coordinates": [ -83.1196944, 42.3527584 ] } },
{ "type": "Feature", "properties": { "name": "Honest John's", "barclass": "Pub", "barcode": 2 }, "geometry": { "type": "Point", "coordinates": [ -83.0639331, 42.3477426 ] } },
{ "type": "Feature", "properties": { "name": "Wet Picnic", "barclass": "Bar", "barcode": 1 }, "geometry": { "type": "Point", "coordinates": [ -83.064823, 42.3485998 ] } },
{ "type": "Feature", "properties": { "name": "Stadt Garden", "barclass": "Biergarten", "barcode": 4 }, "geometry": { "type": "Point", "coordinates": [ -83.0646595, 42.3486874 ] } },
{ "type": "Feature", "properties": { "name": "Old Miami", "barclass": "Pub", "barcode": 2 }, "geometry": { "type": "Point", "coordinates": [ -83.062369319500021, 42.3488907 ] } },
{ "type": "Feature", "properties": { "name": "Motor City Brewing Works", "barclass": "Pub", "barcode": 2 }, "geometry": { "type": "Point", "coordinates": [ -83.066055547406648, 42.3518294 ] } },
{ "type": "Feature", "properties": { "name": "Third Street Saloon", "barclass": "Bar", "barcode": 1 }, "geometry": { "type": "Point", "coordinates": [ -83.069507482274318, 42.352153 ] } },
{ "type": "Feature", "properties": { "name": "Bronx Bar", "barclass": "Bar", "barcode": 1 }, "geometry": { "type": "Point", "coordinates": [ -83.0669201, 42.3522144 ] } },
{ "type": "Feature", "properties": { "name": "HopCat", "barclass": "Bar", "barcode": 1 }, "geometry": { "type": "Point", "coordinates": [ -83.0616009, 42.3524547 ] } },
{ "type": "Feature", "properties": { "name": "Jolly Old Timers", "barclass": "Bar", "barcode": 1 }, "geometry": { "type": "Point", "coordinates": [ -83.0684185, 42.3526129 ] } },
{ "type": "Feature", "properties": { "name": "Common Pub", "barclass": "Bar", "barcode": 1 }, "geometry": { "type": "Point", "coordinates": [ -83.0686453, 42.3598979 ] } },
{ "type": "Feature", "properties": { "name": "Hayloft Saloon", "barclass": "Bar", "barcode": 1 }, "geometry": { "type": "Point", "coordinates": [ -83.1963959, 42.3520712 ] } },
{ "type": "Feature", "properties": { "name": "Park Joy Bar", "barclass": "Bar", "barcode": 1 }, "geometry": { "type": "Point", "coordinates": [ -83.2656451, 42.3573099 ] } },
{ "type": "Feature", "properties": { "name": "Time Out Sports Bar & Grille", "barclass": "Bar", "barcode": 1 }, "geometry": { "type": "Point", "coordinates": [ -83.2109526, 42.3721684 ] } },
{ "type": "Feature", "properties": { "name": "Starter's Bar and Grill", "barclass": "Bar", "barcode": 1 }, "geometry": { "type": "Point", "coordinates": [ -83.2212704, 42.3723825 ] } },
{ "type": "Feature", "properties": { "name": "Vickie's Bar & Grill", "barclass": "Bar", "barcode": 1 }, "geometry": { "type": "Point", "coordinates": [ -83.229927627452867, 42.3861848 ] } },
{ "type": "Feature", "properties": { "name": "Sky Bar & Grill", "barclass": "Bar", "barcode": 1 }, "geometry": { "type": "Point", "coordinates": [ -83.197292, 42.4016752 ] } },
{ "type": "Feature", "properties": { "name": "The Palms", "barclass": "Nightclub", "barcode": 3 }, "geometry": { "type": "Point", "coordinates": [ -83.1966446, 42.401809 ] } },
{ "type": "Feature", "properties": { "name": "Suite 100 Lounge", "barclass": "Bar", "barcode": 1 }, "geometry": { "type": "Point", "coordinates": [ -83.179633, 42.4073598 ] } },
{ "type": "Feature", "properties": { "name": "Miss Eva's Detroit", "barclass": "Bar", "barcode": 1 }, "geometry": { "type": "Point", "coordinates": [ -83.2349501, 42.4076387 ] } },
{ "type": "Feature", "properties": { "name": "Chapeau Vert Lounge", "barclass": "Nightclub", "barcode": 3 }, "geometry": { "type": "Point", "coordinates": [ -83.2764085, 42.4103746 ] } },
{ "type": "Feature", "properties": { "name": "Woodbridge Pub", "barclass": "Pub", "barcode": 2 }, "geometry": { "type": "Point", "coordinates": [ -83.080079522614099, 42.35406985 ] } },
{ "type": "Feature", "properties": { "name": "Louie's Cocktail Lounge", "barclass": "Bar", "barcode": 1 }, "geometry": { "type": "Point", "coordinates": [ -83.116918, 42.3596601 ] } },
{ "type": "Feature", "properties": { "name": "Hero's Bar & Grill", "barclass": "Bar", "barcode": 1 }, "geometry": { "type": "Point", "coordinates": [ -83.1251924, 42.3629753 ] } },
{ "type": "Feature", "properties": { "name": "The Marble Bar", "barclass": "Bar", "barcode": 1 }, "geometry": { "type": "Point", "coordinates": [ -83.085246182132281, 42.3630598 ] } },
{ "type": "Feature", "properties": { "name": "Northern Lights Lounge", "barclass": "Bar", "barcode": 1 }, "geometry": { "type": "Point", "coordinates": [ -83.0767425, 42.3667698 ] } },
{ "type": "Feature", "properties": { "name": "Woodward Cocktail Bar", "barclass": "Bar", "barcode": 1 }, "geometry": { "type": "Point", "coordinates": [ -83.0721279, 42.3689195 ] } },
{ "type": "Feature", "properties": { "name": "Backstreet Multiplex", "barclass": "Nightclub", "barcode": 3 }, "geometry": { "type": "Point", "coordinates": [ -83.1403929, 42.3998917 ] } },
{ "type": "Feature", "properties": { "name": "Menjo's", "barclass": "Bar", "barcode": 1 }, "geometry": { "type": "Point", "coordinates": [ -83.115268303418731, 42.41782875 ] } },
{ "type": "Feature", "properties": { "name": "Olympus Theater", "barclass": "Nightclub", "barcode": 3 }, "geometry": { "type": "Point", "coordinates": [ -83.115640603184119, 42.4178598 ] } },
{ "type": "Feature", "properties": { "name": "Dakota Inn", "barclass": "Pub", "barcode": 2 }, "geometry": { "type": "Point", "coordinates": [ -83.1016525, 42.4198741 ] } },
{ "type": "Feature", "properties": { "name": "Keynote Lounge", "barclass": "Bar", "barcode": 1 }, "geometry": { "type": "Point", "coordinates": [ -83.0700734, 42.4276998 ] } },
{ "type": "Feature", "properties": { "name": "Green Dot Stables", "barclass": "Bar", "barcode": 1 }, "geometry": { "type": "Point", "coordinates": [ -83.0714379, 42.3218922 ] } },
{ "type": "Feature", "properties": { "name": "Batch Brewing", "barclass": "Bar", "barcode": 1 }, "geometry": { "type": "Point", "coordinates": [ -83.0633192, 42.3284895 ] } },
{ "type": "Feature", "properties": { "name": "Red Corridor", "barclass": "Bar", "barcode": 1 }, "geometry": { "type": "Point", "coordinates": [ -83.0710091, 42.3315691 ] } },
{ "type": "Feature", "properties": { "name": "Bobcat Bonnies", "barclass": "Pub", "barcode": 2 }, "geometry": { "type": "Point", "coordinates": [ -83.0708588, 42.3315704 ] } },
{ "type": "Feature", "properties": { "name": "Corktown Tavern", "barclass": "Bar", "barcode": 1 }, "geometry": { "type": "Point", "coordinates": [ -83.0699217, 42.3315771 ] } },
{ "type": "Feature", "properties": { "name": "PJ's Lager House", "barclass": "Bar", "barcode": 1 }, "geometry": { "type": "Point", "coordinates": [ -83.0633057, 42.331654 ] } },
{ "type": "Feature", "properties": { "name": "McShane's Irish Pub", "barclass": "Pub", "barcode": 2 }, "geometry": { "type": "Point", "coordinates": [ -83.066721035584123, 42.331686 ] } },
{ "type": "Feature", "properties": { "name": "UFO Factory", "barclass": "Bar", "barcode": 1 }, "geometry": { "type": "Point", "coordinates": [ -83.0670925, 42.3321371 ] } },
{ "type": "Feature", "properties": { "name": "Detroit Rolling Pub", "barclass": "Pub", "barcode": 2 }, "geometry": { "type": "Point", "coordinates": [ -83.0556258, 42.336861 ] } },
{ "type": "Feature", "properties": { "name": "TV Lounge", "barclass": "Nightclub", "barcode": 3 }, "geometry": { "type": "Point", "coordinates": [ -83.0625727, 42.3380785 ] } },
{ "type": "Feature", "properties": { "name": "Cobo Joe's Bar & Grill", "barclass": "Pub", "barcode": 2 }, "geometry": { "type": "Point", "coordinates": [ -83.0505945, 42.3282683 ] } },
{ "type": "Feature", "properties": { "name": "Ciccarelli's Sports Bar", "barclass": "Bar", "barcode": 1 }, "geometry": { "type": "Point", "coordinates": [ -83.0503039, 42.3283746 ] } },
{ "type": "Feature", "properties": { "name": "Anchor Bar", "barclass": "Bar", "barcode": 1 }, "geometry": { "type": "Point", "coordinates": [ -83.0518078, 42.3290254 ] } },
{ "type": "Feature", "properties": { "name": "Trust Cocktails, Shareables, Nightlife", "barclass": "Nightclub", "barcode": 3 }, "geometry": { "type": "Point", "coordinates": [ -83.0481376, 42.3290466 ] } },
{ "type": "Feature", "properties": { "name": "Shelby", "barclass": "Bar", "barcode": 1 }, "geometry": { "type": "Point", "coordinates": [ -83.0483278, 42.3293445 ] } },
{ "type": "Feature", "properties": { "name": "Round Bar", "barclass": "Bar", "barcode": 1 }, "geometry": { "type": "Point", "coordinates": [ -83.0527275, 42.3293817 ] } },
{ "type": "Feature", "properties": { "name": "Buhl Bar", "barclass": "Bar", "barcode": 1 }, "geometry": { "type": "Point", "coordinates": [ -83.0467806, 42.3296337 ] } },
{ "type": "Feature", "properties": { "name": "Mike's Bar & Grill", "barclass": "Bar", "barcode": 1 }, "geometry": { "type": "Point", "coordinates": [ -83.0477046, 42.3307576 ] } },
{ "type": "Feature", "properties": { "name": "Kamper's", "barclass": "Pub", "barcode": 2 }, "geometry": { "type": "Point", "coordinates": [ -83.0514302, 42.3330114 ] } },
{ "type": "Feature", "properties": { "name": "Bad Luck Bar", "barclass": "Bar", "barcode": 1 }, "geometry": { "type": "Point", "coordinates": [ -83.0488563, 42.3331295 ] } },
{ "type": "Feature", "properties": { "name": "Fuell Restaurant and Lounge", "barclass": "Pub", "barcode": 2 }, "geometry": { "type": "Point", "coordinates": [ -83.040118, 42.3288109 ] } },
{ "type": "Feature", "properties": { "name": "Upstairs Bar", "barclass": "Bar", "barcode": 1 }, "geometry": { "type": "Point", "coordinates": [ -83.0459364122555, 42.32977785 ] } },
{ "type": "Feature", "properties": { "name": "The Whisky Parlor", "barclass": "Bar", "barcode": 1 }, "geometry": { "type": "Point", "coordinates": [ -83.0456041, 42.3305346 ] } },
{ "type": "Feature", "properties": { "name": "Foran's Grand Trunk", "barclass": "Pub", "barcode": 2 }, "geometry": { "type": "Point", "coordinates": [ -83.0456322, 42.3305819 ] } },
{ "type": "Feature", "properties": { "name": "Sloppy Crab", "barclass": "Bar", "barcode": 1 }, "geometry": { "type": "Point", "coordinates": [ -83.0396517, 42.3311706 ] } },
{ "type": "Feature", "properties": { "name": "The Checker Cab", "barclass": "Bar", "barcode": 1 }, "geometry": { "type": "Point", "coordinates": [ -83.0440368, 42.3312638 ] } },
{ "type": "Feature", "properties": { "name": "Legends", "barclass": "Nightclub", "barcode": 3 }, "geometry": { "type": "Point", "coordinates": [ -83.0417426, 42.3320902 ] } },
{ "type": "Feature", "properties": { "name": "Jacoby's", "barclass": "Pub", "barcode": 2 }, "geometry": { "type": "Point", "coordinates": [ -83.0421135, 42.3322829 ] } },
{ "type": "Feature", "properties": { "name": "Bouzouki Lounge", "barclass": "Bar", "barcode": 1 }, "geometry": { "type": "Point", "coordinates": [ -83.0424664, 42.3337402 ] } },
{ "type": "Feature", "properties": { "name": "Delux Bar & Grill", "barclass": "Bar", "barcode": 1 }, "geometry": { "type": "Point", "coordinates": [ -83.0441295, 42.3340886 ] } },
{ "type": "Feature", "properties": { "name": "Sakazuki", "barclass": "Pub", "barcode": 2 }, "geometry": { "type": "Point", "coordinates": [ -83.0514003, 42.3332878 ] } },
{ "type": "Feature", "properties": { "name": "Bar Rotunda", "barclass": "Pub", "barcode": 2 }, "geometry": { "type": "Point", "coordinates": [ -83.0514612, 42.3335092 ] } },
{ "type": "Feature", "properties": { "name": "Leland City Club", "barclass": "Nightclub", "barcode": 3 }, "geometry": { "type": "Point", "coordinates": [ -83.0547069, 42.3335436 ] } },
{ "type": "Feature", "properties": { "name": "SPKRBOX", "barclass": "Bar", "barcode": 1 }, "geometry": { "type": "Point", "coordinates": [ -83.0498884, 42.3337737 ] } },
{ "type": "Feature", "properties": { "name": "Cafe D'Mongo's Speakeasy", "barclass": "Bar", "barcode": 1 }, "geometry": { "type": "Point", "coordinates": [ -83.0500724, 42.334261 ] } },
{ "type": "Feature", "properties": { "name": "Evening Bar", "barclass": "Bar", "barcode": 1 }, "geometry": { "type": "Point", "coordinates": [ -83.04836, 42.334455 ] } },
{ "type": "Feature", "properties": { "name": "Queens", "barclass": "Bar", "barcode": 1 }, "geometry": { "type": "Point", "coordinates": [ -83.0479306, 42.33457 ] } },
{ "type": "Feature", "properties": { "name": "The Skip", "barclass": "Bar", "barcode": 1 }, "geometry": { "type": "Point", "coordinates": [ -83.0468767, 42.3346881 ] } },
{ "type": "Feature", "properties": { "name": "The Brakeman", "barclass": "Bar", "barcode": 1 }, "geometry": { "type": "Point", "coordinates": [ -83.0485986, 42.3350619 ] } },
{ "type": "Feature", "properties": { "name": "The Lone Goat", "barclass": "Pub", "barcode": 2 }, "geometry": { "type": "Point", "coordinates": [ -83.0488371, 42.3353229 ] } },
{ "type": "Feature", "properties": { "name": "Bleu", "barclass": "Nightclub", "barcode": 3 }, "geometry": { "type": "Point", "coordinates": [ -83.0495898, 42.3356086 ] } },
{ "type": "Feature", "properties": { "name": "Gilly's", "barclass": "Pub", "barcode": 2 }, "geometry": { "type": "Point", "coordinates": [ -83.049539936562724, 42.3357699 ] } },
{ "type": "Feature", "properties": { "name": "Detroit Sports Bar & Grill", "barclass": "Bar", "barcode": 1 }, "geometry": { "type": "Point", "coordinates": [ -83.049804, 42.3359406 ] } },
{ "type": "Feature", "properties": { "name": "Royce", "barclass": "Bar", "barcode": 1 }, "geometry": { "type": "Point", "coordinates": [ -83.0522304, 42.3365317 ] } },
{ "type": "Feature", "properties": { "name": "Cliff Bell's", "barclass": "Nightclub", "barcode": 3 }, "geometry": { "type": "Point", "coordinates": [ -83.0527092, 42.3368154 ] } },
{ "type": "Feature", "properties": { "name": "Bookies Bar & Grille", "barclass": "Bar", "barcode": 1 }, "geometry": { "type": "Point", "coordinates": [ -83.0554943, 42.3368492 ] } },
{ "type": "Feature", "properties": { "name": "The Park Bar", "barclass": "Bar", "barcode": 1 }, "geometry": { "type": "Point", "coordinates": [ -83.0527457, 42.3369217 ] } },
{ "type": "Feature", "properties": { "name": "Town Pump Tavern", "barclass": "Bar", "barcode": 1 }, "geometry": { "type": "Point", "coordinates": [ -83.0539945, 42.3380282 ] } },
{ "type": "Feature", "properties": { "name": "Hockeytown Cafe", "barclass": "Bar", "barcode": 1 }, "geometry": { "type": "Point", "coordinates": [ -83.0525791, 42.3389852 ] } },
{ "type": "Feature", "properties": { "name": "VIA Sports Bar", "barclass": "Bar", "barcode": 1 }, "geometry": { "type": "Point", "coordinates": [ -83.0548616, 42.3403485 ] } },
{ "type": "Feature", "properties": { "name": "Flood's Bar and Grill", "barclass": "Bar", "barcode": 1 }, "geometry": { "type": "Point", "coordinates": [ -83.0402883, 42.3343493 ] } },
{ "type": "Feature", "properties": { "name": "The Well", "barclass": "Pub", "barcode": 2 }, "geometry": { "type": "Point", "coordinates": [ -83.0448029, 42.3344736 ] } },
{ "type": "Feature", "properties": { "name": "The Old Shillelagh", "barclass": "Pub", "barcode": 2 }, "geometry": { "type": "Point", "coordinates": [ -83.043927, 42.3344977 ] } },
{ "type": "Feature", "properties": { "name": "Baltimore Bar & Grill", "barclass": "Pub", "barcode": 2 }, "geometry": { "type": "Point", "coordinates": [ -83.0448476, 42.3345467 ] } },
{ "type": "Feature", "properties": { "name": "Exodus Rooftop Lounge", "barclass": "Bar", "barcode": 1 }, "geometry": { "type": "Point", "coordinates": [ -83.0420858, 42.3352365 ] } },
{ "type": "Feature", "properties": { "name": "Andrew's on the Corner", "barclass": "Bar", "barcode": 1 }, "geometry": { "type": "Point", "coordinates": [ -83.0179148, 42.33648 ] } },
{ "type": "Feature", "properties": { "name": "Gameday Detroit", "barclass": "Bar", "barcode": 1 }, "geometry": { "type": "Point", "coordinates": [ -83.0450172, 42.3365307 ] } },
{ "type": "Feature", "properties": { "name": "Thomas Magee's Sporting House", "barclass": "Bar", "barcode": 1 }, "geometry": { "type": "Point", "coordinates": [ -83.0391104, 42.3447789 ] } },
{ "type": "Feature", "properties": { "name": "Vivio's", "barclass": "Bar", "barcode": 1 }, "geometry": { "type": "Point", "coordinates": [ -83.0388196, 42.3460519 ] } },
{ "type": "Feature", "properties": { "name": "Lagerhaus No. 5", "barclass": "Pub", "barcode": 2 }, "geometry": { "type": "Point", "coordinates": [ -83.0385258, 42.3474439 ] } },
{ "type": "Feature", "properties": { "name": "Harry's", "barclass": "Bar", "barcode": 1 }, "geometry": { "type": "Point", "coordinates": [ -83.0563825, 42.3392628 ] } },
{ "type": "Feature", "properties": { "name": "Budweiser Biergarten", "barclass": "Bar", "barcode": 1 }, "geometry": { "type": "Point", "coordinates": [ -83.0560352, 42.340692 ] } },
{ "type": "Feature", "properties": { "name": "Michelob Ultra", "barclass": "Bar", "barcode": 1 }, "geometry": { "type": "Point", "coordinates": [ -83.0557205, 42.3409034 ] } },
{ "type": "Feature", "properties": { "name": "Jameson", "barclass": "Bar", "barcode": 1 }, "geometry": { "type": "Point", "coordinates": [ -83.0557127, 42.3409064 ] } },
{ "type": "Feature", "properties": { "name": "Atwater Brewery", "barclass": "Bar", "barcode": 1 }, "geometry": { "type": "Point", "coordinates": [ -83.0559461, 42.3414866 ] } },
{ "type": "Feature", "properties": { "name": "Jack Daniel's", "barclass": "Bar", "barcode": 1 }, "geometry": { "type": "Point", "coordinates": [ -83.0558506, 42.3415441 ] } },
{ "type": "Feature", "properties": { "name": "Temple Bar", "barclass": "Bar", "barcode": 1 }, "geometry": { "type": "Point", "coordinates": [ -83.0584296, 42.3421668 ] } },
{ "type": "Feature", "properties": { "name": "Meantime", "barclass": "Pub", "barcode": 2 }, "geometry": { "type": "Point", "coordinates": [ -83.060304, 42.3445451 ] } },
{ "type": "Feature", "properties": { "name": "Jumbo's", "barclass": "Bar", "barcode": 1 }, "geometry": { "type": "Point", "coordinates": [ -83.0659891, 42.3461274 ] } },
{ "type": "Feature", "properties": { "name": "The Eagle", "barclass": "Pub", "barcode": 2 }, "geometry": { "type": "Point", "coordinates": [ -83.0574142, 42.346264 ] } },
{ "type": "Feature", "properties": { "name": "Brewery Faisan", "barclass": "Pub", "barcode": 2 }, "geometry": { "type": "Point", "coordinates": [ -83.0105638, 42.3489831 ] } },
{ "type": "Feature", "properties": { "name": "Dequindre Cut Freightyard", "barclass": "Biergarten", "barcode": 4 }, "geometry": { "type": "Point", "coordinates": [ -83.0371783, 42.349535 ] } },
{ "type": "Feature", "properties": { "name": "Spot Lite", "barclass": "Bar", "barcode": 1 }, "geometry": { "type": "Point", "coordinates": [ -83.0166257, 42.358116 ] } },
{ "type": "Feature", "properties": { "name": "Gabriel Hall", "barclass": "Bar", "barcode": 1 }, "geometry": { "type": "Point", "coordinates": [ -82.9996531, 42.3583078 ] } },
{ "type": "Feature", "properties": { "name": "Two Birds", "barclass": "Bar", "barcode": 1 }, "geometry": { "type": "Point", "coordinates": [ -82.9980928, 42.3589298 ] } },
{ "type": "Feature", "properties": { "name": "Zell's Corner", "barclass": "Bar", "barcode": 1 }, "geometry": { "type": "Point", "coordinates": [ -83.0049829, 42.3619452 ] } },
{ "type": "Feature", "properties": { "name": "Collect Beer Bar", "barclass": "Bar", "barcode": 1 }, "geometry": { "type": "Point", "coordinates": [ -82.9876781, 42.3634915 ] } },
{ "type": "Feature", "properties": { "name": "Elbow Lounge", "barclass": "Bar", "barcode": 1 }, "geometry": { "type": "Point", "coordinates": [ -83.01119195, 42.3648467 ] } },
{ "type": "Feature", "properties": { "name": "Raven Lounge", "barclass": "Bar", "barcode": 1 }, "geometry": { "type": "Point", "coordinates": [ -83.041958102736558, 42.3669278 ] } },
{ "type": "Feature", "properties": { "name": "Marshall's Bar", "barclass": "Bar", "barcode": 1 }, "geometry": { "type": "Point", "coordinates": [ -82.940762752186146, 42.3740941 ] } },
{ "type": "Feature", "properties": { "name": "Bell's Taphouse", "barclass": "Bar", "barcode": 1 }, "geometry": { "type": "Point", "coordinates": [ -83.0542126, 42.3404953 ] } },
{ "type": "Feature", "properties": { "name": "Samuel Adams", "barclass": "Bar", "barcode": 1 }, "geometry": { "type": "Point", "coordinates": [ -83.0547716, 42.3405572 ] } },
{ "type": "Feature", "properties": { "name": "Mixing Board", "barclass": "Bar", "barcode": 1 }, "geometry": { "type": "Point", "coordinates": [ -83.0541932, 42.3412653 ] } },
{ "type": "Feature", "properties": { "name": "Labatt Blue Zone", "barclass": "Bar", "barcode": 1 }, "geometry": { "type": "Point", "coordinates": [ -83.0546535, 42.3412775 ] } },
{ "type": "Feature", "properties": { "name": "Tito's", "barclass": "Bar", "barcode": 1 }, "geometry": { "type": "Point", "coordinates": [ -83.0555661, 42.3415982 ] } },
{ "type": "Feature", "properties": { "name": "J.P. Wiser's", "barclass": "Bar", "barcode": 1 }, "geometry": { "type": "Point", "coordinates": [ -83.0553073, 42.3417618 ] } },
{ "type": "Feature", "properties": { "name": "Brush Street Bar & Grille", "barclass": "Bar", "barcode": 1 }, "geometry": { "type": "Point", "coordinates": [ -83.048756667669181, 42.34241835 ] } },
{ "type": "Feature", "properties": { "name": "Second Best", "barclass": "Pub", "barcode": 2 }, "geometry": { "type": "Point", "coordinates": [ -83.0553741, 42.3450365 ] } },
{ "type": "Feature", "properties": { "name": "Tony V's", "barclass": "Bar", "barcode": 1 }, "geometry": { "type": "Point", "coordinates": [ -83.0699954, 42.3622377 ] } },
{ "type": "Feature", "properties": { "name": "Kiesling", "barclass": "Bar", "barcode": 1 }, "geometry": { "type": "Point", "coordinates": [ -83.0669216, 42.3713506 ] } },
{ "type": "Feature", "properties": { "name": "Apex Bar", "barclass": "Bar", "barcode": 1 }, "geometry": { "type": "Point", "coordinates": [ -83.0662966, 42.3762868 ] } },
{ "type": "Feature", "properties": { "name": "Outer Limits Lounge", "barclass": "Bar", "barcode": 1 }, "geometry": { "type": "Point", "coordinates": [ -83.047085104040747, 42.40470485 ] } },
{ "type": "Feature", "properties": { "name": "Turnaround Bar", "barclass": "Bar", "barcode": 1 }, "geometry": { "type": "Point", "coordinates": [ -82.9456311, 42.379743 ] } },
{ "type": "Feature", "properties": { "name": "Ye Olde Tap Room", "barclass": "Bar", "barcode": 1 }, "geometry": { "type": "Point", "coordinates": [ -82.9455943, 42.3848505 ] } },
{ "type": "Feature", "properties": { "name": "D's NUGS", "barclass": "Bar", "barcode": 1 }, "geometry": { "type": "Point", "coordinates": [ -83.0230393, 42.4134756 ] } },
{ "type": "Feature", "properties": { "name": "Two Way Inn", "barclass": "Bar", "barcode": 1 }, "geometry": { "type": "Point", "coordinates": [ -83.0388574, 42.4262561 ] } },
{ "type": "Feature", "properties": { "name": "Escape Lounge", "barclass": "Bar", "barcode": 1 }, "geometry": { "type": "Point", "coordinates": [ -83.0339945, 42.4373205 ] } },
{ "type": "Feature", "properties": { "name": "Detroit Blues Cafe", "barclass": "Pub", "barcode": 2 }, "geometry": { "type": "Point", "coordinates": [ -82.9764761, 42.4376648 ] } },
{ "type": "Feature", "properties": { "name": "Polo's Anti Social Club", "barclass": "Nightclub", "barcode": 3 }, "geometry": { "type": "Point", "coordinates": [ -82.9758751, 42.4383054 ] } },
{ "type": "Feature", "properties": { "name": "Good Times", "barclass": "Bar", "barcode": 1 }, "geometry": { "type": "Point", "coordinates": [ -83.1412583, 42.4355714 ] } },
{ "type": "Feature", "properties": { "name": "The Stonehouse", "barclass": "Pub", "barcode": 2 }, "geometry": { "type": "Point", "coordinates": [ -83.1172849, 42.438468 ] } }
]
}
