{"type":"FeatureCollection","features":[{"type":"Feature","id":1,"geometry":{"type":"Polygon","coordinates":[[[-82.916248967555845,42.421349220969162],[-82.91734014836257,42.421782255456918],[-82.917912482970564,42.422012803423925],[-82.918562234307032,42.422276304961805],[-82.919808065646805,42.422784047082295],[-82.920857742300939,42.42321793312631],[-82.921816240570863,42.423613202774611],[-82.92278959402168,42.424016678475752],[-82.923733905715011,42.42440617409649],[-82.924672710307732,42.424794109051803],[-82.92561929317192,42.425187939246307],[-82.926532508250801,42.425566978016271],[-82.927071498116817,42.425789187991214],[-82.927226712711374,42.425873373862217],[-82.927415614992782,42.425975829769037],[-82.927576499223335,42.426063088843385],[-82.927798430102825,42.426183457963205],[-82.927927705686486,42.426253573141103],[-82.929910852384211,42.427065271273797],[-82.932115580648798,42.42796842241939],[-82.934263353417478,42.42884568994679],[-82.937303045999656,42.430090254234841],[-82.940336662134186,42.431329345799561],[-82.943533036814259,42.432637475210704],[-82.945656104524218,42.433503227451624],[-82.947775479845234,42.434373668525879],[-82.949814534934006,42.43520804054166],[-82.950800095605487,42.43561301634054],[-82.951277604721923,42.435809228941487],[-82.95092505889528,42.436273096030696],[-82.951523785828655,42.436297498924532],[-82.95122857948833,42.436691449617093],[-82.950820086748834,42.437232281767393],[-82.950769015721036,42.437299900927023],[-82.950706850482121,42.437382324862881],[-82.950186494833659,42.438069587430626],[-82.949672040124142,42.438756524758709],[-82.949468196026345,42.439028702738987],[-82.949109179821477,42.439506580488057],[-82.948888358212713,42.439798172991672],[-82.948774916800943,42.439938124272004],[-82.948477958418451,42.440311424537086],[-82.948078156385066,42.440844796418197],[-82.947761128490654,42.441266288524851],[-82.947449488171841,42.441680462162722],[-82.947402061711671,42.441755866148441],[-82.947332436970513,42.441861246641871],[-82.947044107331877,42.442244556496078],[-82.946574971872153,42.442869259697744],[-82.946274511868666,42.443272315585631],[-82.946047792724016,42.443576075471029],[-82.945745430030399,42.44398225745261],[-82.945274072933245,42.444607379303825],[-82.944684672625229,42.445397059034512],[-82.943964961208735,42.446350514120027],[-82.943693458027795,42.446713856535396],[-82.943299035826414,42.447241160377544],[-82.94314282387252,42.447450001152319],[-82.943128099055031,42.44746795205711],[-82.942983243745161,42.447656752815917],[-82.942597248739006,42.448170245468404],[-82.942510615086704,42.448279731467302],[-82.942221057239465,42.448607729978526],[-82.941905876963247,42.448943963450773],[-82.941818317492434,42.449037371797814],[-82.940661985072424,42.450224194501303],[-82.940532933355058,42.450373348856445],[-82.94105695193791,42.45037057424075],[-82.942926963702973,42.450338083416817],[-82.943767038742095,42.450344772349247],[-82.945928703912415,42.450374937353558],[-82.951242644929806,42.450300205283177],[-82.95266303265241,42.450274098252777],[-82.955407409154091,42.450231142851898],[-82.956128916929444,42.45021322257697],[-82.956527794284298,42.450204954285432],[-82.957633348265702,42.450181823263051],[-82.958564149408886,42.450162339694515],[-82.961030901903044,42.450118675122233],[-82.96359477585149,42.450075584059952],[-82.964553867368409,42.450061931154281],[-82.967732879684675,42.450000163329172],[-82.96990432236511,42.449871095149419],[-82.970842190647986,42.449807726326945],[-82.975184232263004,42.449690018228488],[-82.975760005132628,42.449676437888314],[-82.977768035126829,42.449623930911628],[-82.980691066935563,42.449549166963635],[-82.98338040923791,42.449486906471492],[-82.985582699738387,42.449429800092602],[-82.987815916178235,42.449375693612886],[-82.990471176375522,42.449318220109674],[-82.992207024236393,42.449276773616575],[-82.992879468273642,42.449261164274183],[-82.995361060310756,42.449238376322924],[-82.99779053108422,42.449183830081139],[-83.000534197012357,42.449111872356632],[-83.002517957448532,42.449042134860079],[-83.004847696360301,42.44896404042148],[-83.005300551714129,42.448950582777314],[-83.006105775697606,42.448917751571287],[-83.006946452998577,42.448891647576865],[-83.007415833892338,42.448876669168349],[-83.009268314072727,42.448766432401712],[-83.012593073217829,42.448651907786747],[-83.014965609220042,42.448570125323172],[-83.016833089815492,42.448529871942618],[-83.017461008379072,42.448513900574433],[-83.021409520281367,42.448387700566705],[-83.021797524383487,42.44837900860778],[-83.022476633618908,42.448370510331863],[-83.023531138244834,42.448339284402635],[-83.024671982938244,42.448309516532511],[-83.025875316176695,42.448281958163548],[-83.026754052605583,42.448254450472426],[-83.027412265093943,42.448245636960053],[-83.028326233645046,42.448210685664961],[-83.032067554689519,42.448134854529577],[-83.032528397529092,42.448131626289566],[-83.034442959565069,42.448084336630657],[-83.036618365765605,42.448088817716055],[-83.036970511722046,42.448081596944107],[-83.039345113423053,42.448038232894994],[-83.042055843055195,42.4479632081094],[-83.043884795524733,42.447920123918422],[-83.044214339888697,42.447913174173983],[-83.046177106762826,42.447843998677158],[-83.048560645010227,42.447792315000228],[-83.051810282981378,42.447701370234867],[-83.052188172601021,42.447694406213692],[-83.053333254152008,42.447673297639305],[-83.053985322796223,42.447662520603558],[-83.059786155632139,42.447508212740637],[-83.061914000883206,42.44746030892356],[-83.063810430597059,42.44741222863923],[-83.065698852582457,42.447388527352771],[-83.066842660141461,42.447380370816539],[-83.069962929003651,42.447348601846159],[-83.072937928795497,42.44730602559418],[-83.073541392942062,42.447303473019581],[-83.076576351616154,42.447251456426827],[-83.080857154820393,42.447216989796097],[-83.083113175465371,42.44716795354109],[-83.083307334123418,42.447020514917369],[-83.083545900369359,42.447150745841398],[-83.084517995882024,42.447136834974039],[-83.085827137034883,42.447112579513494],[-83.086256085446692,42.447103290253658],[-83.090190365880858,42.446997058846485],[-83.093026973850542,42.44689718534925],[-83.09427587329175,42.446873629355018],[-83.09461720015149,42.446865507783016],[-83.094849362830956,42.446862410568443],[-83.095239978464079,42.446852156719679],[-83.095899954711768,42.446839829253065],[-83.097361174992102,42.446820470275775],[-83.099019910306694,42.446916543065534],[-83.099554933273197,42.446965318667871],[-83.100228843011521,42.447012037685305],[-83.101658726814094,42.447101279419925],[-83.102796310968031,42.447139817606974],[-83.105316380655168,42.447082096079157],[-83.109396028724589,42.446972472194425],[-83.109571692457934,42.446957398580338],[-83.111677668024143,42.446829043207366],[-83.112290206436924,42.44680858018323],[-83.112599298104044,42.44679825262471],[-83.112673904119163,42.446795055181092],[-83.117412534554688,42.446719678512196],[-83.120501820715248,42.446670432887451],[-83.122158326690752,42.446646112733539],[-83.12257349247588,42.446637896353131],[-83.124629477110005,42.446578589813896],[-83.124818591930548,42.446570146924849],[-83.124994498263462,42.446568256983788],[-83.125248894735762,42.446563031456563],[-83.12765681299868,42.446490618477938],[-83.133038714348842,42.446395618016552],[-83.136484420304399,42.446345964548598],[-83.138007204122673,42.446313824283813],[-83.138787492876716,42.44629734652635],[-83.139196822149501,42.446288700628429],[-83.139823260948191,42.446275466445172],[-83.141981269069433,42.44622984996704],[-83.144802213168859,42.446166923577458],[-83.145743561612193,42.446145910906459],[-83.146911705584998,42.446119824180563],[-83.149236547461911,42.446067868406871],[-83.151903092570791,42.446007607413783],[-83.152084774212724,42.446004152627772],[-83.153508680219829,42.445972272963836],[-83.15534204216334,42.44593119860189],[-83.155937717513481,42.445917847093497],[-83.156498350598312,42.445905299744425],[-83.158169552183665,42.445867876952988],[-83.158634394540428,42.445857464777632],[-83.159143864759699,42.445852648557718],[-83.161432199005034,42.44579454476964],[-83.1636597415865,42.445754070861177],[-83.165785579227276,42.445707525341419],[-83.166831506970198,42.44568461090001],[-83.168820104791251,42.445609335080519],[-83.17118350777892,42.445546033899198],[-83.17341783770901,42.445498408217837],[-83.175533513377729,42.445454341933853],[-83.17860331704199,42.445391606918086],[-83.180927017219872,42.445343448243989],[-83.183068033738323,42.445308921101393],[-83.185793315725064,42.445245189107624],[-83.190719594470309,42.44514736471362],[-83.19313398993971,42.445096641396553],[-83.196559100406745,42.445046062025042],[-83.198213684580963,42.444981349949202],[-83.199849685237467,42.444889583667312],[-83.200444914995344,42.444839724719479],[-83.200884866695517,42.444810041373096],[-83.201593691553569,42.444789664334081],[-83.202572153595241,42.444769411861955],[-83.202982918480984,42.444759357612426],[-83.203302406210511,42.444752673723251],[-83.203553536625904,42.444747318089036],[-83.203930656299733,42.44473778776171],[-83.20482048977415,42.444717352312402],[-83.20581770390838,42.444691017140954],[-83.207733214611579,42.444639044496348],[-83.210680205584353,42.444556012030233],[-83.210765592007803,42.444554989415821],[-83.211299424795001,42.444541226563295],[-83.213708443348267,42.444492854007841],[-83.216663315776742,42.444414340310544],[-83.219206382868606,42.444359447401588],[-83.219554337235792,42.444350994263104],[-83.219725948284861,42.444348265703113],[-83.22006796047539,42.444339674879373],[-83.222434746705716,42.444288109750225],[-83.225543988098408,42.44422029455535],[-83.22596405610345,42.444211125313835],[-83.233240111870188,42.444052067742028],[-83.237294737692366,42.443963228759536],[-83.239338823951471,42.443918387043659],[-83.241374003913236,42.443864599375381],[-83.244203220880792,42.443789763744888],[-83.24673008931839,42.443719377470202],[-83.249103274990333,42.443659987022755],[-83.250288653284116,42.443628562776496],[-83.256331074963441,42.443468175350198],[-83.258781681624527,42.443403036815717],[-83.260974515870529,42.44334535919198],[-83.265199955014324,42.443238911195415],[-83.268391678752096,42.443158401801043],[-83.269865745801127,42.443121188274709],[-83.278185001572197,42.44286911227487],[-83.278436743905075,42.442865523543311],[-83.281323311861726,42.442805966084833],[-83.285097570458561,42.442735130387106],[-83.287726471157669,42.442684634342591],[-83.287715632399497,42.442613501634774],[-83.287692060979296,42.442524321662709],[-83.287637459851496,42.442104002616446],[-83.287591794430099,42.439499515635561],[-83.287585280702686,42.439313888394913],[-83.287534899595386,42.437722834970074],[-83.287530716278027,42.437600428961048],[-83.287471614114907,42.435883003656635],[-83.287447792623354,42.43488242174719],[-83.287368204336389,42.432240349974215],[-83.287277130655966,42.429123219130886],[-83.287277066339925,42.429120782670189],[-83.287263429485563,42.428609977712476],[-83.287261391159689,42.428554408644182],[-83.287249144238842,42.428220524483876],[-83.287191843728564,42.426882665431727],[-83.287147291998011,42.425700061224461],[-83.287117342905191,42.425057185071395],[-83.287038778979095,42.423249042200972],[-83.286963151725942,42.421439847770721],[-83.286848366609604,42.419092311072681],[-83.286731965343606,42.416627890063559],[-83.286638975046685,42.414720839409803],[-83.286636810144344,42.414671542267925],[-83.286618408178683,42.414252452613006],[-83.286524706176252,42.411755294142225],[-83.286436366808857,42.409425925433403],[-83.286437967438729,42.409319516736133],[-83.286384071523258,42.4070011883924],[-83.284842394018909,42.407047836725383],[-83.283412622495646,42.407104349156612],[-83.282817908038922,42.407125509131184],[-83.282766462202474,42.407127564305107],[-83.282159911024252,42.407151790672309],[-83.281949520987212,42.40715773788309],[-83.281873158983927,42.407160719333085],[-83.28149215462183,42.407175596269177],[-83.281338115153176,42.407181610815144],[-83.280622373678753,42.407196830944635],[-83.279933372201356,42.407211400158545],[-83.279292984440929,42.407232015171239],[-83.278619436858833,42.407252127052985],[-83.277953287051076,42.407266003869942],[-83.277051580306946,42.40727878761956],[-83.276602188985393,42.407279009269423],[-83.275861445356156,42.407281861940945],[-83.275799423576217,42.405408003049764],[-83.275732241240448,42.403709048564266],[-83.275707971881388,42.401776935844701],[-83.275645344503914,42.400096603091349],[-83.275594141465106,42.398168584032518],[-83.275478664024362,42.395191392022156],[-83.275371580334919,42.392459165853118],[-83.275352813661385,42.39198606378185],[-83.275281597127801,42.390190905385566],[-83.275222423691218,42.388699260288959],[-83.275151428087653,42.385837640975076],[-83.275128962153445,42.385469276220761],[-83.27512279702637,42.385265166019934],[-83.275108771108833,42.384894804657264],[-83.27510645310295,42.384870317262283],[-83.275054871248287,42.383378559767721],[-83.274976338577972,42.380928835654686],[-83.27494209499659,42.379918001892875],[-83.274912540518713,42.378595098628878],[-83.268377217792064,42.37874508340024],[-83.266583484252948,42.378786184731482],[-83.266582498249932,42.378739001448167],[-83.26657968805587,42.378604529630891],[-83.266514958915835,42.374450707106142],[-83.26639879836803,42.371734558182837],[-83.266388269347289,42.371488369884318],[-83.266314802631499,42.369093138330548],[-83.266229003661024,42.366721745774086],[-83.266129588819567,42.364259164152287],[-83.266111316023,42.363650834597706],[-83.266093983834395,42.363073883839242],[-83.265978768771689,42.36227449086941],[-83.265968426980834,42.358893814503787],[-83.265907991609083,42.357046940264759],[-83.265576417240496,42.357056278528184],[-83.265413699193019,42.3550713646787],[-83.265255290387643,42.35354013051883],[-83.265065203583177,42.351730469028681],[-83.264784889844677,42.348931046827992],[-83.264532666154963,42.346301329360628],[-83.264336635596806,42.34437749367298],[-83.264262957340151,42.343572777618441],[-83.264266328903858,42.343429455689012],[-83.264274317126635,42.343089882819747],[-83.264170549846511,42.342795835968168],[-83.26402833707381,42.342586180465354],[-83.263949727609031,42.342335992804166],[-83.263853632038618,42.342096277139447],[-83.263860600729487,42.341938190812222],[-83.263842312451189,42.341693170225319],[-83.263248070090739,42.341711783641735],[-83.263106900740411,42.341714656966985],[-83.262386856047357,42.341734033635397],[-83.262158753916509,42.341730193666031],[-83.260907138510873,42.341700718950115],[-83.260737642104317,42.341697716477931],[-83.259690824915154,42.341706328531437],[-83.258434963750418,42.34173256159287],[-83.257505231370729,42.341756578965388],[-83.257209259680991,42.341764224189397],[-83.255998382746441,42.341797839466324],[-83.255277209433274,42.341818476021267],[-83.255038519924611,42.341825304472302],[-83.254778140924685,42.341832692435851],[-83.254630612373859,42.34183794169725],[-83.253759553613762,42.341874404134956],[-83.253544245962019,42.341894246343195],[-83.252801850230526,42.341962698430606],[-83.252333284939823,42.342008652241582],[-83.252088023029657,42.342034472879028],[-83.251872799129714,42.342058255599206],[-83.24894661534934,42.342380549590288],[-83.248788101555618,42.342398023801486],[-83.248603202564553,42.342418407340347],[-83.244422540967406,42.342881086572312],[-83.244201442120328,42.342897575547575],[-83.243641381140264,42.342950160127906],[-83.243196241050839,42.342981499200199],[-83.243132060166218,42.342984109835818],[-83.242997009466848,42.342989360150042],[-83.242855218341504,42.342993976751792],[-83.242426076274612,42.343006104452506],[-83.241275551265275,42.34302306129733],[-83.240107348982406,42.343044513539098],[-83.239935550671646,42.343047940772898],[-83.238931116794035,42.343066954548362],[-83.237767313108975,42.343086624667201],[-83.23775142750786,42.342650414913741],[-83.237628197693738,42.339449253862163],[-83.237488510618718,42.33573687629098],[-83.237240712557465,42.335743143849683],[-83.236260467090887,42.335786504111056],[-83.235447869486507,42.33580834008395],[-83.23502605908179,42.335834630898582],[-83.23496722387415,42.334270523769462],[-83.234921015282197,42.333043390679798],[-83.234893152092525,42.33272741068086],[-83.234872383242248,42.332266582108105],[-83.234858062179072,42.331991104071534],[-83.234696996221373,42.330882117148541],[-83.234574703499689,42.3298441314518],[-83.232372392094106,42.330858379609772],[-83.231187140001168,42.331323892792504],[-83.230007255692456,42.331791329044769],[-83.228858447973195,42.332221684652787],[-83.227830272337783,42.332599846598931],[-83.227628257272514,42.332377873916137],[-83.226370900692487,42.330578353082871],[-83.225527219276955,42.329369696786578],[-83.22524562614862,42.328941045044722],[-83.225142702094928,42.328805612107011],[-83.225113947529991,42.328802460997238],[-83.224779025818847,42.328813531327626],[-83.223790339185285,42.328835054120944],[-83.222597229547119,42.328861015527089],[-83.221414150092912,42.328886746681938],[-83.220298534678278,42.328911590956935],[-83.215921255973569,42.329006053328492],[-83.215691255931006,42.329011042994829],[-83.215508472497731,42.329015008716375],[-83.215279466817194,42.32901997653294],[-83.215283153701279,42.329105535076771],[-83.215301735533842,42.32976966374823],[-83.21531586412199,42.330332994204262],[-83.215211796701851,42.331699702289434],[-83.215196519131581,42.331995233241649],[-83.215197956839731,42.332213498052781],[-83.215278878189025,42.333061693578813],[-83.215311236613061,42.333348270816664],[-83.215314404885248,42.333585004841652],[-83.21532740239148,42.334729795413452],[-83.215335952646441,42.336136318508601],[-83.215003363150117,42.336140235184118],[-83.21480529911473,42.336134173076346],[-83.2146085395744,42.336116689856091],[-83.214368096314118,42.336079134140988],[-83.214120149162483,42.336020882352059],[-83.213945644527016,42.335961394143546],[-83.213788121398792,42.335895686253863],[-83.213693591765761,42.335849346213344],[-83.213578524289289,42.335784791092706],[-83.213169325770934,42.33604696316965],[-83.213124717775131,42.336063887683657],[-83.212957407437088,42.336127464234714],[-83.212732991365982,42.336174883136422],[-83.212514907782477,42.336194903482657],[-83.21191423202643,42.336212382075296],[-83.21064970016441,42.336244884146623],[-83.210038916317231,42.336257762348353],[-83.209428043685151,42.336268806383629],[-83.208208392527027,42.336289224239444],[-83.207598902013601,42.336297675223811],[-83.206987576929734,42.336306914754026],[-83.205806447537498,42.336317886613372],[-83.204500855535215,42.336319647590273],[-83.203882948520871,42.336323851399435],[-83.203271312279384,42.336330186302995],[-83.202652619325647,42.336344009260266],[-83.202030717765751,42.336354104606897],[-83.200786768012392,42.336369241295223],[-83.199545503353107,42.336389972901216],[-83.198927044438975,42.33639756554043],[-83.198453319189682,42.336401152988259],[-83.198313987975084,42.336408362542095],[-83.19820721059142,42.336413925425454],[-83.197700884177294,42.336421675110323],[-83.197093692580864,42.336427391079894],[-83.196055749579713,42.336435327335394],[-83.196128412551815,42.338200962210372],[-83.196135236004366,42.338365304492086],[-83.196132670417683,42.339434750661198],[-83.196044831621819,42.339683038832291],[-83.196062608186807,42.34005177994532],[-83.196143996572232,42.341951704241502],[-83.196196292804856,42.343227274656201],[-83.196207429312778,42.343488949384742],[-83.196208600100178,42.34366606609003],[-83.196210105601367,42.343890096845229],[-83.196220142941897,42.344099280626089],[-83.19624523035111,42.344619407928285],[-83.196236080993643,42.344880874275447],[-83.196263157224152,42.345456766882059],[-83.196293916742079,42.346049895613909],[-83.196352615059567,42.347276640730108],[-83.196409200118481,42.348421878613756],[-83.196464877240601,42.349596279949651],[-83.196467567958663,42.349654078777],[-83.196507107946587,42.350470985592771],[-83.196529709953353,42.350891155757552],[-83.195938709606949,42.350902699363694],[-83.195428821743562,42.350912844611173],[-83.194372406034375,42.350932099001611],[-83.193312445480714,42.350952568693188],[-83.1922520049132,42.350972663126505],[-83.191208195926805,42.350992739539073],[-83.19020397659817,42.351011776082352],[-83.189177144597139,42.351032640624211],[-83.188024176170231,42.351054255300895],[-83.187421875654294,42.351066297590044],[-83.186831526919121,42.351080001610192],[-83.186687973404304,42.351085569356442],[-83.18560437343811,42.351104100724207],[-83.184399638659372,42.351128561774182],[-83.181993366713996,42.351179318451052],[-83.181855219308147,42.351182233157537],[-83.179513015649263,42.351233211977338],[-83.178300771705111,42.351258985422653],[-83.177710100580228,42.351271875874801],[-83.177104738663459,42.351285081979121],[-83.176528519640698,42.35129758823291],[-83.175944406118163,42.35131036935357],[-83.174837264833783,42.351334403246113],[-83.173679115013584,42.351359601030715],[-83.172521573416446,42.351384791782408],[-83.171289346275572,42.351411617270884],[-83.169920014735069,42.351441393809957],[-83.169621319874324,42.351446166299247],[-83.168424106988681,42.351475850763471],[-83.16731367156909,42.351499529333253],[-83.166215976754458,42.351524997869326],[-83.166043290705787,42.351528842605987],[-83.164946323898448,42.351553517042646],[-83.163837109845772,42.351577421601803],[-83.162010043922066,42.351618368267886],[-83.160849714826711,42.351642691232442],[-83.159693505522682,42.351667407500166],[-83.158584511744451,42.351692163886085],[-83.157999683494921,42.351704939881593],[-83.157446273912072,42.351716415411161],[-83.156259599709273,42.351740771750855],[-83.155083982738233,42.351764423374831],[-83.15390811907146,42.351788238670942],[-83.152555419585255,42.351816904226339],[-83.151556248409861,42.351836913692132],[-83.150551000571639,42.351857119422071],[-83.149544287218617,42.351877841819729],[-83.148539267798057,42.351898842406428],[-83.14765712835343,42.351916346421234],[-83.147612726695314,42.351618644618583],[-83.147604882846011,42.351560874408463],[-83.147596211648249,42.351445696006834],[-83.147587896487877,42.351275985211508],[-83.14757481254577,42.351195075345537],[-83.1475270908428,42.350844312123257],[-83.147513070843175,42.350753878435498],[-83.147466355564035,42.349918500203977],[-83.14758365524726,42.349368628722516],[-83.147634023950062,42.349141906524089],[-83.14787731308347,42.347404463915737],[-83.148300573409017,42.344981771029282],[-83.148351687151532,42.344689195007945],[-83.148475845508614,42.344401353624228],[-83.148716170924118,42.343844192430581],[-83.149431482784664,42.340753929989745],[-83.149675874176012,42.340273883038996],[-83.149941652877516,42.339837787507065],[-83.150214741656782,42.339497383890155],[-83.150817369710353,42.338861412045027],[-83.151106268985089,42.33868637089855],[-83.151457594641528,42.338426082416355],[-83.151808120345322,42.338183136326556],[-83.152228780921675,42.33794196015976],[-83.152599500174873,42.337768980985146],[-83.152958926153246,42.337587032513639],[-83.153600482432608,42.33737747160837],[-83.154344457050385,42.337231264040575],[-83.155742901397147,42.336984002996871],[-83.156407099645264,42.336949948854823],[-83.156901961054984,42.336961329036392],[-83.156774609565389,42.33394341025744],[-83.156657783672699,42.3299253938387],[-83.156636586991567,42.329522514531952],[-83.156607800898797,42.328909943404135],[-83.156601175182729,42.328732046460935],[-83.156594895867883,42.328561265480381],[-83.156566574611318,42.328163521810779],[-83.156551589558077,42.327953091998275],[-83.156515142810392,42.327799243486268],[-83.156478754184121,42.32766932340342],[-83.156471717615005,42.327240463960536],[-83.154925657479453,42.327654757472509],[-83.153129847867461,42.328087912205255],[-83.152863126554522,42.327737040295091],[-83.149373067373034,42.322896380547625],[-83.147056081671963,42.319753674523739],[-83.146924316665547,42.319592476500368],[-83.146887606365837,42.319539026274732],[-83.146834056416211,42.319464802221155],[-83.146501877597316,42.319008447355245],[-83.146240651945959,42.318619999480084],[-83.145955143690344,42.318228844654044],[-83.14414142217079,42.31574385830239],[-83.141687715150979,42.312402295858476],[-83.14070131045527,42.311009189232657],[-83.140608362089338,42.310809266806729],[-83.140602693948949,42.310797075544002],[-83.140509425724019,42.310580252829475],[-83.140476052964914,42.310385692730193],[-83.140454847124957,42.310233325290717],[-83.140405217633344,42.310085474487188],[-83.139728377334507,42.309005511247442],[-83.139658338314035,42.308841434784682],[-83.13963833729548,42.30866292126678],[-83.139695593640852,42.308491601034767],[-83.139795122199558,42.30832135128832],[-83.139962455291112,42.308210411640175],[-83.140344031285906,42.308042075512077],[-83.140527377898493,42.307889655293515],[-83.14064364004463,42.30766224007148],[-83.140675116094911,42.307437909433801],[-83.140602841854459,42.307169067379199],[-83.140504791957781,42.306847216143687],[-83.14060431471313,42.306676966679298],[-83.140728170249616,42.306591101591373],[-83.140886768980877,42.306516588298308],[-83.141100525022992,42.306469648028909],[-83.141277373170283,42.306458422259695],[-83.142154418806768,42.306098446613831],[-83.142314697939725,42.305987325566541],[-83.142398683208427,42.30584809289271],[-83.142420223004279,42.305686338145364],[-83.142414546923035,42.305502951851672],[-83.142358558481078,42.305252341746119],[-83.14216016761101,42.304713939441811],[-83.141873751645534,42.304073547119906],[-83.141849712309394,42.303686381441416],[-83.141572608662372,42.302172474727676],[-83.141340417375773,42.301643971639869],[-83.140690451489078,42.300341412653196],[-83.140445534513077,42.299544489439633],[-83.140323842617676,42.299055259850206],[-83.140449355296369,42.297749295931148],[-83.140620656483364,42.29703714047691],[-83.140850690188799,42.296510548619899],[-83.141196848790415,42.296007448613985],[-83.141484238476338,42.295458039116198],[-83.141606668381201,42.295350464645281],[-83.141768616207358,42.295191241222817],[-83.142238625767064,42.294704036782242],[-83.142557718437303,42.294407278520374],[-83.143092567996121,42.294401544321957],[-83.143246461667587,42.294420798267595],[-83.143381595582895,42.29443337752128],[-83.143580020817083,42.294412223225976],[-83.143694161810586,42.294383700486399],[-83.14383887881695,42.294303594471828],[-83.143928448718128,42.294195917042622],[-83.14396142532874,42.294092040263621],[-83.143940695435475,42.293929215008454],[-83.143918765319071,42.293792536537062],[-83.144393733207551,42.293584667073908],[-83.145258655886963,42.293229278440705],[-83.146141903381704,42.29298493136703],[-83.146292119755145,42.292879934986949],[-83.146628098424799,42.292823117733455],[-83.146872656727908,42.292794299089437],[-83.147024578965372,42.292651240057438],[-83.147238570833636,42.292569627769183],[-83.147389316898682,42.292540046429473],[-83.14757973286531,42.292539625669264],[-83.147762145913447,42.292559944042644],[-83.14790790256896,42.29261074852645],[-83.148023565248081,42.292702676175608],[-83.14843057087279,42.292874547239499],[-83.148598838018046,42.293114267123457],[-83.148739942864452,42.293194616841227],[-83.148936930215314,42.293409467412758],[-83.149063179184537,42.293663481787135],[-83.149201471208727,42.293805186554934],[-83.14934055708639,42.294079998789421],[-83.149413120176519,42.294301943621015],[-83.149485917357339,42.294518773332108],[-83.14947012572614,42.294712891479513],[-83.149477102178253,42.294861514177427],[-83.149532287514731,42.295011354569162],[-83.149604907163621,42.29522934472466],[-83.149598820369576,42.295412601138722],[-83.149683438979011,42.295566568783435],[-83.149988909790167,42.295825590605496],[-83.150255714334619,42.296005102500004],[-83.150462240453024,42.296115028217997],[-83.150754250844344,42.29620617237309],[-83.15099983157539,42.296233316169726],[-83.151401976586854,42.296273361863754],[-83.151687018305495,42.296260912519521],[-83.153547077126504,42.295659544497788],[-83.154041452140675,42.295554143204996],[-83.154398954966155,42.295548426857749],[-83.154728453574705,42.29557638179336],[-83.155279379962607,42.295536249995223],[-83.155533847618145,42.295468994181697],[-83.156000321175981,42.295366837819003],[-83.156419461878386,42.295337195984253],[-83.156809265741146,42.295272350625758],[-83.156882756166823,42.295263146456747],[-83.157082102397396,42.295227531692674],[-83.157244218929762,42.295173985575211],[-83.157395528339137,42.295107043288908],[-83.157690930308746,42.2949572550094],[-83.157930224875102,42.294783646101934],[-83.158095531680516,42.294552310695217],[-83.158168104046823,42.29431863972966],[-83.158177019416257,42.29412357197338],[-83.158148344671204,42.293904581653933],[-83.158054965019602,42.293747144280559],[-83.157945867552371,42.293595055763824],[-83.157844497860438,42.293443161174416],[-83.15781554866382,42.293374640447119],[-83.157753741779985,42.293228349951995],[-83.157708300502605,42.29303765637551],[-83.157711326929672,42.292802232831512],[-83.157721759622618,42.292673792299581],[-83.157729018752377,42.292584411125851],[-83.157767009631655,42.292430283900735],[-83.157857257050466,42.292317680251173],[-83.158019411050034,42.292155191672073],[-83.158250062745239,42.292017405132519],[-83.158585753301011,42.291951189751778],[-83.159048462705101,42.291942219667526],[-83.160389922103121,42.291916204791931],[-83.160878586941138,42.29188829737754],[-83.161178392564466,42.2918569775333],[-83.161321671944421,42.29184200865474],[-83.161664822882386,42.291781717867181],[-83.162158520232865,42.291591012363263],[-83.162586215356754,42.291425801122557],[-83.1629575175197,42.291257079362964],[-83.164181486735529,42.290581106093761],[-83.164614549978211,42.290312245951078],[-83.165194161594002,42.290056393939267],[-83.166017057423986,42.289817599711718],[-83.166995247892288,42.289572209450704],[-83.166976178987241,42.289523374188342],[-83.166943079660626,42.289459907104273],[-83.166773340989693,42.289148468425239],[-83.166686385834979,42.289028787817522],[-83.166576684975567,42.288906433727846],[-83.166465296264789,42.288799011183848],[-83.166356799139564,42.288698796891872],[-83.16564398773798,42.288083921376234],[-83.165178538511014,42.287703761423359],[-83.164902078970599,42.287452325321958],[-83.16489074698255,42.287442016299423],[-83.164758116441178,42.287340032752688],[-83.164484300369722,42.287081152999704],[-83.164232816639654,42.286840874359299],[-83.164145654881196,42.286757565656238],[-83.164086148524234,42.286680130558814],[-83.163829418520635,42.286240089704897],[-83.163728077652621,42.286055605657879],[-83.163290538488042,42.28526357480407],[-83.163263228309319,42.285214573804105],[-83.163101362872126,42.284924100718889],[-83.162983475686772,42.284686048580497],[-83.162868278930233,42.284453156186238],[-83.16237151702984,42.283337523019753],[-83.162219086637464,42.283004650517412],[-83.162105314416593,42.282792482917372],[-83.161943213780788,42.28253360864332],[-83.161797830129672,42.282332359126514],[-83.161720066130755,42.282233839997559],[-83.161393142652514,42.281857785146379],[-83.160857586973322,42.281338452174055],[-83.160805733674692,42.281295279631728],[-83.160782163764381,42.281272071595509],[-83.160779360892846,42.281267098399695],[-83.160737716024371,42.281223873886368],[-83.160657588363847,42.281149460642887],[-83.159652146754212,42.280162443187933],[-83.158944516073475,42.279530881822225],[-83.158609990623304,42.279232309314672],[-83.158355792306907,42.279011472777945],[-83.158161280023833,42.278844774921502],[-83.161083519168429,42.274975431948427],[-83.162055968683447,42.273718518639974],[-83.1672734597567,42.267589873656384],[-83.168079071794182,42.26659687102886],[-83.168583893812297,42.265974605062738],[-83.169612942734105,42.264834055420081],[-83.169698014950512,42.264757742768843],[-83.169828424982725,42.264577333244482],[-83.169301377801389,42.264477351872131],[-83.169155264195354,42.264454379531792],[-83.168996785032149,42.264418851178768],[-83.168872979438262,42.264383057451944],[-83.16876039543348,42.2643436012414],[-83.168645664586066,42.264296018330398],[-83.168538532751754,42.26424410394128],[-83.168439737008455,42.264187325428999],[-83.168347463376691,42.264125393824067],[-83.168261344042506,42.264058755573501],[-83.168181730942408,42.263987774165962],[-83.168108981514948,42.263912903042311],[-83.168030686639781,42.263817444518764],[-83.167951181764735,42.263696581435305],[-83.167717499858398,42.263265346012929],[-83.167184839426412,42.2622813514078],[-83.166925628005217,42.261974636795898],[-83.166843838578643,42.261878330300142],[-83.166821145748216,42.261835410628052],[-83.166755876033392,42.261566765374141],[-83.166713846029197,42.261287200080695],[-83.166699083620941,42.261077434464482],[-83.166701412134771,42.26080446219737],[-83.166695886611819,42.26069446738429],[-83.166699913685932,42.260509839765376],[-83.166681014102849,42.260338837807744],[-83.166638071497772,42.260170100380833],[-83.166564651339783,42.25999149690027],[-83.166520884932538,42.259909908985961],[-83.1664620686566,42.259816636981981],[-83.166353267699449,42.259675383719909],[-83.166321235703464,42.259639209121588],[-83.166205131444542,42.259531102969682],[-83.165953496315126,42.259310454638353],[-83.165690322440241,42.259097335396305],[-83.165520502904144,42.258971462020064],[-83.16535899478697,42.258854771141706],[-83.165216133608268,42.258751603727923],[-83.164737286169299,42.258440304618937],[-83.164397626524618,42.258227901641547],[-83.163680414385411,42.257775949761466],[-83.163414713484926,42.257600434491472],[-83.16318941634205,42.257429220079302],[-83.162982046467249,42.257245949736955],[-83.162754827602143,42.257010966659884],[-83.16265687340173,42.256892424494211],[-83.162034015766594,42.25608644269667],[-83.161640857972216,42.255582098501897],[-83.161530916809696,42.255456856014],[-83.161415541091642,42.255336957161646],[-83.161289851132651,42.255217670501892],[-83.161190314870993,42.255131254763171],[-83.161047582888614,42.255015837324088],[-83.160972663153274,42.254961297517411],[-83.160780296652433,42.255192307799092],[-83.158855020206303,42.257368411027052],[-83.156603958383741,42.260052997582378],[-83.155966966664067,42.260797811788272],[-83.154829959495316,42.262150585355492],[-83.152954355085001,42.264402076908333],[-83.151345567176932,42.266438171653007],[-83.149659788563199,42.268434955767042],[-83.147961163415758,42.270438419839046],[-83.146273553319631,42.272435090810895],[-83.1445754956098,42.274428694667122],[-83.143454532575291,42.275735754222957],[-83.142136977969244,42.277315245771099],[-83.140742279497729,42.278928680203968],[-83.140613670218158,42.279089630333928],[-83.14028851003151,42.279467013435074],[-83.138794603778607,42.281242417775488],[-83.13790246154646,42.282288724378454],[-83.137451286282143,42.282791875992473],[-83.137075655870063,42.28264323803328],[-83.136791984769644,42.282531707936023],[-83.136492720896754,42.282419783318424],[-83.136283283882221,42.282391282542584],[-83.136121312335845,42.282398595696954],[-83.135988624789789,42.282438654941117],[-83.13593670934327,42.282468251152331],[-83.13589889159816,42.282493053036838],[-83.135878759113709,42.282521248314488],[-83.135844487310266,42.282533627501223],[-83.13578786598832,42.282579298100863],[-83.135768521261966,42.282611930159526],[-83.135707812165109,42.282595666887488],[-83.135622228826435,42.282752981116914],[-83.134210577376109,42.282226767010492],[-83.132777401395202,42.281805115577868],[-83.131491281383703,42.281409199327292],[-83.130201120292782,42.281101218722469],[-83.128711257317832,42.280791633188016],[-83.121891960721996,42.279436000550433],[-83.119357595740126,42.279173997821374],[-83.118772629677721,42.279134394908375],[-83.118294067210627,42.279187948468397],[-83.117978721437595,42.279303222470553],[-83.117772058160156,42.279462380555195],[-83.11766492184428,42.279624082771754],[-83.117645112848635,42.279812679952499],[-83.117624163214558,42.280025913292555],[-83.117639458302207,42.280412733368543],[-83.117759664991624,42.281163995035691],[-83.118857913385568,42.28297575275613],[-83.118990149666757,42.283283780178401],[-83.119288229765942,42.284402078365218],[-83.119264922904719,42.284762510047926],[-83.119303868799634,42.285117045742219],[-83.119425209200259,42.285605233372422],[-83.11973196263051,42.286456350156421],[-83.119875256202619,42.287554681782922],[-83.119778696492688,42.288015043557607],[-83.119612287829881,42.288385868816491],[-83.11945652820215,42.288755009198461],[-83.119247526014277,42.28905678644233],[-83.118128401482352,42.289727993624673],[-83.117911547813634,42.289789595845811],[-83.117296856178967,42.290022113015937],[-83.116545099110937,42.290187067021215],[-83.115766581738526,42.29023122683877],[-83.11462591448759,42.290178044099413],[-83.113577359242669,42.289999093813492],[-83.111994546582267,42.289588437739212],[-83.1110644658349,42.289475065023758],[-83.109291497793194,42.289238076821107],[-83.109238299738692,42.289231748523044],[-83.10781917018835,42.288964570249192],[-83.103202224851543,42.287942096176799],[-83.099897929596366,42.28669883371316],[-83.097624470618641,42.289676090278419],[-83.090654661263201,42.296281206808423],[-83.079940570957064,42.307172314042383],[-83.078106579746461,42.308573739990976],[-83.076192641466506,42.309524244328429],[-83.073448850279149,42.310889979175954],[-83.063557651953133,42.31685820567381],[-83.060249583079468,42.317959320914014],[-83.060231629607912,42.317965296432902],[-83.049731032218489,42.321459605476072],[-83.040500792452491,42.324093559829677],[-83.039628931136704,42.324507738837504],[-83.039073627489458,42.324771531192809],[-83.02632674996299,42.32886872939563],[-83.023926652456666,42.329428467398536],[-83.018944892403098,42.330616750086001],[-83.01399649242191,42.331321491387534],[-83.008029266605789,42.331600358196205],[-82.989118143300033,42.332482075403291],[-82.974443697027567,42.336126790785848],[-82.959767492190608,42.339769659834595],[-82.948015682928244,42.346011252115403],[-82.945405847180112,42.347397049126442],[-82.941492972485563,42.348256322315272],[-82.93162006414677,42.35048785063902],[-82.926209229993347,42.351647215424975],[-82.92446168564959,42.352018816208819],[-82.923968247223939,42.352123932325632],[-82.924095131220184,42.352298159735497],[-82.927162043929854,42.356454689719811],[-82.928587399498042,42.358004612707909],[-82.928354082094131,42.358091979137726],[-82.929883155692664,42.360365771859193],[-82.929888724843394,42.360398788151358],[-82.929906203119998,42.360446461387745],[-82.929931494858195,42.360492254162622],[-82.930213893323398,42.360914435294227],[-82.930617740587635,42.361525630517242],[-82.930868193001359,42.361903382096038],[-82.930274845623885,42.362140567585122],[-82.930460485863122,42.362417386897739],[-82.932303301498237,42.365116847301159],[-82.93343884140117,42.366836794114064],[-82.934893292896064,42.36906705786221],[-82.937297364714496,42.372701839081607],[-82.938683001017097,42.374742444875181],[-82.938826672534987,42.375132658479977],[-82.939274531365513,42.375937651548988],[-82.939302675155503,42.375969242448363],[-82.939347034310245,42.375993198680405],[-82.939396915144258,42.376005558611688],[-82.939449276524286,42.376007710128775],[-82.939510828054068,42.376004238801286],[-82.939570874596242,42.375995674130522],[-82.939601877785719,42.375988996821988],[-82.939859025762019,42.376405222970327],[-82.941206101246962,42.378474805072628],[-82.94249265639391,42.380395744009682],[-82.942334441682178,42.380457975862477],[-82.942489667039524,42.380676257461516],[-82.942758471549411,42.381095042007594],[-82.94292168543187,42.381039334919969],[-82.943821306492694,42.382425645293708],[-82.945325841496938,42.384748565461003],[-82.945719988423704,42.385316627597483],[-82.945646426542638,42.385344881511443],[-82.94598035525587,42.385861040111116],[-82.946072242105146,42.38598547867084],[-82.946797175139679,42.386990536289346],[-82.946655318730436,42.387043444705014],[-82.94656528742766,42.387470131643624],[-82.946391033923035,42.387495937479642],[-82.945523016437392,42.387648370640576],[-82.944393979663971,42.387847727855565],[-82.943960048873365,42.387925311979579],[-82.943273673091397,42.388047453650202],[-82.942664036770211,42.388154616351329],[-82.942510695573617,42.388183779303837],[-82.94213112960712,42.388248054156804],[-82.941582330487307,42.38834427398151],[-82.940810375978657,42.388479554374854],[-82.940491535197395,42.388543262795928],[-82.939523725356793,42.388728659806844],[-82.939337158072419,42.388771156132776],[-82.939139841385568,42.388816127760357],[-82.938263990733063,42.389016626542244],[-82.93756407753412,42.389182504064301],[-82.937267508067649,42.389254678570438],[-82.937126183772151,42.389289095773862],[-82.936273006134002,42.389522549171119],[-82.936020612457327,42.389596177742874],[-82.935423827627446,42.389782609510803],[-82.935290872076081,42.389828115778506],[-82.934554841663655,42.390079781206502],[-82.934320525201727,42.390159484940156],[-82.933352110387375,42.390501845135034],[-82.932360723430648,42.390870040565041],[-82.931851615245634,42.391061703446027],[-82.931368359751431,42.391243605811169],[-82.930245667452255,42.391690070350236],[-82.929177530359866,42.392131748470227],[-82.928975501413689,42.392215425775142],[-82.928760505947722,42.392304240697541],[-82.928342695098152,42.392475842283304],[-82.927715318769003,42.392733510921865],[-82.927181509760686,42.392952033257622],[-82.926592262897145,42.393182906865128],[-82.926402639775176,42.393256768437972],[-82.925612880142921,42.393564600913649],[-82.925273952557347,42.393696716436857],[-82.924540568143755,42.393982566417655],[-82.924363083094406,42.394055302213836],[-82.923385852756411,42.394432814756755],[-82.922320086591796,42.394829928719801],[-82.922101525682876,42.394954937554431],[-82.921787411482725,42.395172696503835],[-82.921638354110655,42.3952999889515],[-82.921596721096464,42.395344972863668],[-82.921490131299947,42.395460142067286],[-82.92129606042333,42.395701140318472],[-82.920982078515948,42.396145892975419],[-82.920269824341602,42.397154764876937],[-82.920049563787416,42.397466744982111],[-82.919998052975657,42.39753970571396],[-82.919675109176239,42.397997119912191],[-82.919260684111109,42.398584095711755],[-82.919038508008995,42.398926827526587],[-82.918629270781139,42.399558111592853],[-82.918235573848364,42.40038352739505],[-82.917637364624369,42.401637669246782],[-82.917164927382828,42.40262809476399],[-82.917055708237811,42.402848977801042],[-82.916784460643868,42.403397543122104],[-82.916216881339665,42.404471451568469],[-82.915847034119082,42.405171208742736],[-82.915550202029948,42.405798666911494],[-82.914855806310584,42.407266474179508],[-82.914363258191273,42.40831726097489],[-82.913817802948557,42.409480870928505],[-82.913608284081135,42.409927822453042],[-82.913218025628908,42.410760314909894],[-82.913091615095453,42.4110299651174],[-82.912890085310863,42.411459848733635],[-82.912808033604108,42.411634875209543],[-82.912583521694799,42.412148212726208],[-82.912477376752236,42.412390907164045],[-82.912312288092025,42.412768368969623],[-82.912034274921666,42.413408632680436],[-82.91166350100967,42.414191839334322],[-82.911421136342057,42.414723579711314],[-82.91123314940431,42.415147886853163],[-82.911111772832498,42.415421846402509],[-82.910865747715206,42.416020720833899],[-82.910693916404469,42.416594458723381],[-82.910610729370191,42.416949665715968],[-82.910571315894728,42.41711796297308],[-82.910554431094852,42.417190061048451],[-82.91046743187735,42.417800810822158],[-82.910454677673968,42.417890351304727],[-82.910407145549513,42.418379972159343],[-82.910343680830763,42.419015478283946],[-82.91045595998736,42.419021766408854],[-82.913190562273172,42.420088744072103],[-82.913309360119797,42.420157073230577],[-82.913372081250088,42.4202186820756],[-82.913408061384899,42.420260184035151],[-82.913443746127541,42.420291692959097],[-82.913470661095516,42.420308283832583],[-82.913515576928745,42.420329474935805],[-82.914201986746562,42.420612711179423],[-82.914266034857832,42.420629050803718],[-82.914314835269266,42.420637164588577],[-82.914378659037055,42.420642295994838],[-82.914486124808803,42.420648309350113],[-82.914739758213827,42.420744578055604],[-82.915229824331732,42.420946993053903],[-82.916032117421793,42.421272296893783],[-82.91617940182303,42.421329868711908],[-82.916248967555845,42.421349220969162]],[[-83.073762128903553,42.398721254150523],[-83.074464476210778,42.398454232121949],[-83.075121463469912,42.398204446923607],[-83.076088732030669,42.397837945268478],[-83.077213095389837,42.397410040537892],[-83.078160483514111,42.397049475100161],[-83.079053841338563,42.396709460957993],[-83.079648826624478,42.396483002974527],[-83.079890790567731,42.396390993519375],[-83.082611336928622,42.395356416409747],[-83.085577548270507,42.394228304577929],[-83.088585674798153,42.393102798562154],[-83.091693370551823,42.391985349200176],[-83.094598927280941,42.390940471078956],[-83.097647800468451,42.389843936852607],[-83.100508668544265,42.388814911298532],[-83.10200572171675,42.388276393841608],[-83.102053471064409,42.388258852411404],[-83.102292307969961,42.388608282578808],[-83.102926139263374,42.389455891384507],[-83.103179356937062,42.389804581113296],[-83.103461178529429,42.390206402630923],[-83.103745010671858,42.39060996689247],[-83.104027499794086,42.391008020297001],[-83.104310167679458,42.391415529950137],[-83.104494615747655,42.391682746889884],[-83.104599595941067,42.39181320949433],[-83.104686687010457,42.391921414794766],[-83.104887648495932,42.392213125285963],[-83.105165665436203,42.392616798952837],[-83.105443410882557,42.393022089777212],[-83.105693734985962,42.393363454023557],[-83.106655161521985,42.395051219496622],[-83.107055213188843,42.395741071447119],[-83.107883189341877,42.39696929569029],[-83.108472098318657,42.397849472467037],[-83.108483411167015,42.39787639061214],[-83.108627032339783,42.398086170011965],[-83.108807090349288,42.398349168364021],[-83.108833009690684,42.398387024086873],[-83.10896876755541,42.398585314466608],[-83.109073541046243,42.398738345181876],[-83.109171218455856,42.398881013225598],[-83.109286724214954,42.399049715646271],[-83.109428394065205,42.399259366902243],[-83.10965810115151,42.39959802433394],[-83.109756778171757,42.399741107510351],[-83.109893045270695,42.399940890369642],[-83.110130662585448,42.400292053843813],[-83.11037052630526,42.400645231374746],[-83.110591987013379,42.400971371595837],[-83.110811733003686,42.401298303011387],[-83.11103867630672,42.401635938572809],[-83.111492942849225,42.402288335477735],[-83.11201008928289,42.403032207215887],[-83.112077095491614,42.403121570823537],[-83.113112563798069,42.404493560751867],[-83.113175428224508,42.404590156706007],[-83.113207399161027,42.404638066955165],[-83.113223307444471,42.404652538943211],[-83.113931643595095,42.405796024076679],[-83.115631228320282,42.408221484428211],[-83.116406901830899,42.409394836514323],[-83.117066364694736,42.41039223554732],[-83.117416203375058,42.410926550050654],[-83.117582020077435,42.411172104858757],[-83.118081263016876,42.411927133660164],[-83.11860520048937,42.412719693975781],[-83.119145186033947,42.413511564123098],[-83.119685821634249,42.414304565946274],[-83.120230949848718,42.415104134265817],[-83.120775932548852,42.415903469293291],[-83.121310579299077,42.416687623334425],[-83.121852352303918,42.417482376362315],[-83.120720749720178,42.417508688215548],[-83.118853049313032,42.41753852212932],[-83.116773598357526,42.417571575615419],[-83.116360390246172,42.417580174498234],[-83.11563986151701,42.417595115609629],[-83.115509778149104,42.417597811803219],[-83.113580225113125,42.417627607465789],[-83.112574312498452,42.417645410128877],[-83.112259350809524,42.417650936476413],[-83.11071432353215,42.417678075080659],[-83.110196114354324,42.417687022488785],[-83.109529357580897,42.417698643887363],[-83.10917525543681,42.417704719324881],[-83.107873176386235,42.417724329657098],[-83.105458665978489,42.417747757740322],[-83.105214221189215,42.417749961654565],[-83.104910142933463,42.417757552512555],[-83.10446781530726,42.417763803970551],[-83.102909514824503,42.417803835448133],[-83.10173258726897,42.417829183970362],[-83.100999208051903,42.417848219342716],[-83.099616021952613,42.417893476377259],[-83.098336372236659,42.417938622750519],[-83.097562500118173,42.417965278505953],[-83.097318169000786,42.417974611111916],[-83.096322725585793,42.418008864644143],[-83.095332408906629,42.418023673855465],[-83.094748976975794,42.41802350659848],[-83.094198478866346,42.418030255825663],[-83.093347606110385,42.418040681977672],[-83.092938274154307,42.418045696242316],[-83.09236005634996,42.418052776330903],[-83.091386322801995,42.418064691947784],[-83.089473921086125,42.418090105789325],[-83.089437121323343,42.418042123926824],[-83.086955209681207,42.414949213599876],[-83.085640478775105,42.413310676828338],[-83.082469184602132,42.409347397126531],[-83.082313567994234,42.409163939613073],[-83.081798776407197,42.408522238665746],[-83.081756174759931,42.408466061980583],[-83.081636902749636,42.408308790359015],[-83.081507655609911,42.408159338250009],[-83.081431660493323,42.408064606799172],[-83.081179863729972,42.407750722169574],[-83.081073268677798,42.407617842474629],[-83.080929449791356,42.407438558913178],[-83.076321452720535,42.401845472801327],[-83.076215727365437,42.401882957386128],[-83.076097602431972,42.401924837862332],[-83.075088655870843,42.402282544002972],[-83.074496332665518,42.402498419848357],[-83.073935945895087,42.402705942906962],[-83.073377473800917,42.402909105050874],[-83.073035641510586,42.403012795515295],[-83.072664134070919,42.40317777453869],[-83.072397297840027,42.403296268753856],[-83.072058152082619,42.403446873147622],[-83.07157177194027,42.403624634132818],[-83.071093352730912,42.403800174309694],[-83.070590779787565,42.40398559389071],[-83.070114397402378,42.404161678539658],[-83.069628838014339,42.404340344929729],[-83.069139159237011,42.404519165597542],[-83.068705645299644,42.404678264956402],[-83.067547429436644,42.405105409353226],[-83.066677014168548,42.405425658321199],[-83.065784759153473,42.405754140884945],[-83.064780572952671,42.406122518600327],[-83.064681045050179,42.406159028069887],[-83.064204500538736,42.406334545376055],[-83.063694046972046,42.406523340302762],[-83.063245924312469,42.406688284442296],[-83.062847636042022,42.406834250316948],[-83.062368706048019,42.407008481837813],[-83.062006056347428,42.407141177682817],[-83.061493652232542,42.407329328813667],[-83.061141827518952,42.407462549426583],[-83.060616374279761,42.407651402339873],[-83.060254063778942,42.407784997004022],[-83.059718247662559,42.407982413529162],[-83.058834600083728,42.408304313258185],[-83.058387812691322,42.408468242745379],[-83.057908963748616,42.408644446213238],[-83.057459089580661,42.40880996835844],[-83.056991838989944,42.408981880266452],[-83.056838081212263,42.408753206349473],[-83.056394103639349,42.408094303633504],[-83.055952325903604,42.407435156103226],[-83.055563164901486,42.406856186217261],[-83.055494872617572,42.406754328055008],[-83.055023052459021,42.406050596289809],[-83.054583181707386,42.405394614023827],[-83.054140374396809,42.404734185263415],[-83.05394330804846,42.40444039483851],[-83.052554859326591,42.404427919748414],[-83.05011629159462,42.404429376537834],[-83.049850711431986,42.404429531161881],[-83.04717803861034,42.404460289496896],[-83.04491092195822,42.404449105768485],[-83.043843225206061,42.404443822720353],[-83.042454932871053,42.404444183060527],[-83.042447710223769,42.403679087141157],[-83.042432391848678,42.402056478976164],[-83.042426698356138,42.401453276341314],[-83.042423390167528,42.401103071497097],[-83.042417733615565,42.400503687350984],[-83.0424147410248,42.400186681042342],[-83.042406122800756,42.399273878602358],[-83.042401335749872,42.398766765464444],[-83.042396906082601,42.398297625761522],[-83.042390697862018,42.397639991826168],[-83.042389570664753,42.397520530378173],[-83.042388698399478,42.397428064712692],[-83.042368803190783,42.396664976909484],[-83.042349382505407,42.395928551287689],[-83.042343508452575,42.395540237304587],[-83.042338249703946,42.395192647882254],[-83.042330767708421,42.395098738424792],[-83.04232960032634,42.394815997730355],[-83.04232889551497,42.394631677275633],[-83.042314859983037,42.394239838016709],[-83.042302018286605,42.393923376152195],[-83.042292931158499,42.39385934136601],[-83.042295833663957,42.393127256282632],[-83.042269476587066,42.392594810003416],[-83.04225730435833,42.392041849364645],[-83.042242072722431,42.391283215671365],[-83.04222453563888,42.390571432775658],[-83.042222983698494,42.390214870560115],[-83.04312442777956,42.390198537887812],[-83.044276848110314,42.390182188960644],[-83.043773007209793,42.389475034026731],[-83.043313759810587,42.388830451730186],[-83.042635468034177,42.387878400543933],[-83.042534174009006,42.387736222931942],[-83.042439837095287,42.387603805698582],[-83.04217821459676,42.387236579529407],[-83.041787711050674,42.386688441485347],[-83.041155442697274,42.385800923191461],[-83.040410584424862,42.384755324472557],[-83.040597015372441,42.384687877511432],[-83.04253006797434,42.383988506722794],[-83.04511549684905,42.383053034566451],[-83.04795127164077,42.382026882882975],[-83.051858251905827,42.380612932875863],[-83.05428082370112,42.379736096140817],[-83.054668230479891,42.379595868297542],[-83.054832163548909,42.379880686377106],[-83.054929005898302,42.380067181719667],[-83.055563150463541,42.381084057654867],[-83.055662882437304,42.381238598414214],[-83.055733834861954,42.381362748366868],[-83.055734680401017,42.381398706680933],[-83.055752467162264,42.381454021065686],[-83.055862241489265,42.381613867662089],[-83.056072657775232,42.381902276166777],[-83.056366924139525,42.382318273027302],[-83.057660177542033,42.384248539977058],[-83.057851426269323,42.384522688536727],[-83.057911710400404,42.384618205542502],[-83.059188738141088,42.386485756471515],[-83.05966413583954,42.387179817457422],[-83.059834841122097,42.387431683763985],[-83.060500547260176,42.388413897278149],[-83.06090233992434,42.38900534178169],[-83.06161042923091,42.390047650925119],[-83.061857677781703,42.390410383514229],[-83.062408098426886,42.391243504651165],[-83.063972732814563,42.390653604748294],[-83.064161124434094,42.39058959453935],[-83.066312319985613,42.389785309312984],[-83.066367445392643,42.389766635711354],[-83.066552414575852,42.389706919481327],[-83.066671085685599,42.389872552967915],[-83.067465074074818,42.39089831446698],[-83.068770710792364,42.392584992983132],[-83.068909906424096,42.392764806406937],[-83.069084071159182,42.392989791174969],[-83.06922131467654,42.393167079183847],[-83.069365765718928,42.393353679139068],[-83.071183146338811,42.395572670517744],[-83.072671351012275,42.397389608300919],[-83.072722166807466,42.397451646612296],[-83.073061368080701,42.39786575861212],[-83.073633963377972,42.398564789458597],[-83.073762128903553,42.398721254150523]]]},"properties":{"fid":1,"FID_1":1,"acres":91471.280669999993,"cnty_code":"163","fipscode":"22000","fipsnum":22000,"label":"City of Detroit","layout":"landscape","link":"16322000","name":"Detroit","objectid":4,"peninsula":"lower","shape_leng":432048.07688200002,"sqkm":370.17512579999999,"sqmiles":142.92475899999999,"type":"City","ver":"14a","Shape__Are":679280890.80859399,"Shape__Len":178261.68088253701,"GlobalID":"5afa35e2-10c4-4b26-ad6e-a45e11e4d2d4","CreationDa":1567987200000,"Creator":"sheltont_detroitmi","EditDate":1684195200000,"Editor":"schultzt_detroitmi"}}]}