{"type":"FeatureCollection","features":[{"type":"Feature","id":1,"geometry":{"type":"Polygon","coordinates":[[[-90.058542696787981,29.944477269210665],[-90.045128484691759,29.931885612131339],[-90.008582117770459,29.897268648929071],[-90.008645242084242,29.895742163969715],[-90.002334793715704,29.892158614728316],[-90.002051941643742,29.89736538900155],[-90.002039558878494,29.897593319476186],[-89.989434633201711,29.889306589327703],[-89.987615208475063,29.905574392544224],[-89.979156906565947,29.902391937338109],[-89.976945612150246,29.902413948245169],[-89.972949480933778,29.904169399698105],[-89.959040107514909,29.902340056348578],[-89.935308243380689,29.892772007222391],[-89.916265396730637,29.86561020524681],[-89.915977786345707,29.865689452606205],[-89.91426689000491,29.866160848444451],[-89.912031884963483,29.86713961749939],[-89.91046242679954,29.867927454188703],[-89.909848688066461,29.868235530445418],[-89.908225999929925,29.869430778907372],[-89.906791905921693,29.870534757872804],[-89.906368388190515,29.871019210967859],[-89.906296704129545,29.871101208454036],[-89.905458807577872,29.872059644736851],[-89.905316652641375,29.872342138878651],[-89.904850082565247,29.873269293143437],[-89.904567932863756,29.873829961083914],[-89.903909906117235,29.875726062008198],[-89.903439287293224,29.878089440775113],[-89.903213698653246,29.880286303769935],[-89.903130042817168,29.882738476199791],[-89.90315792719656,29.883330233703362],[-89.903227278416125,29.884802014701279],[-89.903241706239726,29.885108186193861],[-89.903788318675936,29.8876095047749],[-89.905327476881496,29.891982561645932],[-89.906118755276282,29.89414023938059],[-89.906250553620112,29.894499621960051],[-89.906775746003859,29.895931666413333],[-89.907058595377862,29.896597046016893],[-89.908419480974203,29.899798279966717],[-89.910262306060531,29.903328669382631],[-89.911966874771394,29.906350004748958],[-89.912115337552734,29.906603665726664],[-89.913910037218386,29.909669950108139],[-89.916391482580821,29.912699605102716],[-89.919070245495391,29.915519859254175],[-89.920572920903567,29.916789755043226],[-89.921756933235827,29.917790316469961],[-89.924116466501687,29.919169033823891],[-89.925940780842325,29.91993272911219],[-89.926915954407718,29.920340940382118],[-89.9270771300055,29.920377737942317],[-89.929952858837339,29.921034224150162],[-89.933084456482447,29.921686150795267],[-89.936709952802062,29.922176712984992],[-89.94052763154491,29.922597839418813],[-89.943582061962559,29.92291563105158],[-89.947186293812365,29.922977453146984],[-89.950960960679765,29.922565156257008],[-89.954976435414153,29.922512131329825],[-89.958962305366072,29.922625207587316],[-89.962917283605691,29.922999537798489],[-89.965767028325672,29.923289748123409],[-89.966415978214798,29.923355826710065],[-89.967524326086732,29.923468674539777],[-89.967960652861791,29.923627186345641],[-89.977622813342123,29.927136806818226],[-89.980557142897794,29.928273265698692],[-89.981857036473002,29.928811453286016],[-89.983164553601227,29.929352776809253],[-89.983921380767072,29.929692148573849],[-89.985516216000519,29.930407276874405],[-89.986577905246065,29.930926204580715],[-89.988131587502721,29.931701412090547],[-89.989473080118501,29.932464878951066],[-89.990911502563733,29.933286692926572],[-89.990931096093163,29.933298130504397],[-89.994430574911064,29.935340899163236],[-89.998617589929779,29.937937412781423],[-90.001245911669457,29.939574899262254],[-90.001885592246254,29.939973415840541],[-90.011973614990325,29.945824396079047],[-90.012068980898732,29.9458797007876],[-90.003469510609364,29.963856417339855],[-89.998756474931326,29.973705757314917],[-89.993893626589568,29.971912503759086],[-89.989073455575465,29.976573077485568],[-89.988753777165073,29.977203940209733],[-89.988330687511166,29.977793386455687],[-89.987704575905411,29.978045145367219],[-89.987226007973845,29.978350044319143],[-89.987250780698957,29.978711721069146],[-89.987214861776408,29.979176044638791],[-89.984998113871825,29.98302576083023],[-89.984092184506665,29.984229831641471],[-89.983432527289267,29.984765203451445],[-89.982835660737123,29.985043058890085],[-89.982355456039443,29.985149901946443],[-89.982366263192432,29.985446928233216],[-89.982322849319985,29.985683195423178],[-89.98222565059325,29.985974766422373],[-89.982132840558108,29.986257818143827],[-89.9820726992956,29.986635819387629],[-89.982107346576754,29.987045026207056],[-89.982049912273624,29.987063582818166],[-89.981720084114556,29.98717014348739],[-89.981377128551628,29.987308622894659],[-89.980989164618222,29.987485369354374],[-89.980690164319583,29.987663026827249],[-89.980509258495431,29.987880625890227],[-89.980401963979432,29.988137709687578],[-89.980279670570326,29.988407547670249],[-89.980097010168834,29.988754222829186],[-89.980004715445205,29.988998550642634],[-89.979931233639491,29.989232289838355],[-89.979836704999911,29.989358283957699],[-89.979714580663313,29.989615213970978],[-89.97960833385747,29.989794851751071],[-89.979443301067477,29.98993515768143],[-89.979143589405112,29.990164441635727],[-89.978918542156975,29.990355767005099],[-89.978589346221327,29.990571838119877],[-89.978349295583484,29.990775914976552],[-89.978020273216998,29.990979077222676],[-89.977615882267116,29.991271828132426],[-89.977226667376783,29.991538914189562],[-89.97698643687454,29.991755896317613],[-89.976805337696135,29.991986397953951],[-89.976638893869847,29.992229959545057],[-89.97629240037395,29.992626577654505],[-89.976020225053333,29.993011050419682],[-89.975809464435201,29.993241244487876],[-89.975553342013086,29.993535517050532],[-89.975327927841533,29.993752652063279],[-89.975102691735799,29.993956875509468],[-89.974848321193008,29.994122072875427],[-89.974608779571497,29.994287420428179],[-89.974385121775924,29.994375478445647],[-89.974131630770103,29.994476135065611],[-89.97389349568823,29.994538222461074],[-89.973581566735902,29.99457372859473],[-89.973285173571867,29.994557757534551],[-89.973017908549593,29.994580813453808],[-89.972691679477407,29.994577441895501],[-89.972469780755716,29.994536420219674],[-89.972263238857352,29.99445683021861],[-89.972012388261078,29.994363870895995],[-89.971791369975733,29.994258309373549],[-89.971718243402165,29.994208423979615],[-89.971541578780773,29.99408790493294],[-89.971380580349489,29.993931329367399],[-89.971264068681762,29.993775209758155],[-89.971207397003752,29.993580984075209],[-89.97115125682501,29.993348036282896],[-89.971169611987989,29.993090038774312],[-89.971217444229637,29.992845257702527],[-89.971279932722666,29.992613534786869],[-89.971270434083237,29.992396486108987],[-89.971268628244559,29.992355230609462],[-89.971123694402934,29.992108453942024],[-89.970934102027172,29.991874124791082],[-89.970566748756426,29.991625044959903],[-89.9703169656554,29.991454637821334],[-89.969993571246277,29.991244738753721],[-89.969669472667988,29.991086470664129],[-89.969300889124725,29.990927739423682],[-89.968975912808105,29.990834005784791],[-89.968607332862064,29.990675272745705],[-89.968312716758419,29.990530214797616],[-89.968018103352733,29.990385157748904],[-89.967738669603875,29.990214436746896],[-89.967253592379336,29.989899581400607],[-89.96697451656064,29.989703044459986],[-89.966783701106863,29.98955906030244],[-89.966576819264787,29.989505274548833],[-89.966369585787731,29.989477303834576],[-89.966027305615626,29.989564113593019],[-89.965863847538515,29.989588235208942],[-89.965596771373839,29.989598368769748],[-89.965329694309901,29.989608504129194],[-89.965093160021297,29.989554407210164],[-89.964987101173733,29.989504108128131],[-89.964842682643678,29.989435618459083],[-89.964592733168047,29.989278109397276],[-89.964328492565869,29.989081721744128],[-89.96404237145822,29.988849799178922],[-89.964005827506924,29.988820178208698],[-89.963390513161642,29.988271583666688],[-89.962789320870399,29.987774770289491],[-89.962544645918626,29.987574788046061],[-89.962437363993104,29.987487101448608],[-89.961720403773597,29.986782525792989],[-89.961311276094477,29.986339343485952],[-89.961092560073553,29.986144329996876],[-89.960930384429673,29.985999728904403],[-89.960710461518545,29.985816705176831],[-89.960371389228214,29.985671165192173],[-89.960030719741894,29.985641793334139],[-89.959764008701995,29.985626101063758],[-89.959467110119022,29.98564882153596],[-89.959228807763225,29.985723789021677],[-89.958960852061637,29.985798448039986],[-89.958676822777136,29.985963302764276],[-89.958467285236964,29.986103118564131],[-89.958302049200199,29.986256303685536],[-89.958091087133937,29.98649937874336],[-89.957896018786187,29.986665161567998],[-89.957657176837188,29.986778849364441],[-89.957360097490493,29.986814470611364],[-89.9570483681876,29.986837031004256],[-89.956812063226096,29.986812875214071],[-89.956767005392919,29.986808268886534],[-89.956723580728635,29.986791983063597],[-89.956589967552929,29.986741871939898],[-89.956359731216594,29.986613232015088],[-89.95635451155141,29.986610315513701],[-89.956076178572744,29.986362126910706],[-89.955900924987645,29.986166652968734],[-89.955814456971552,29.985985015096446],[-89.955773539617098,29.985726400652936],[-89.955733337223705,29.985416155231405],[-89.955678307707672,29.98510575602586],[-89.955682764747735,29.984783065785905],[-89.9556422053235,29.984498637202421],[-89.955588960062414,29.984059162800179],[-89.95551999375266,29.983684068165246],[-89.955436025851895,29.983321725916994],[-89.955366171011974,29.983011170229361],[-89.955237188445437,29.982687085140924],[-89.955034251029815,29.982349318666195],[-89.954816132158726,29.98203720805077],[-89.954641779694327,29.981777195161499],[-89.954423131122553,29.981503807554702],[-89.954386375830552,29.981458679574473],[-89.954189828997357,29.981217357295236],[-89.953866502037386,29.981007419556818],[-89.953585691426497,29.980939928135228],[-89.953231463761028,29.980820030520022],[-89.952920107676789,29.98081676598099],[-89.952667701253347,29.980839935214874],[-89.952355096910139,29.980927021964533],[-89.951997830435516,29.981026549036073],[-89.951669860275786,29.981152201413011],[-89.951342065483914,29.981264944021973],[-89.95108948099471,29.981301018527233],[-89.950837251737767,29.981311279791782],[-89.950556084995299,29.981269597114249],[-89.950320113682267,29.981176752005524],[-89.950099684452823,29.981032433300186],[-89.949805482037334,29.980861518943982],[-89.949553611609872,29.980845961571902],[-89.949122391185369,29.980931792867977],[-89.948854799709181,29.980980617061903],[-89.948453408897649,29.981053847956787],[-89.947976990345808,29.981190838986095],[-89.947634009601813,29.981329231159123],[-89.947216354551074,29.981505564830002],[-89.946784231207289,29.98165592608018],[-89.946396229502341,29.981832568218522],[-89.946083255537758,29.981945454719039],[-89.945831206145215,29.981942798121679],[-89.945505376372012,29.981913542276232],[-89.945254223603513,29.981846348530212],[-89.944929117784511,29.981765463505383],[-89.944412163190748,29.981618006166116],[-89.943924863741415,29.981470859992271],[-89.943629411268262,29.981390283434905],[-89.943156223081189,29.981294920224457],[-89.942771813268507,29.981213404774849],[-89.942342566855928,29.98115723132122],[-89.942226733277096,29.981144784704099],[-89.942076050069602,29.981128596007977],[-89.941750767983535,29.981060609059909],[-89.941439592663016,29.981044411370533],[-89.941113770084371,29.981015145632512],[-89.940788849525745,29.980921341846511],[-89.940315665835271,29.980825969642808],[-89.940034504488779,29.980784266280921],[-89.939798001676422,29.980730123496471],[-89.939574344780169,29.980818121259347],[-89.939348882045238,29.981035192420222],[-89.939256495590769,29.981279492354759],[-89.939210031217954,29.981421004276001],[-89.939177312083245,29.98164011689795],[-89.939188167799671,29.98192423881261],[-89.939272979264558,29.982222052905456],[-89.939356889608746,29.982584404146962],[-89.939528677206624,29.983025142096665],[-89.939598666045583,29.98332279970748],[-89.939653462637182,29.983646114076976],[-89.93960465103379,29.983955422404847],[-89.939530786116848,29.984214976639919],[-89.939331365050407,29.984446400980687],[-89.939045412116059,29.984711154196475],[-89.93865702460198,29.984913589790381],[-89.938239519738033,29.985076984914997],[-89.937659278053218,29.98521283920121],[-89.937138887149899,29.985310594608279],[-89.936811604971581,29.985384579135086],[-89.936528263668379,29.985497757015935],[-89.936243476255413,29.985714195054129],[-89.936032098702356,29.985983047379762],[-89.93578943823195,29.986367753069374],[-89.9356086178434,29.986572382109784],[-89.935383857478996,29.986737817796097],[-89.935115700329277,29.986825334421724],[-89.934623501373437,29.987026655755585],[-89.934371075164961,29.987049792613902],[-89.934132569562394,29.987137622203534],[-89.933907442274631,29.987328869331918],[-89.93371251332178,29.987481710912277],[-89.933443628620523,29.987620854019269],[-89.933176010164686,29.987669645837514],[-89.932937865190297,29.987731659488531],[-89.932550719639949,29.987843723109393],[-89.932327040260645,29.987931708281735],[-89.932103539846423,29.988006786384119],[-89.931849476871832,29.988146084174502],[-89.931536286170626,29.988271843570772],[-89.931223818524359,29.988345971089757],[-89.930941372046618,29.988394600130732],[-89.930496544879588,29.988389859804215],[-89.930140501482924,29.988398974433153],[-89.929829122915635,29.988395654136184],[-89.92947308131761,29.988404766966482],[-89.929072373990834,29.988426312024728],[-89.9287304319638,29.988487211415702],[-89.928313259849006,29.98862476092404],[-89.9279843265154,29.988814890195101],[-89.927732872474053,29.989031667277686],[-89.92737223174305,29.989366684524896],[-89.927146543278297,29.989596642970753],[-89.926965334382658,29.989827076258621],[-89.92683972966978,29.990058103099045],[-89.926680078422862,29.990337175320462],[-89.926520698771185,29.990596887836148],[-89.926406350872355,29.990818352185272],[-89.92622513658074,29.99104878457382],[-89.926033895747651,29.991201652234508],[-89.925741472191135,29.991430895719304],[-89.925416092978253,29.991630737668459],[-89.925101698984179,29.991840380429267],[-89.924854165087595,29.99204105604997],[-89.924684343407705,29.992252243846053],[-89.924448029452947,29.992472941972721],[-89.924212334231811,29.992595744398159],[-89.924011469753509,29.992642003725564],[-89.923667398131897,29.992589909596688],[-89.923335408901949,29.992470168463569],[-89.922969918127194,29.992359750602077],[-89.922580406460554,29.992374941050741],[-89.922311716012871,29.992497928736498],[-89.922008573436869,29.992698001811391],[-89.921783273479264,29.992898908557834],[-89.921591063177004,29.99311953383949],[-89.921364803642746,29.993388205401402],[-89.921150347710352,29.993608591463385],[-89.920913923138983,29.993809375902003],[-89.920701111167318,29.993913596535322],[-89.920366102913306,29.994006821157939],[-89.919663404142739,29.99414450736316],[-89.919228989326371,29.994188250387481],[-89.918804294382653,29.994198446900839],[-89.91871194569967,29.994200663729714],[-89.918344893701828,29.99415497187448],[-89.918026388906696,29.994068051499426],[-89.917723472959892,29.994009128818277],[-89.917419964359851,29.993991949968574],[-89.917163817656046,29.994017024865855],[-89.916858926798,29.994097242593739],[-89.916648954885318,29.994248057102197],[-89.91637405551819,29.994467752484866],[-89.916114348398423,29.994743274182781],[-89.915872403788342,29.99489374604957],[-89.915646245877497,29.995058300400274],[-89.915372923921268,29.995166683095988],[-89.915132759069536,29.995191927965152],[-89.914796091566359,29.995257883344664],[-89.914587103511963,29.995339124501072],[-89.914376332101995,29.995545589957089],[-89.914228907138295,29.995794488125171],[-89.914129040123044,29.996071732024859],[-89.913944295992451,29.996695955054349],[-89.913793285431723,29.997278206723934],[-89.91377513801217,29.997348177576384],[-89.913675465250492,29.997611505366706],[-89.91357638604137,29.997833090224958],[-89.913460133378408,29.998137988277563],[-89.913279938918038,29.998442193852213],[-89.912966114194774,29.999148520487893],[-89.912846789447713,29.999457337785941],[-89.912800119130168,29.999578122132675],[-89.912570375622295,29.999993119686792],[-89.912455107716994,30.000228446185872],[-89.912260901819138,30.000393340480343],[-89.912050513520342,30.000571976415642],[-89.911792563675817,30.000722265720015],[-89.911455279237714,30.000829950541856],[-89.911253127829525,30.000845343337971],[-89.910975118606814,30.000866511580284],[-89.910543310025673,30.000875759308883],[-89.910126493143082,30.000954750361473],[-89.909853744954319,30.001021381131864],[-89.909339423575489,30.001210641657849],[-89.908481977561166,30.001581486996088],[-89.908052422681124,30.001767267145738],[-89.907247365773287,30.002162109993435],[-89.906635728755816,30.002447716688835],[-89.906056456540227,30.002705839203145],[-89.905735144061623,30.002813683204977],[-89.905467658705447,30.002868814344367],[-89.905350288185218,30.00289300520808],[-89.905172819569941,30.002923181959318],[-89.904965631058985,30.002958411101815],[-89.904872659145838,30.002948398050194],[-89.904534609384655,30.002911987198502],[-89.904199227012668,30.002879114279779],[-89.904055630462949,30.002865039889741],[-89.903941375194279,30.002837187885973],[-89.903577649788645,30.002748521027456],[-89.902924625970684,30.002574436561076],[-89.902319357951967,30.002414783515519],[-89.901777840175157,30.002269738157963],[-89.901155791706401,30.002165560692106],[-89.900518360334047,30.002019464926434],[-89.899913193039367,30.00182043326646],[-89.899818187759138,30.001789187221277],[-89.899341017374013,30.001616998525719],[-89.899297340899523,30.001598162225434],[-89.89894377873236,30.001445680373877],[-89.898641251292702,30.001358888601885],[-89.898242009860837,30.001326704563837],[-89.897858357277357,30.001322521816974],[-89.897538444143834,30.001332949456128],[-89.89718555736755,30.001412595215129],[-89.897002030918941,30.001495234817298],[-89.896944169437859,30.001521289076265],[-89.896922030827,30.001533473091342],[-89.896621851517182,30.001698678551236],[-89.896534661345527,30.001792810589791],[-89.896264551767615,30.002084425655767],[-89.895826519877971,30.002524951365444],[-89.89579752843315,30.002547799541389],[-89.895711088296025,30.00261592498498],[-89.89560011105624,30.002703387651252],[-89.89531096103201,30.002797641098311],[-89.895300756424717,30.002798417213228],[-89.894990843752396,30.002821976752898],[-89.89451207077542,30.002761080059827],[-89.8942713402501,30.00268523843306],[-89.894146002635864,30.002645751000671],[-89.893557740797064,30.002416663098586],[-89.893143643464327,30.002192211201645],[-89.892621212898632,30.001947192708826],[-89.892432071083192,30.001834425818174],[-89.892098106942058,30.001635313219197],[-89.890415504172154,30.000795841954584],[-89.889939159364701,30.000567965439302],[-89.889589694508743,30.000411058923305],[-89.889330148367605,30.000190965140973],[-89.889273812136707,30.000143191355221],[-89.889118189852525,29.999849248843816],[-89.888963575708431,29.999485739275485],[-89.888902658331006,29.999276331237752],[-89.888766246465082,29.998759945015479],[-89.888643043841341,29.998330522335777],[-89.888617797173538,29.998242524572902],[-89.888426264060797,29.997949087480436],[-89.888141757236269,29.997723309083483],[-89.88772917346256,29.997510040256202],[-89.887283407403288,29.997379900262217],[-89.886885600390087,29.997250287271015],[-89.886471202683822,29.997162233750146],[-89.885992460283774,29.997101310976745],[-89.885594454520401,29.996985606000976],[-89.885381649743294,29.996929031449667],[-89.885212230060347,29.99688399070368],[-89.884927332030713,29.996686032834191],[-89.884675414838512,29.996418856844798],[-89.884568573580793,29.996069779596723],[-89.884589206726446,29.995749943804924],[-89.884660825136962,29.99522192305335],[-89.884616711591946,29.994957035838581],[-89.884509667087457,29.994621873800497],[-89.884306923925351,29.994271742546914],[-89.884057034704369,29.993865428846505],[-89.883981157104699,29.993586273887502],[-89.884018380943473,29.993224868732739],[-89.884070580292985,29.992933208700663],[-89.884219291287252,29.992600863339248],[-89.884383782685404,29.992282604958291],[-89.884680996031079,29.991631825848117],[-89.884700412394068,29.991395469625274],[-89.884624536593037,29.991116315565534],[-89.884437173636627,29.99080809991392],[-89.883995892496387,29.990371848681946],[-89.883539238345122,29.989893676452084],[-89.883178084101246,29.989444386849016],[-89.882927403476856,29.989093724096165],[-89.882741063948913,29.988715940488305],[-89.882506167325744,29.988379368313247],[-89.882288673483458,29.987945574928403],[-89.881976695967694,29.987413327363242],[-89.881915515088906,29.987309570780099],[-89.881695881759526,29.986937088675745],[-89.881444603985244,29.986628166157004],[-89.880970374383253,29.986261118655761],[-89.880478137655871,29.986033030799774],[-89.879839421152326,29.985984230887595],[-89.879215470617453,29.986019087710758],[-89.878573506661951,29.986192899682635],[-89.877994863072445,29.986409159655068],[-89.876048901935235,29.987094228116177],[-89.875852154553229,29.987167481494112],[-89.875423724725067,29.98732699244681],[-89.874954307395342,29.987725357938984],[-89.874434903048325,29.988262324246932],[-89.87431387138804,29.988384744460461],[-89.874255246382461,29.988444042158847],[-89.874013022083261,29.988689044463854],[-89.873637866294473,29.989199775749114],[-89.873540299745002,29.989364364274024],[-89.873473956757664,29.989476278607412],[-89.873306788077798,29.989975398745685],[-89.87304106629216,29.990654335629131],[-89.87271120216019,29.991346474560203],[-89.87259159952265,29.991515083954027],[-89.872579388527924,29.991532296078674],[-89.872562164712122,29.991556579572546],[-89.872319434993869,29.991898766215115],[-89.871930107688286,29.992284092436989],[-89.871710851174782,29.992416776613027],[-89.871478472653337,29.992557397306086],[-89.870914743420656,29.992843371824222],[-89.870416374216234,29.993032658430479],[-89.870122470375691,29.993063450318004],[-89.869936031022974,29.993082983592842],[-89.869646284748228,29.993005910794182],[-89.869553838039167,29.992981320631486],[-89.869369667675983,29.992901385290736],[-89.869221685132629,29.992837157508859],[-89.86909315672375,29.992781373461639],[-89.868960459957236,29.992672348650046],[-89.868698250923501,29.992456911557269],[-89.86835334203306,29.991993847937806],[-89.868182147987682,29.991678547427057],[-89.868167466555292,29.991651510209067],[-89.868101432934736,29.991529890392201],[-89.868026466348283,29.991391819277112],[-89.86787173619166,29.991042198838443],[-89.867728189104582,29.99066035659024],[-89.867656345863622,29.990469244360213],[-89.867377840215113,29.989839920376085],[-89.867114705778988,29.989252520087803],[-89.866801373884243,29.988817633127326],[-89.866362558685125,29.988345427899219],[-89.866042585297009,29.988119559570066],[-89.86593353710299,29.988042581200204],[-89.865393990640143,29.98777216135619],[-89.86518589381393,29.987725632232184],[-89.864915654733636,29.987665206783902],[-89.864804449066014,29.987640341428687],[-89.864169556479794,29.98759742667994],[-89.863653236807409,29.987655323234605],[-89.863076398157204,29.987746294156182],[-89.862935021134263,29.987801003513539],[-89.862753269048085,29.987871337692127],[-89.862272511267349,29.9880573795445],[-89.861703251204062,29.988413171131015],[-89.86164104599743,29.988452049722355],[-89.861060198169582,29.988962281883857],[-89.86022252914637,29.989694178043919],[-89.860106979753255,29.989795135936845],[-89.85997511755761,29.989910346285512],[-89.85947119324095,29.990475260824667],[-89.859411294795393,29.990590384838413],[-89.859240839992708,29.990917994370022],[-89.859201460478971,29.991071871969382],[-89.859123277916922,29.99137737166842],[-89.859088140505264,29.991514672064511],[-89.859095156116553,29.99156297105435],[-89.859175202073857,29.992114035134648],[-89.859345269268715,29.992505589161681],[-89.859568282250393,29.992830327157947],[-89.859595670203987,29.9928702084934],[-89.859958168035007,29.993222166270016],[-89.860591170246266,29.993660646921342],[-89.861732803825817,29.994299635020184],[-89.862413375676681,29.994668008122119],[-89.86246823971743,29.994697705534747],[-89.863255415405035,29.995123773743217],[-89.863753006695845,29.995433059588095],[-89.864213243746178,29.995719123139054],[-89.864241387130278,29.995738632132202],[-89.8647569441776,29.996295561590955],[-89.86503934568924,29.996660528061],[-89.865178089497192,29.997009975829769],[-89.865235678483714,29.997442013738009],[-89.865135466128834,29.997733131478867],[-89.864991013424515,29.998105384256121],[-89.864759002725748,29.998327318950658],[-89.8644845943885,29.998505164381868],[-89.864369718587625,29.998553969690022],[-89.864285898175638,29.998589579245731],[-89.864237673829564,29.998610068499886],[-89.864171843455779,29.998638034717601],[-89.86406288339532,29.998684326420573],[-89.863951373756834,29.998731701806662],[-89.86314941951008,29.999060815903988],[-89.862360457768887,29.999298589458363],[-89.861894495634431,29.999477932260788],[-89.861542481200502,29.999613415127044],[-89.860721480212078,29.999993881412536],[-89.860463658970673,30.00013015658152],[-89.860172221970458,30.00037738290996],[-89.859751257414587,30.000734488405953],[-89.859327822421051,30.00125855573782],[-89.859034117330623,30.001658830490669],[-89.858691631213787,30.002114220195153],[-89.85852724683491,30.002418532789136],[-89.85834482025723,30.002861798733079],[-89.858260157180496,30.003180917765178],[-89.858270578524355,30.003322673402693],[-89.858273468046093,30.003361975574762],[-89.858285005448579,30.003386979425613],[-89.858428386161052,30.00369769429318],[-89.858584337597051,30.003963845055466],[-89.858613634811377,30.004145081830131],[-89.858738434630993,30.004355218318722],[-89.858831884084168,30.00452325664304],[-89.859020015061617,30.0047758528234],[-89.859048697139599,30.004998828932855],[-89.858930418304112,30.005428899124468],[-89.858764177724595,30.0058584333201],[-89.858598965070144,30.006218397760904],[-89.858370423056556,30.006535905207897],[-89.85804411034735,30.006977560466112],[-89.85783093235159,30.007336987112296],[-89.857587221473068,30.007598660150109],[-89.857393530886725,30.00772173147277],[-89.857195712412135,30.007878682055605],[-89.856891972686356,30.008119670686312],[-89.856471786943359,30.008421109046992],[-89.855781265892688,30.008622100329717],[-89.85528279236695,30.008811329379398],[-89.854883330601183,30.008792928350999],[-89.854484280724932,30.008746698701259],[-89.854104313563198,30.008491941449961],[-89.853944032790821,30.008517974125255],[-89.853702168220423,30.008654414769467],[-89.853459065283573,30.008874336781275],[-89.852402155934726,30.010059226851865],[-89.852142644867115,30.010306796721352],[-89.852027016333693,30.010555982672486],[-89.851909319359549,30.010944306334693],[-89.851617829299357,30.011191514676739],[-89.851503025444231,30.011385046083035],[-89.851498683517377,30.011677232218517],[-89.851272174870928,30.011855589364018],[-89.851031538774464,30.011908545942674],[-89.850576448544246,30.012404396145996],[-89.850347038684845,30.012777542849392],[-89.850117422880714,30.013164604762778],[-89.84992143362723,30.013440715516651],[-89.849630137820554,30.013674005051371],[-89.849465917118323,30.013964389844773],[-89.849301485075443,30.014268687150263],[-89.8490587733437,30.014460775144698],[-89.848912190145427,30.014640031612203],[-89.848908876143696,30.014862648892176],[-89.848762293844743,30.015041903561041],[-89.848551345268334,30.015248264695686],[-89.847705058041981,30.016240667472857],[-89.846873288571373,30.017330642195418],[-89.846694514140495,30.017523447848873],[-89.846484386645102,30.017674149942138],[-89.846417943832989,30.017840391420975],[-89.846134937976956,30.018588656141617],[-89.845402386211106,30.019457087374747],[-89.845145116254059,30.019551591732636],[-89.844966751014738,30.019716566966054],[-89.844567032042846,30.020783579298779],[-89.844271342148659,30.021309041479128],[-89.844237078878052,30.021461729275416],[-89.844026936993487,30.021612428670721],[-89.843682445388481,30.022193001305993],[-89.843728331497289,30.022332680408908],[-89.843741826723885,30.022499825706461],[-89.843674130256886,30.022749546754255],[-89.843445143978158,30.022956631843158],[-89.842701481088454,30.023629161956308],[-89.841890577687991,30.024385356898733],[-89.841746050339907,30.024425467561343],[-89.841728395748817,30.024536594987921],[-89.841774075013518,30.024690187502188],[-89.840976647054561,30.025613522346248],[-89.840518320164335,30.026318041344609],[-89.840294257673804,30.026329416869146],[-89.84006852963887,30.026452102382677],[-89.839841130663615,30.026686093388548],[-89.838977417273952,30.027761740112282],[-89.838571834722359,30.028146783047646],[-89.837891913980627,30.028695702244931],[-89.837342412921998,30.029079106615541],[-89.83713099400012,30.029313276586493],[-89.837095881769471,30.029521617128978],[-89.836917484154526,30.029686582469878],[-89.836658929066289,30.029864550208856],[-89.836384382233405,30.03004233718417],[-89.836046290204081,30.030191569785188],[-89.835577561755031,30.030520221630979],[-89.835108407926668,30.03087669940021],[-89.834330418813749,30.031563643847164],[-89.833827809305944,30.032017148572606],[-89.833602480569994,30.032111993773526],[-89.833408501301278,30.032248945232709],[-89.833181284888326,30.032469011136016],[-89.832857913861574,30.032701897774416],[-89.832484478475862,30.033073374436754],[-89.83215900933078,30.033445394289572],[-89.831978502805612,30.033749488348235],[-89.831783889514838,30.033928177343569],[-89.831444311805512,30.034174791233681],[-89.830523820617771,30.034762678055188],[-89.830088289742719,30.035008193873125],[-89.829815394964442,30.035074657369591],[-89.828624088231038,30.035589856486752],[-89.82788345965389,30.035915375094532],[-89.827334510778996,30.036256996962891],[-89.82701468847705,30.036253339420114],[-89.826868035131668,30.036432570706609],[-89.826914536376705,30.036530514072012],[-89.826913275527204,30.036613996338929],[-89.826688137447547,30.036694916437284],[-89.826347486846998,30.037011084793789],[-89.826007884855983,30.037257686093369],[-89.82573434976041,30.037365881730125],[-89.825556130211226,30.037516918371125],[-89.824404743484081,30.038561342432047],[-89.823919313725298,30.038931511480143],[-89.823096155263329,30.03942304943422],[-89.823090674794742,30.039784800827931],[-89.822927178046768,30.040019497801609],[-89.822702237817964,30.040086497294055],[-89.822350632575592,30.040068547725355],[-89.82176564876562,30.040674136802011],[-89.821698305732184,30.04089601843657],[-89.820706707848274,30.042999859156225],[-89.820467231877217,30.04341304007977],[-89.820378205289899,30.04356664068797],[-89.820101692539026,30.043869614191408],[-89.820018983689124,30.04404957302944],[-89.819501523676365,30.044419357167669],[-89.818823503202054,30.044829037929787],[-89.817970614951889,30.045167127261152],[-89.817021766341384,30.045504104131169],[-89.81650767518903,30.045651258398891],[-89.815866912727813,30.045713460008244],[-89.815242565591916,30.045748011961223],[-89.81474785662823,30.045672729712749],[-89.814410738564675,30.045752335002305],[-89.813835217421286,30.045731781896279],[-89.813195725702144,30.045710488648183],[-89.812398431742167,30.045548206884291],[-89.811309876149835,30.045605211311511],[-89.810508333792541,30.045721189681217],[-89.81006033022004,30.045729924796262],[-89.809610836470881,30.045836053790879],[-89.808855141551533,30.04609171306214],[-89.808438903832325,30.046114724914673],[-89.807926502506064,30.04615053951585],[-89.807078041618297,30.046196374363262],[-89.806677585202351,30.046233479491548],[-89.806371594473489,30.046369091860129],[-89.806018901051402,30.046420667080156],[-89.80569947445116,30.046389129654642],[-89.805237606930007,30.046258528308499],[-89.804838430249333,30.046212148471909],[-89.804454177818002,30.046235520053244],[-89.804086774185237,30.046203423249437],[-89.803797198781638,30.046311388659717],[-89.803364754379857,30.046348112475471],[-89.802982427397069,30.04624625975714],[-89.802261047908985,30.046349202453769],[-89.801910278136802,30.046275543481613],[-89.801174188437983,30.046294816852367],[-89.799620975627477,30.046401980067401],[-89.798964848249113,30.046422170746609],[-89.798436230347704,30.046471675727332],[-89.798066686328468,30.046578696849451],[-89.797537642148427,30.04665602505554],[-89.79659364178309,30.046672845975138],[-89.796035828290826,30.046541091698089],[-89.795700196806592,30.046523257242598],[-89.795267319830884,30.046587782700044],[-89.794675591105602,30.046580871410129],[-89.794083648341655,30.046587870833605],[-89.793573599641888,30.046470580353059],[-89.793333494145429,30.046481688778954],[-89.792834495415605,30.046684592919689],[-89.792402264153111,30.046707369149829],[-89.79220948907664,30.046760776288863],[-89.791521588650369,30.046766641667205],[-89.790992536376393,30.046843944692341],[-89.790559656702783,30.046908454861352],[-89.790271141599874,30.046946820839139],[-89.789935724154304,30.046915060381764],[-89.789601170057892,30.046827643580912],[-89.789347657468397,30.046671595018154],[-89.788422883709075,30.04647984337015],[-89.788101950744419,30.046545658455443],[-89.787957371235677,30.046585710662043],[-89.787814515727291,30.046514452879762],[-89.787463540010322,30.046454670446735],[-89.786456218379726,30.046428926453871],[-89.786200334277964,30.046425920919546],[-89.785463593470013,30.046486844592266],[-89.785128612195649,30.046427243822279],[-89.784746302299993,30.046325336245332],[-89.784219410197579,30.046263475479066],[-89.783866489247032,30.046328903855851],[-89.783164546806347,30.046209314708165],[-89.78103752875893,30.046184262293934],[-89.780749227694685,30.046208696873919],[-89.780284142399239,30.046286709464141],[-89.779999310020116,30.046088526764152],[-89.779139615700672,30.045827896939954],[-89.778660922763322,30.045752667751458],[-89.778324212092684,30.045804356286055],[-89.778052775115441,30.045773318883619],[-89.777591163001716,30.045628706999253],[-89.777271963929934,30.045583187813918],[-89.776952111950379,30.045579407963373],[-89.776268130769608,30.045334750997995],[-89.775948499123899,30.045317055038083],[-89.775515833488896,30.045367603232364],[-89.77524417887571,30.045350472946041],[-89.774926068882962,30.045235381307862],[-89.774606873408459,30.045189855827232],[-89.774256346453171,30.0451022105986],[-89.773652986795867,30.044816745996059],[-89.773241541563834,30.044533552181747],[-89.772796586693062,30.044347371833794],[-89.772364359927224,30.044370082413423],[-89.770492017292725,30.044647251669403],[-89.76992742111355,30.044730824767782],[-89.767824557057622,30.045206820638327],[-89.767376114615956,30.045243239583897],[-89.766880567484179,30.045223431116483],[-89.766642212068405,30.04512318368802],[-89.766195519707424,30.045048289047372],[-89.765969655874869,30.045170845058522],[-89.765776433835299,30.045252042148093],[-89.765331929524905,30.045038009796372],[-89.764869025984751,30.044976833414182],[-89.764822578699011,30.044878868465048],[-89.764649948436329,30.044668071874071],[-89.763966441198249,30.044395524234119],[-89.763411314880216,30.044096670524993],[-89.763208454806318,30.043774184431129],[-89.762762864114848,30.043629711941719],[-89.762445652544784,30.043458933383135],[-89.762006646689372,30.042897054955176],[-89.761801380029624,30.042727612789122],[-89.761692946072571,30.042503661814578],[-89.761504770129022,30.042264842348629],[-89.760726653312361,30.041907653215674],[-89.760492483341409,30.041543038380553],[-89.760208803893136,30.041275245456291],[-89.759302104708354,30.040958259616048],[-89.758827846328018,30.040604687556311],[-89.757843178619737,30.040161514242527],[-89.757793092677048,30.040327076733263],[-89.757617977587586,30.040242316529714],[-89.757442948832988,30.040184557571308],[-89.75723461908234,30.040209896869271],[-89.757059371792536,30.040166051322274],[-89.756483893816608,30.040145245506721],[-89.7561995677558,30.039919184722635],[-89.755752243171457,30.039885994343194],[-89.755401970724336,30.039784384441816],[-89.755039454906864,30.039446055890835],[-89.754816893384884,30.039359892744926],[-89.754707377543411,30.039205502531956],[-89.75459962347378,30.038939804128688],[-89.754360634935324,30.038881273551965],[-89.753673667106,30.038831288333313],[-89.753182566222392,30.038533159477765],[-89.752577321586102,30.038372819350172],[-89.751893007656122,30.038155863302507],[-89.751544068004307,30.037970762141015],[-89.751207369924145,30.038022381427822],[-89.750951951671198,30.037991481621646],[-89.75087552908235,30.037767905664339],[-89.75070183222374,30.037626658143836],[-89.750163217458464,30.037300113409572],[-89.75016852076061,30.036966189737939],[-89.750036201709293,30.036604215312366],[-89.75001523761307,30.036546865545461],[-89.749609197306597,30.035929674315071],[-89.748989312606682,30.035685645975832],[-89.748484679624255,30.035234258254491],[-89.747871440014933,30.034572820379424],[-89.74735171460992,30.034065583859672],[-89.74691239309243,30.033531478295117],[-89.746871727548125,30.033071757455673],[-89.746799750308185,30.032783945622668],[-89.746676250008875,30.03229010000814],[-89.746634690538485,30.032278838697493],[-89.746246285038012,30.032173591038429],[-89.74599487056679,30.031892239035642],[-89.746015954272821,30.031572421230294],[-89.745669046189505,30.031262085876619],[-89.74552923128897,30.031052804643252],[-89.745341010379263,30.030771066831335],[-89.745095947819721,30.030469158125186],[-89.744821856943133,30.030131484280616],[-89.744713599253146,30.029998113022543],[-89.744318953356981,30.029673281496798],[-89.744283709825311,30.029651565567349],[-89.743305363451725,30.029048736510049],[-89.742561186149771,30.02870321967788],[-89.74152627961405,30.028289688918051],[-89.740414118616627,30.027830923158604],[-89.739987290481054,30.027519604845963],[-89.739673059264248,30.027167899778817],[-89.739711266062045,30.026778709170117],[-89.739553150857205,30.026665467437397],[-89.738979090212808,30.026561103811957],[-89.738374164835818,30.026386783723126],[-89.73775352380602,30.026160439652642],[-89.73751831152083,30.025903267721674],[-89.737060413607139,30.025535898263172],[-89.736650710361971,30.025155194556646],[-89.736196609385956,30.024551291708804],[-89.735723180180571,30.02415589937533],[-89.735324794003986,30.024067567963925],[-89.735154490287471,30.023717596789709],[-89.734891600466938,30.023157759822823],[-89.734431940781406,30.022901687762726],[-89.734376281739969,30.022629394630883],[-89.734357798873305,30.022538968698484],[-89.734089029285258,30.022277514195991],[-89.733995640086675,30.022186666481502],[-89.733534198844154,30.022041899014482],[-89.73280028280675,30.021935565873719],[-89.731818139495488,30.022063650916834],[-89.731726586712568,30.022075589416943],[-89.731568771881257,30.022062520468978],[-89.730736303637457,30.021993575742954],[-89.730544769625396,30.021977712601426],[-89.730454080191635,30.021983564489972],[-89.730000486433255,30.022012832925952],[-89.729134861984278,30.022141451267032],[-89.728177110984859,30.02203236710011],[-89.727520904466132,30.022066114159884],[-89.72679352290271,30.022200438699315],[-89.726431659093748,30.022178070761413],[-89.726297011697682,30.022224787843754],[-89.725799214462143,30.022397503541981],[-89.725747519632307,30.022415438721566],[-89.725358495398211,30.02253755676287],[-89.725306169244277,30.022553981980707],[-89.725276506905232,30.022544182967749],[-89.725131194449034,30.022496181653537],[-89.724591272069517,30.022440045072074],[-89.724524520789942,30.02243310500387],[-89.724396143467231,30.022485671276741],[-89.724071319136044,30.022618675611454],[-89.723864493051849,30.022703362070558],[-89.723596915065514,30.02275168444271],[-89.723142753834964,30.022833700814715],[-89.722548248003193,30.023007339217372],[-89.722053706313432,30.023164527221184],[-89.722022518724202,30.023174440448145],[-89.722001743485635,30.023185155870294],[-89.720453503026704,30.023983662116393],[-89.720159457093246,30.024061127019422],[-89.720100171086017,30.024076743746775],[-89.719863270773317,30.02416839185787],[-89.719681757906756,30.024238612721831],[-89.71957001714253,30.024327738234604],[-89.719450082655158,30.024423397321982],[-89.719114711075008,30.024690896167954],[-89.718769745527311,30.024821628815175],[-89.718438888543858,30.02494701679143],[-89.71798925450048,30.025017037106636],[-89.717941875517113,30.025024416044005],[-89.717684677505815,30.025132402138695],[-89.717491021993055,30.025213710744197],[-89.7172156001198,30.02543298884143],[-89.716880162889197,30.025588703755716],[-89.716748306988734,30.025649912513529],[-89.716617116586633,30.025795438109014],[-89.716487740117088,30.025938952820468],[-89.716152062767435,30.026222919152474],[-89.716082367107504,30.026281877806468],[-89.716081349074955,30.02630097580942],[-89.716059381335356,30.026712997506877],[-89.715961562975735,30.026795746826281],[-89.715897232671125,30.026850167501266],[-89.715958255269243,30.027031826957284],[-89.716230301087478,30.027021251829353],[-89.716270796659899,30.027043973200875],[-89.71635708750955,30.027092390001826],[-89.716175362403021,30.027256361591867],[-89.716113634736416,30.027312058404846],[-89.716013409791003,30.027575235109055],[-89.716017653691722,30.027607433536275],[-89.716070371950082,30.028007335969846],[-89.715891092999527,30.028308632237611],[-89.715889522783186,30.028311269949199],[-89.716175303947068,30.028440024987219],[-89.716527075564045,30.028444344431023],[-89.717005411470552,30.028533713660011],[-89.717273401346347,30.028773579936797],[-89.717345231097511,30.029275441208711],[-89.717404680781328,30.029554493645037],[-89.717397464621286,30.029999722809009],[-89.717694733724954,30.030406938529438],[-89.718141775922163,30.030454171822612],[-89.718506164128144,30.030667383093316],[-89.71865975574309,30.031058918234521],[-89.719275483776528,30.031553531870031],[-89.719593484951361,30.031668758406511],[-89.719621239828314,30.03165170905919],[-89.719771178397139,30.031559606790495],[-89.719963960668224,30.031506304872096],[-89.720047173138482,30.031608868054889],[-89.720089403503152,30.031660919915566],[-89.720081825815555,30.031695436795019],[-89.720037606150584,30.031896858853031],[-89.720008764892555,30.032129298528332],[-89.719982432743052,30.032341499860365],[-89.720230623144687,30.032817688185787],[-89.720381297358927,30.033390096775577],[-89.720788947451922,30.033896069747868],[-89.721021379932722,30.034358148609726],[-89.721477908178883,30.034809055193818],[-89.721646833234729,30.035242523024067],[-89.721859908707756,30.03591310340704],[-89.722156313563005,30.036375963779733],[-89.722532002649757,30.036881540151001],[-89.722832686479251,30.037080044808249],[-89.723083599128756,30.037389265901936],[-89.723457500363338,30.038006147765543],[-89.723787922074905,30.038344173245036],[-89.724037492036587,30.03873687570632],[-89.724300810833711,30.039268905635538],[-89.724762093795562,30.039427617090894],[-89.724835315697248,30.039845996995211],[-89.725038265703347,30.04015462993226],[-89.725464877102354,30.040479908421105],[-89.725835520992462,30.040953442847183],[-89.726312496224693,30.041478299783762],[-89.726580768487622,30.041704230166147],[-89.726927431056083,30.042028529293248],[-89.727414437326388,30.042577198478966],[-89.72788052536589,30.043431763964804],[-89.728289376953171,30.043868144699161],[-89.7282378134243,30.044090174721816],[-89.729073981479019,30.04481008471771],[-89.729127874251958,30.045436966143143],[-89.729336150942572,30.045683508087507],[-89.729347305233887,30.045696710135132],[-89.729567378331808,30.045957214054226],[-89.729721932221366,30.046293081160798],[-89.729700120064479,30.046654635602977],[-89.729792493928414,30.046878417505013],[-89.730125203515286,30.047077295380916],[-89.73016803552639,30.047397885703901],[-89.73002141815391,30.047563093861754],[-89.730180002804843,30.047648522261568],[-89.730082255491652,30.047758659534566],[-89.730337716912061,30.047843149941457],[-89.730759208470658,30.048434870572862],[-89.730833356674054,30.048797591435743],[-89.730699149945792,30.049185607529807],[-89.730869034578234,30.049563410922701],[-89.730980452485881,30.04973020548465],[-89.731009615701169,30.04977386127473],[-89.730970026645366,30.050246526955732],[-89.730630142267216,30.050658369688051],[-89.730594801608788,30.050701192705958],[-89.730735608461544,30.050897731445218],[-89.730571649462036,30.051146225817718],[-89.730648932702024,30.051314158921343],[-89.730998322014898,30.05147148721943],[-89.731034978381501,30.051759226207366],[-89.731040936390059,30.051805990054447],[-89.730863666524954,30.051887331035573],[-89.730826765542758,30.051880443128027],[-89.730624436068808,30.05184267160206],[-89.73061996194167,30.052120940728855],[-89.730723140260693,30.052281101891367],[-89.730791641620954,30.052387434132811],[-89.73071579909481,30.052557957283966],[-89.730693006676859,30.05260920155348],[-89.730609224036414,30.052788780877563],[-89.730783812123207,30.052874401732311],[-89.730968163250111,30.052844653058344],[-89.731024386166439,30.052835580697547],[-89.731165866611434,30.052990377404058],[-89.731171014330812,30.053027408787955],[-89.731237561464241,30.053506144892708],[-89.731134667330991,30.053936291526668],[-89.731170379409434,30.054103770472693],[-89.731194169175524,30.054215336768436],[-89.731185546475729,30.054341268834548],[-89.731184966413025,30.054349736850952],[-89.731173566606799,30.054516213952184],[-89.730980303198407,30.054507152383223],[-89.730917578183664,30.054504210700827],[-89.73072296759085,30.05466883519864],[-89.7307476117129,30.054844351385782],[-89.730766028929054,30.054975514808234],[-89.730516297988743,30.055228915881798],[-89.730440781017194,30.055305540818097],[-89.730647806750824,30.055363725155814],[-89.730713145195466,30.055422175692911],[-89.730726658408514,30.055434264379869],[-89.730643332623686,30.055641992484027],[-89.730640200284995,30.055836778444643],[-89.730361318719872,30.056016311003987],[-89.730300745782756,30.056055305607913],[-89.73037422758847,30.056459767604224],[-89.730249524895612,30.056920447121001],[-89.730782468536063,30.05693787957955],[-89.730839007114469,30.057066004192791],[-89.730844399449438,30.057078223281451],[-89.730875079821033,30.057147748070179],[-89.730868369079928,30.057565148612753],[-89.730542805506047,30.057678529740429],[-89.730482267642515,30.05769961164782],[-89.730320981428122,30.057781144184503],[-89.730543784867734,30.057853436187202],[-89.73061825233043,30.058057233354702],[-89.730635723459841,30.05810504491194],[-89.730536177502529,30.058326491274613],[-89.730434392233406,30.058687069053065],[-89.730222210686463,30.058948893176932],[-89.729934307122562,30.058945388518907],[-89.729688199550708,30.058987844613398],[-89.729632524321516,30.058997448473519],[-89.7296256624943,30.059011828633061],[-89.729579743110605,30.059108065085184],[-89.729510840652722,30.059413378624583],[-89.729527886402821,30.059466386464635],[-89.729592428947399,30.059667047696166],[-89.729593522523032,30.059670449831458],[-89.729579084806858,30.05970798933231],[-89.729548122947506,30.059788488547952],[-89.72950852130117,30.059891450130351],[-89.729514527873107,30.059906059616992],[-89.729583060709672,30.060072751656207],[-89.729394569104045,30.06016108936285],[-89.729273928648865,30.060217627041879],[-89.729154740598744,30.060398244183659],[-89.729109950763586,30.060466117817157],[-89.729075338556015,30.060461384685198],[-89.72877472937023,30.060420286567023],[-89.728833557622522,30.060741074740861],[-89.728408507446602,30.061306454229509],[-89.728369047893182,30.06143601506011],[-89.728290270879256,30.061694663677827],[-89.728065666097564,30.061733675368885],[-89.727776860513643,30.061785818960402],[-89.727673900729883,30.061784563506876],[-89.727313005490771,30.061780164023389],[-89.727326981854674,30.061905578979349],[-89.727517128212867,30.062019225406971],[-89.727538693056204,30.062212702854026],[-89.727545085437328,30.062270056218154],[-89.727397318731221,30.062504828734916],[-89.727170695870882,30.062669057531025],[-89.726976516952675,30.062711572081412],[-89.726951734335046,30.062717000389284],[-89.726925126093647,30.062720451987332],[-89.72672283079396,30.062663595948266],[-89.726707567500227,30.062658557046802],[-89.726547782254329,30.062605797419678],[-89.726544025786097,30.062838820755019],[-89.726543521266478,30.062870150437163],[-89.726588010728051,30.063049276502966],[-89.726633659415825,30.063233065553561],[-89.726215539415591,30.063367125692366],[-89.726096500652943,30.063365673287251],[-89.726070314193635,30.063365354027894],[-89.725863643692151,30.063362832328892],[-89.725751529709271,30.063476574084689],[-89.72553835261283,30.063692848446237],[-89.725303312098163,30.063645391221883],[-89.725171583901442,30.063618791973738],[-89.724801248478798,30.063734460976661],[-89.724785673120266,30.063739324510266],[-89.724575714697437,30.063862004627879],[-89.724400439528608,30.063818115014044],[-89.724307388475154,30.063636071547535],[-89.724254977784938,30.063609899477342],[-89.724164553651178,30.063564745416727],[-89.724120911350951,30.063668510093692],[-89.724094260841412,30.063731877224427],[-89.724048094144166,30.06384164307741],[-89.723858202294139,30.063951816323311],[-89.723853300988992,30.063954659979629],[-89.723531298730393,30.064141482443517],[-89.723476254825243,30.064243007808614],[-89.723366401738019,30.06444562146828],[-89.723043185394658,30.064542261716042],[-89.723032521233847,30.064545450712046],[-89.722943580082131,30.064610993302722],[-89.722818286534675,30.064703325797893],[-89.722733174696202,30.064709007714612],[-89.722465934854995,30.06472685026398],[-89.722426509475781,30.064851864122261],[-89.722347895239125,30.065101140005652],[-89.722227720632759,30.065146893014742],[-89.722150088455805,30.065176448334455],[-89.721993744016061,30.065235969064759],[-89.722059036595226,30.065383956104768],[-89.722086342710497,30.065445844750002],[-89.722109435502034,30.065930294247721],[-89.72211023679796,30.065947113368622],[-89.721880898884365,30.066278293208711],[-89.721621591962844,30.066483862040627],[-89.721026599597849,30.066671406660134],[-89.71984944549547,30.067241468918724],[-89.719302433760276,30.067429590902975],[-89.718857254059003,30.067257145001292],[-89.718766838918441,30.067251892061222],[-89.718742163320144,30.067250459441198],[-89.718553556601307,30.067239506598014],[-89.718446342124935,30.067314123348183],[-89.718396911788034,30.067348526013689],[-89.718278471074541,30.067430958771808],[-89.718108435355987,30.067477952845309],[-89.718103942343021,30.067479193909719],[-89.717989191547929,30.067510907602355],[-89.717721953505304,30.067749437486611],[-89.717696979332118,30.067771729881485],[-89.717360841529569,30.067781522599262],[-89.717099389725036,30.067756623969046],[-89.71702537641994,30.067749575982191],[-89.71698086717322,30.06777641175205],[-89.716799174442315,30.067885959969146],[-89.716431041459373,30.067895357884538],[-89.7161826271265,30.06771223792947],[-89.716162272770646,30.067697233640445],[-89.716102901327815,30.067691803533933],[-89.71598654254484,30.067681160057532],[-89.715809401282797,30.067760172693852],[-89.715741520454742,30.067790451068504],[-89.715663348684529,30.067825194577097],[-89.71564201136971,30.067834676129451],[-89.715611429024193,30.067848268482862],[-89.715543520317169,30.067878450630019],[-89.71553353154718,30.067898163769314],[-89.715474693402314,30.068014291426437],[-89.715411255225206,30.068139498639027],[-89.715406370107871,30.068149142069331],[-89.715386335910637,30.068188684360337],[-89.715159681573994,30.068352892472035],[-89.715051223335252,30.068262779503698],[-89.714938674080486,30.068169268896668],[-89.714782518498396,30.068089092537662],[-89.714716536139179,30.068055212378226],[-89.714638621575091,30.06811509553529],[-89.714538321086593,30.068192182723124],[-89.714568014002623,30.068354211777489],[-89.714597107970121,30.06851297449424],[-89.714332181185171,30.068659337358611],[-89.714159530238078,30.068754721253413],[-89.714128928107527,30.068771626709236],[-89.713579407263808,30.069112772836263],[-89.713162377241872,30.069177223650001],[-89.712759983686283,30.069325350984229],[-89.712350689632558,30.069381208775837],[-89.712198759964735,30.069401943544904],[-89.711898388200041,30.069523958164211],[-89.711167983115899,30.069820652601095],[-89.710686281946323,30.069926048648256],[-89.710173269081054,30.06998930786034],[-89.709177642234351,30.070213610469807],[-89.708525430504153,30.070142424633218],[-89.708315204083362,30.070119479330572],[-89.70798155110765,30.069976201140832],[-89.707804135552351,30.069986859006406],[-89.707597188059765,30.069999290335033],[-89.707129207846606,30.070244005756308],[-89.706616870372216,30.070265510345052],[-89.70610294469509,30.070384407914162],[-89.705574383450994,30.070419627164085],[-89.704096804523886,30.070763178977586],[-89.703325182611025,30.07064809992994],[-89.703282810153553,30.070641780393885],[-89.702560924347154,30.070758091512744],[-89.702067087725879,30.070626732038079],[-89.701865169242126,30.070724545901101],[-89.701534876133564,30.070884546984303],[-89.700944605209315,30.070779820932046],[-89.700763630137374,30.070704601636123],[-89.700473096955818,30.070583846067677],[-89.699908488186168,30.070544321763066],[-89.699852134868081,30.070550611621456],[-89.699347474006686,30.070606943355813],[-89.69899851456978,30.070460453687019],[-89.69882552367892,30.070472319342116],[-89.698789656917086,30.070474779887206],[-89.698762417351645,30.070495332993289],[-89.69833605056823,30.070817051965435],[-89.697419461538857,30.071097911139759],[-89.697018179545296,30.071176424652322],[-89.695912207682227,30.071243438533941],[-89.695559758875731,30.071325293927202],[-89.694400004856277,30.071797933527876],[-89.69369272403992,30.071997876201067],[-89.693034344759155,30.072142756083394],[-89.691996232140355,30.07240749401069],[-89.69194176380131,30.072421384938991],[-89.691380087720859,30.0725852045436],[-89.691346908133255,30.072594881248847],[-89.69042982357746,30.072903519581814],[-89.689943497194577,30.073287103816824],[-89.689669028602736,30.073436755501916],[-89.689316640050833,30.073460190935123],[-89.688963331492516,30.07353927911447],[-89.688593339610918,30.073659905180534],[-89.688463069215231,30.0737974402997],[-89.688174205175414,30.073849498455616],[-89.687993204023087,30.073889065927688],[-89.687933334355876,30.073902153761424],[-89.687904652277837,30.073926394987211],[-89.687592576735994,30.074190134667049],[-89.687383941215899,30.074244584120322],[-89.687287254203397,30.074269817298273],[-89.687253071871737,30.074291186089397],[-89.686850740369323,30.074542685996221],[-89.686594329264835,30.074567311232499],[-89.68616588774546,30.074642292208068],[-89.686000600447301,30.074671218002379],[-89.685828047526343,30.074765292484301],[-89.685726121962944,30.074820861593537],[-89.685675640318493,30.074820780654534],[-89.685472512246633,30.074820454200676],[-89.685211685470847,30.074967505046345],[-89.685175357356798,30.075002921247858],[-89.684995161097788,30.075178586722473],[-89.68478885841904,30.075379698514325],[-89.684282217250484,30.075638931691401],[-89.684232831879626,30.075664199043615],[-89.683999027033451,30.075783829560123],[-89.683965867230938,30.075800796169858],[-89.683946201755759,30.075829382919721],[-89.683774676759867,30.07607871096377],[-89.683605178835876,30.076325091929505],[-89.683534509210176,30.076727774167523],[-89.683562845948529,30.077254545760752],[-89.683571215039478,30.077410123078778],[-89.683497274579508,30.077517601955833],[-89.683390868593676,30.077672270059281],[-89.683187378094999,30.078365527746939],[-89.683231914321368,30.078574827866078],[-89.68306732939368,30.078851087008104],[-89.683109562456309,30.079199519442341],[-89.683298311268004,30.079396706592775],[-89.68321486587331,30.079604405019325],[-89.683160191589536,30.080007286906834],[-89.683235572763408,30.080286552482448],[-89.683346225347975,30.080418788796123],[-89.68337678880772,30.080455314761025],[-89.683352710359259,30.080509726442756],[-89.683260427326843,30.080718263037454],[-89.683352265194856,30.080969903238497],[-89.683791597504182,30.08125505487692],[-89.683811371797333,30.081267889101866],[-89.683822749120566,30.08130177465722],[-89.683872370113761,30.08144956384632],[-89.683723781427318,30.081726024436534],[-89.68343097745759,30.08201459529738],[-89.683441216239089,30.082362627533257],[-89.683451916372803,30.082682832047112],[-89.683237950570913,30.083041968212342],[-89.683216883052694,30.083347860015806],[-89.683134124740036,30.08351381640955],[-89.683080599789832,30.08384713213951],[-89.68310660638474,30.084209275637591],[-89.683054693019642,30.084445199286563],[-89.682986320262444,30.084708748310163],[-89.682975259500608,30.085376581264256],[-89.6830972714219,30.085687761980694],[-89.683128793558922,30.085768155076323],[-89.683122799577518,30.086130096227009],[-89.683119576407307,30.086324685236093],[-89.683178045830118,30.086659401210454],[-89.682996525768999,30.086991115247827],[-89.683099990971755,30.087507304518567],[-89.683125309585307,30.087911188250814],[-89.682904413607787,30.088687723159921],[-89.682848811223607,30.08914625599499],[-89.682727136548067,30.089729207337086],[-89.682622608346662,30.090242792171182],[-89.682667458436413,30.090547032819359],[-89.682694541519822,30.09073075801814],[-89.682650320056212,30.09079455142745],[-89.682579779932837,30.090896311515621],[-89.682604792776942,30.091026591803825],[-89.682609239924432,30.091049756541111],[-89.682590016915697,30.091244341952859],[-89.682479468652502,30.091492844419292],[-89.682423795221951,30.091617994075193],[-89.682441472296091,30.09190004125395],[-89.682449109338904,30.09202187690812],[-89.682414740847548,30.092186531083598],[-89.682409892602436,30.092209758773379],[-89.682362193460449,30.092438269310719],[-89.682230508431189,30.092659275904907],[-89.682003108556557,30.092875383891908],[-89.681840283602185,30.093030120343826],[-89.681689827023888,30.093417883728421],[-89.681568369984234,30.093986919860527],[-89.681690143585229,30.094364180962259],[-89.681538990931642,30.094793684580907],[-89.681690461045889,30.095310478196041],[-89.681699540601301,30.095728073891564],[-89.681512465427886,30.096393699010036],[-89.681329540625768,30.096808889019087],[-89.68122592343758,30.097266817509649],[-89.681213686362526,30.097642619011708],[-89.681193312221524,30.098268367291382],[-89.681058614463439,30.0986702428375],[-89.680991647346616,30.098726817388751],[-89.680863834798117,30.098834792691605],[-89.680861296911303,30.098987837518735],[-89.680625051305014,30.099722426249002],[-89.6806645855022,30.100109151815957],[-89.680666360763894,30.100126509630741],[-89.68064736078702,30.100307180731875],[-89.680430322901032,30.100524830156814],[-89.680386957591963,30.100568318673027],[-89.680125167642359,30.100912935283816],[-89.680149104897225,30.101311753134951],[-89.680162782686239,30.101539627851594],[-89.680055779550571,30.101898517602535],[-89.679993302748699,30.102108062337265],[-89.679938140133004,30.102538767450199],[-89.679789046027622,30.102843050366516],[-89.679747807615172,30.103399174032688],[-89.67967871899765,30.103704460592439],[-89.679731411175624,30.104387007354546],[-89.679615932828995,30.104594299287555],[-89.679741868492385,30.104721123481113],[-89.679764419892024,30.105016240507155],[-89.679691703409333,30.106107328590383],[-89.679673861759284,30.106375019891289],[-89.679499963452542,30.106609342747049],[-89.679184867987203,30.106825448036034],[-89.678949660198612,30.106986760330756],[-89.678984109628914,30.107148638299066],[-89.679044284166366,30.107431399539507],[-89.678274400643033,30.107911364118195],[-89.67825404538786,30.107924053552267],[-89.678255381780389,30.10792966172454],[-89.678381187042135,30.108457792193406],[-89.678172794338934,30.108721244090191],[-89.677898800589162,30.108762259470723],[-89.677817918262292,30.108774367942772],[-89.677785495004571,30.108847383000352],[-89.677535238860173,30.10941095395242],[-89.676698248825062,30.109692672878623],[-89.676319327574845,30.109762232740877],[-89.676301237711925,30.109744235508117],[-89.675985736652365,30.109430342436383],[-89.675903675314316,30.10934869748445],[-89.675899640955606,30.109429461100774],[-89.675877613860735,30.109870228728141],[-89.675874426663427,30.109934018540173],[-89.675618900491827,30.11011049700187],[-89.675378394797065,30.110135303901188],[-89.674777692636383,30.11045236168718],[-89.674645153251163,30.110402968222445],[-89.674494541090155,30.110346838835596],[-89.674418610430507,30.110399899735626],[-89.674060323225319,30.110650275489888],[-89.673650584007191,30.110555713575366],[-89.673518352190172,30.11052519777968],[-89.673076891185531,30.110490072059235],[-89.672907666655476,30.11043864972396],[-89.672670906636995,30.110366705758906],[-89.67224848428009,30.110404524049613],[-89.672091983358314,30.110418535487099],[-89.671618009163751,30.110294304938293],[-89.670902301699812,30.110404442211291],[-89.670709877358888,30.110437239586986],[-89.669981158503617,30.110561442256824],[-89.669776782172733,30.110596274798297],[-89.669092906212597,30.110824146816981],[-89.668336586264388,30.111317172249755],[-89.6680449100445,30.111489248530063],[-89.667649737145609,30.111722379784055],[-89.667345256378439,30.111889587134783],[-89.666860394991204,30.112155851211639],[-89.666702070244298,30.112421421911165],[-89.666593263967911,30.112603930327168],[-89.666545520759144,30.112684011358112],[-89.666157856300003,30.112924867788479],[-89.665892648926558,30.113089639775126],[-89.665780559225368,30.113262276333046],[-89.665359429194268,30.113910876385887],[-89.665301558719932,30.114000001898603],[-89.665264367256725,30.114057280619079],[-89.664577486661642,30.114462472864886],[-89.663790589763892,30.114748141613518],[-89.663446646745342,30.114980289908488],[-89.663032725679727,30.115329806025784],[-89.662246310818546,30.115585907763489],[-89.660904508835984,30.116514915530956],[-89.660152678303405,30.116746886659541],[-89.659708111939779,30.116884052157332],[-89.659156393153012,30.117304720836273],[-89.658640245251092,30.117698263264288],[-89.658229138164131,30.117811619210897],[-89.65782030006676,30.117924349229384],[-89.657631957748606,30.118146634659524],[-89.657473349715303,30.118333824946092],[-89.656956899641159,30.118711580674983],[-89.655854992713728,30.119525335825642],[-89.655093562817626,30.120313855100392],[-89.654644095148853,30.120751581220532],[-89.654292140969517,30.121456618228422],[-89.653840673208492,30.12201257282203],[-89.653282711328018,30.122833234766006],[-89.653064212943036,30.123119390047862],[-89.652343749864144,30.124062925463704],[-89.652306381234496,30.12428197783106],[-89.652268265268162,30.124505412594772],[-89.651745275324174,30.125267389278633],[-89.651158911954212,30.126097848436984],[-89.651083275372798,30.126204970283197],[-89.651064453461743,30.126251753016049],[-89.650763781323406,30.126999101327499],[-89.650130465248708,30.12803723732867],[-89.64999426112621,30.128260500321858],[-89.650022268712689,30.128615619215509],[-89.650222786052723,30.128825123480738],[-89.650112287252227,30.129326289576682],[-89.649557740996897,30.130406918544509],[-89.649479253564664,30.130559864446241],[-89.649100219899196,30.130850655733241],[-89.648586674635283,30.131051035476958],[-89.648170870389322,30.130989979603953],[-89.648145631815396,30.130986272598477],[-89.648040418330595,30.131112916028314],[-89.647416556828603,30.131863849936792],[-89.646452442226405,30.132561035863148],[-89.645865363895382,30.133085661673988],[-89.645620826539869,30.133466854611697],[-89.644207612091577,30.134572160976518],[-89.643825541415595,30.13504027698724],[-89.642457513403485,30.136263378352282],[-89.64211850226701,30.136566467868249],[-89.642040611984612,30.136751683243631],[-89.64156654426057,30.137878950153492],[-89.640948266649161,30.140236080430839],[-89.640704696964178,30.140558150138588],[-89.639711472206614,30.140959280146717],[-89.637968082460986,30.141469010486503],[-89.635611034921283,30.142059508039893],[-89.634828372031734,30.142078989154072],[-89.633803626036467,30.142331853332394],[-89.632332236243656,30.142845014585816],[-89.631678521746323,30.143280030149299],[-89.631024807248991,30.14371504031692],[-89.63092669750904,30.143719005427783],[-89.629470385749642,30.143777857062503],[-89.62946783797031,30.143798304048516],[-89.629428874842688,30.144047096096642],[-89.629387140004496,30.14431360568841],[-89.629353137537237,30.144398606010895],[-89.629306138067761,30.144475605964487],[-89.629268138114071,30.144525605572312],[-89.629207139797643,30.144568604857284],[-89.629160664632934,30.144603172098755],[-89.629143766371669,30.144620953494268],[-89.62898467989902,30.145028147630967],[-89.628966140375042,30.145075605754641],[-89.628955136270463,30.145137605915806],[-89.62897121704799,30.14517518408752],[-89.628947205149359,30.145297996405475],[-89.62864914913888,30.145535363466308],[-89.628418577355433,30.146671595717635],[-89.628381483918304,30.14685400700688],[-89.628193674898114,30.147010664410686],[-89.627944664314782,30.147218655116887],[-89.627667141625238,30.147674545743769],[-89.627384265271587,30.148139111231046],[-89.627352073139605,30.148500556855254],[-89.627138515629952,30.148621627186401],[-89.627148610519896,30.148781444807867],[-89.627077694479965,30.148873629814204],[-89.627034777932636,30.148930020903776],[-89.626837401025227,30.149118789500562],[-89.626894491787311,30.149206305226869],[-89.626916101596748,30.149240030702913],[-89.625340394943237,30.153587868785166],[-89.62536684040731,30.153602373051115],[-89.62601575252495,30.153933164384057],[-89.626165257620528,30.154009521322394],[-89.626211665336029,30.154033017909512],[-89.626247408890777,30.154051257059905],[-89.626280063274237,30.15406795027576],[-89.626387979221818,30.154123277467306],[-89.629704029617244,30.155371642587284],[-89.632910261998973,30.156396146664861],[-89.633263714448844,30.156509169862375],[-89.637323879193616,30.157478889938886],[-89.639010833782891,30.157835915395253],[-89.639570043023014,30.157920224139104],[-89.639835989639153,30.157960100078583],[-89.640757671529286,30.158096965202844],[-89.642858407789276,30.158242611307514],[-89.645981421405452,30.158256985171761],[-89.647328477227404,30.158090417239009],[-89.648864272867854,30.157998258313],[-89.648972205902567,30.157991801180742],[-89.649434859431153,30.157963956371532],[-89.649554999863312,30.157973931651668],[-89.649755807684357,30.15799095491866],[-89.64980532345686,30.15799489844585],[-89.649842699281123,30.157998993059152],[-89.651182561426026,30.158114008254927],[-89.653051260906921,30.158449969790297],[-89.653217186723737,30.158479802101226],[-89.654081390243903,30.158715875037672],[-89.654639120998581,30.158868498082768],[-89.65510611015884,30.158994959849565],[-89.656143739841696,30.159516142156292],[-89.656374791863129,30.159632067465964],[-89.6566907722613,30.15979004777256],[-89.656974419333949,30.159932548948007],[-89.657265588336202,30.160205307928663],[-89.657875585889542,30.160776182275015],[-89.657989828567679,30.16088875671079],[-89.658084667473361,30.160982210660563],[-89.658602759709538,30.161493161380349],[-89.659255263719388,30.162135372649402],[-89.660061003212718,30.162954799824206],[-89.660510499659779,30.163411924320883],[-89.661228129874246,30.164141725060631],[-89.661260516259802,30.164174673522439],[-89.661322584769437,30.164236625120225],[-89.662306410712233,30.165200886311879],[-89.662933084394297,30.165608039079814],[-89.663469551578487,30.165956502090978],[-89.663639683524536,30.166067120501282],[-89.663890844386913,30.166184189748606],[-89.664563473425517,30.166498216819321],[-89.666869449365549,30.167570153839563],[-89.673769584098977,30.170747226603282],[-89.675048697039699,30.171336073001441],[-89.675369768499991,30.171483827116958],[-89.675735929269706,30.171652030017242],[-89.676020869567424,30.171783061239353],[-89.677799024405431,30.172600504509717],[-89.677825469869504,30.172612637263455],[-89.6780585876337,30.172716490073981],[-89.68008406053093,30.1735926986442],[-89.68087388831924,30.173934317814542],[-89.683214837095022,30.174841589867526],[-89.683612474136339,30.174932436682639],[-89.68472937096368,30.175188033900668],[-89.685324973068987,30.175323826133706],[-89.68561386049123,30.175343400777365],[-89.687444545629262,30.175466583616014],[-89.689003522194753,30.175265172349896],[-89.689418766163101,30.175213703249881],[-89.690517267357961,30.174967064178702],[-89.691158753773436,30.174822893861517],[-89.692753148339079,30.174069915794007],[-89.693878268567175,30.173194769323175],[-89.694078061952951,30.172980924929789],[-89.694817373922604,30.172172960513763],[-89.694996162742655,30.171977566611474],[-89.6957680895257,30.170520743137843],[-89.696755212383096,30.169155038074621],[-89.696929081012229,30.168914481118463],[-89.697176711136251,30.168697043034172],[-89.698048368237551,30.167931649825846],[-89.69827165011651,30.167735584129957],[-89.698865001218792,30.16739181557989],[-89.698866239585243,30.16739109882019],[-89.700102553789804,30.166674803199669],[-89.700131958922725,30.166657993971285],[-89.701782262541371,30.166001657050856],[-89.708093966363435,30.163491180673475],[-89.710761137016846,30.162507139792694],[-89.711799253232925,30.162123998024128],[-89.71383533453303,30.161372571287188],[-89.714463455224234,30.161296522816315],[-89.714636465000808,30.16127573948387],[-89.714844905368068,30.161250881323156],[-89.715822232809785,30.161171582702423],[-89.717073856173499,30.161068808178982],[-89.720722112535441,30.161668745915961],[-89.722431399989091,30.162446180147128],[-89.722796244151311,30.16261242882058],[-89.723071261329608,30.162737505631412],[-89.72312942947957,30.162764130959943],[-89.723336699828792,30.162897421279013],[-89.723552548811028,30.163036541003635],[-89.723767697221433,30.163175956605187],[-89.72524913513945,30.164130745237742],[-89.726753554333015,30.165361182372692],[-89.728178269311627,30.166719281869405],[-89.728311797951051,30.166846548529463],[-89.729425835833638,30.167926980545758],[-89.73384748307484,30.172209926247149],[-89.735068645501542,30.173342522539429],[-89.736778691083714,30.174676265697144],[-89.737867387869642,30.175358003968768],[-89.739011715817981,30.175944896140095],[-89.740103159133469,30.176435329726758],[-89.741031471725023,30.176805074294805],[-89.742016064789539,30.177103787709711],[-89.743139087798625,30.177355946819546],[-89.744125981328921,30.177510952168745],[-89.745445682472223,30.17745513035004],[-89.746484824814786,30.17713313168872],[-89.746854334659758,30.177018630005819],[-89.748073213707812,30.176412309780346],[-89.752461956553987,30.171918192470685],[-89.756402230878223,30.168940425660139],[-89.775920592261514,30.159409791928397],[-89.777269283950261,30.159494738291585],[-89.797419288669175,30.160762214904366],[-89.816319543312261,30.176931584624981],[-89.817787691948411,30.177939837953204],[-89.820799002571846,30.180007744461875],[-89.839919136958542,30.186986886435704],[-89.848408655235232,30.190084487009528],[-89.863508472937667,30.191233307970833],[-89.866210983350186,30.191438734709891],[-89.89106599100262,30.196290996232563],[-89.903240037097987,30.198665763114548],[-89.960456376960167,30.179612044560258],[-89.974429997046684,30.176182146289079],[-90.003408672372302,30.163002807433656],[-90.016433880918839,30.15973138049884],[-90.023411793519415,30.157978181847682],[-90.040284013096709,30.155119853998087],[-90.069677353227235,30.155404910308391],[-90.082533993748768,30.157205085946032],[-90.098528516377883,30.161178273658436],[-90.108124609962715,30.1649456686078],[-90.108230501536354,30.164987236172067],[-90.109159563263177,30.154509713452569],[-90.115010190068176,30.088477753045936],[-90.120590897052239,30.025062475353025],[-90.125108298708994,29.97372699300638],[-90.1399581624392,29.947725099733589],[-90.139750022445526,29.946077445517744],[-90.1396366970759,29.945180846618825],[-90.139590915288466,29.944818358680379],[-90.13926159344777,29.942210928191855],[-90.139224297663191,29.941453448118182],[-90.139184127645365,29.940648026984888],[-90.13876488349257,29.937090791007279],[-90.138725428435748,29.936630058430524],[-90.138645119876344,29.935710089748909],[-90.138771185941437,29.933877574490509],[-90.138930050281544,29.93245420669632],[-90.13893546779758,29.932406352870942],[-90.138979824159549,29.930781286027582],[-90.138983686747736,29.930718955815223],[-90.139078077790998,29.929017514047075],[-90.139131103617501,29.927448262727182],[-90.139154867303262,29.926445179601387],[-90.139179770430019,29.925433668029427],[-90.139186026114203,29.924159258543],[-90.13897919103681,29.922165236736362],[-90.138934537898592,29.921734885056935],[-90.138818629675995,29.921044476421514],[-90.138587190046735,29.91966215818212],[-90.137867580424484,29.917792536896116],[-90.137857294878245,29.917765813541507],[-90.136560459897282,29.915763376778443],[-90.134994215910297,29.914397812908817],[-90.13297342578295,29.913159747724251],[-90.132741703766555,29.913044944768444],[-90.130971528613145,29.912165869159594],[-90.129641421414419,29.911620106582689],[-90.12869814860062,29.911232439425589],[-90.126478467107518,29.910609496131372],[-90.1250052858652,29.910258816291389],[-90.123787266569082,29.910000252209898],[-90.122753684734732,29.90979038102131],[-90.121612109611135,29.909559923451752],[-90.119276205132735,29.909144272090543],[-90.118401164781915,29.909009042833134],[-90.116520266896771,29.908718072581053],[-90.113397919678221,29.908505346944253],[-90.113235855550272,29.908494500221082],[-90.113157002093942,29.908494674689564],[-90.109702931844765,29.908486371249069],[-90.107208612687316,29.908501095848919],[-90.107166071157224,29.908501297297107],[-90.105803226837395,29.908663327250792],[-90.104440378920287,29.908825649484186],[-90.104255873109992,29.908867607354239],[-90.102159061491477,29.909346327271237],[-90.100530161737538,29.909935459653809],[-90.099744777499438,29.910214017462977],[-90.096718508452341,29.91103824611821],[-90.089786753555813,29.912957177231988],[-90.085420156514999,29.914333388175351],[-90.080806793598583,29.915795990692459],[-90.079888294409216,29.91611835267986],[-90.079232420639642,29.916348313823676],[-90.075462137967236,29.91758767223331],[-90.075399249275904,29.917610575267872],[-90.073901544420721,29.918167187265908],[-90.073289219421895,29.918424949152154],[-90.072379247604147,29.91880790835836],[-90.070888254389388,29.919487175292943],[-90.06912838366793,29.920476285652114],[-90.067183792198193,29.921709150057268],[-90.066156196251427,29.922470862340504],[-90.065746613515387,29.922774834990719],[-90.064346381680139,29.923924926694042],[-90.064253649885984,29.924008997117596],[-90.063447387886583,29.924742694619738],[-90.062914495507528,29.925330795479852],[-90.062382643644071,29.925917698443072],[-90.062222920451404,29.926101750995088],[-90.061519731550334,29.926914771399652],[-90.06060934694375,29.928187670025011],[-90.059950788697904,29.929214729975854],[-90.059629617412895,29.929715381659605],[-90.059344112340852,29.930484528638146],[-90.058804102727095,29.931760397724247],[-90.058393863485946,29.933139957742924],[-90.058152241732557,29.934452158540353],[-90.058122547017888,29.934691701061183],[-90.058097151062611,29.93489863686267],[-90.057987782709972,29.935789812849634],[-90.058023948046753,29.93726349231639],[-90.058026530899667,29.937386445827883],[-90.058021488400925,29.937699740850405],[-90.057950867338604,29.93821993839947],[-90.057875983489794,29.938771537576429],[-90.057893393465292,29.939980497102283],[-90.058192053820164,29.941919238482114],[-90.058208039269573,29.942022999561857],[-90.058276465086749,29.942524810471696],[-90.058377175666067,29.943263391292533],[-90.058526570145034,29.944359000267696],[-90.058534410434675,29.944416498422697],[-90.058542696787981,29.944477269210665]]]},"properties":{"OBJECTID_1":1,"objectid":1,"localid":"","name":"Orleans","geotype":"City","fullfips":"22071","legalarea":207.45193132,"date_effec":-7940592000000,"time_effec":"00:00:00.000","date_endda":null,"time_endda":"","srcref":"http://www.nolacitycouncil.com/docs/resources/2011HomeRuleCharter.pdf","shape_star":9734821409.3303947,"shape_stle":627771.46145363955,"Shape_Length":1.8698542619228171,"Shape_Area":0.084626399582450759}}]}