{
"type": "FeatureCollection",
"name": "OPP_bars_neworleans",
"crs": { "type": "name", "properties": { "name": "urn:ogc:def:crs:OGC:1.3:CRS84" } },
"features": [
{ "type": "Feature", "properties": { "name": "Michelli's", "barclass": "Pub", "barcode": 2 }, "geometry": { "type": "Point", "coordinates": [ -90.0001449, 29.9112362 ] } },
{ "type": "Feature", "properties": { "name": "Crown and Anchor English Pub", "barclass": "Pub", "barcode": 2 }, "geometry": { "type": "Point", "coordinates": [ -90.054255215154114, 29.9514937 ] } },
{ "type": "Feature", "properties": { "name": "Old Point Bar", "barclass": "Bar", "barcode": 1 }, "geometry": { "type": "Point", "coordinates": [ -90.0501914, 29.9549375 ] } },
{ "type": "Feature", "properties": { "name": "Bacchanal", "barclass": "Bar", "barcode": 1 }, "geometry": { "type": "Point", "coordinates": [ -90.033236094743472, 29.9597837 ] } },
{ "type": "Feature", "properties": { "name": "Bar Redux", "barclass": "Bar", "barcode": 1 }, "geometry": { "type": "Point", "coordinates": [ -90.032243, 29.9616557 ] } },
{ "type": "Feature", "properties": { "name": "Vaughn's Lounge", "barclass": "Pub", "barcode": 2 }, "geometry": { "type": "Point", "coordinates": [ -90.0335969, 29.9619053 ] } },
{ "type": "Feature", "properties": { "name": "Bratz Y’all!", "barclass": "Biergarten", "barcode": 4 }, "geometry": { "type": "Point", "coordinates": [ -90.0426867, 29.9622999 ] } },
{ "type": "Feature", "properties": { "name": "Maison", "barclass": "Bar", "barcode": 1 }, "geometry": { "type": "Point", "coordinates": [ -90.0578022, 29.9628218 ] } },
{ "type": "Feature", "properties": { "name": "BJ's Lounge", "barclass": "Bar", "barcode": 1 }, "geometry": { "type": "Point", "coordinates": [ -90.0330928, 29.9628225 ] } },
{ "type": "Feature", "properties": { "name": "urban south brewery", "barclass": "Bar", "barcode": 1 }, "geometry": { "type": "Point", "coordinates": [ -90.0666427, 29.9296609 ] } },
{ "type": "Feature", "properties": { "name": "Kelly's NOLA", "barclass": "Bar", "barcode": 1 }, "geometry": { "type": "Point", "coordinates": [ -90.068624, 29.9388506 ] } },
{ "type": "Feature", "properties": { "name": "Dino's Bar & Grill", "barclass": "Bar", "barcode": 1 }, "geometry": { "type": "Point", "coordinates": [ -90.066914, 29.9399159 ] } },
{ "type": "Feature", "properties": { "name": "Ugly Dog Saloon & BBQ", "barclass": "Pub", "barcode": 2 }, "geometry": { "type": "Point", "coordinates": [ -90.0678305, 29.942451 ] } },
{ "type": "Feature", "properties": { "name": "Howlin' Wolf", "barclass": "Nightclub", "barcode": 3 }, "geometry": { "type": "Point", "coordinates": [ -90.0660504, 29.9426744 ] } },
{ "type": "Feature", "properties": { "name": "Wine Bar ar Emeril's", "barclass": "Bar", "barcode": 1 }, "geometry": { "type": "Point", "coordinates": [ -90.0672417, 29.9447904 ] } },
{ "type": "Feature", "properties": { "name": "The District", "barclass": "Bar", "barcode": 1 }, "geometry": { "type": "Point", "coordinates": [ -90.0675318, 29.9459198 ] } },
{ "type": "Feature", "properties": { "name": "Lucy's", "barclass": "Bar", "barcode": 1 }, "geometry": { "type": "Point", "coordinates": [ -90.0675098, 29.9463991 ] } },
{ "type": "Feature", "properties": { "name": "Vic's Kangaroo Bar", "barclass": "Bar", "barcode": 1 }, "geometry": { "type": "Point", "coordinates": [ -90.0672107, 29.9467454 ] } },
{ "type": "Feature", "properties": { "name": "The Swizzle Stick Bar", "barclass": "Bar", "barcode": 1 }, "geometry": { "type": "Point", "coordinates": [ -90.0662156, 29.9483338 ] } },
{ "type": "Feature", "properties": { "name": "World Famous Corporation Bar & Grill", "barclass": "Bar", "barcode": 1 }, "geometry": { "type": "Point", "coordinates": [ -90.0658935, 29.9419537 ] } },
{ "type": "Feature", "properties": { "name": "The Den", "barclass": "Bar", "barcode": 1 }, "geometry": { "type": "Point", "coordinates": [ -90.0659178, 29.9428705 ] } },
{ "type": "Feature", "properties": { "name": "Après Lounge", "barclass": "Bar", "barcode": 1 }, "geometry": { "type": "Point", "coordinates": [ -90.0654457, 29.9469755 ] } },
{ "type": "Feature", "properties": { "name": "Coyote Ugly Saloon", "barclass": "Bar", "barcode": 1 }, "geometry": { "type": "Point", "coordinates": [ -90.0654242, 29.9529067 ] } },
{ "type": "Feature", "properties": { "name": "Tipitina’s French Quarter", "barclass": "Nightclub", "barcode": 3 }, "geometry": { "type": "Point", "coordinates": [ -90.0653844, 29.952992 ] } },
{ "type": "Feature", "properties": { "name": "Pothole", "barclass": "Bar", "barcode": 1 }, "geometry": { "type": "Point", "coordinates": [ -90.0659411, 29.9534408 ] } },
{ "type": "Feature", "properties": { "name": "Beachbum Berry's Latitude 29", "barclass": "Pub", "barcode": 2 }, "geometry": { "type": "Point", "coordinates": [ -90.0651012, 29.9536814 ] } },
{ "type": "Feature", "properties": { "name": "The Hookah", "barclass": "Nightclub", "barcode": 3 }, "geometry": { "type": "Point", "coordinates": [ -90.0655417, 29.9538891 ] } },
{ "type": "Feature", "properties": { "name": "Kerry Irish Pub", "barclass": "Pub", "barcode": 2 }, "geometry": { "type": "Point", "coordinates": [ -90.0652335, 29.9542368 ] } },
{ "type": "Feature", "properties": { "name": "Big Easy Daiquiris & Pizza", "barclass": "Bar", "barcode": 1 }, "geometry": { "type": "Point", "coordinates": [ -90.0633478, 29.9563138 ] } },
{ "type": "Feature", "properties": { "name": "little bar on gravier", "barclass": "Bar", "barcode": 1 }, "geometry": { "type": "Point", "coordinates": [ -90.068039, 29.9505711 ] } },
{ "type": "Feature", "properties": { "name": "Mahogany Jazz Hall", "barclass": "Bar", "barcode": 1 }, "geometry": { "type": "Point", "coordinates": [ -90.0677342, 29.9532723 ] } },
{ "type": "Feature", "properties": { "name": "The Carousel Bar & Lounge", "barclass": "Bar", "barcode": 1 }, "geometry": { "type": "Point", "coordinates": [ -90.0679637, 29.9542557 ] } },
{ "type": "Feature", "properties": { "name": "The Chart Room", "barclass": "Bar", "barcode": 1 }, "geometry": { "type": "Point", "coordinates": [ -90.0664916, 29.9542643 ] } },
{ "type": "Feature", "properties": { "name": "The 21st Amendment La Louisiane", "barclass": "Bar", "barcode": 1 }, "geometry": { "type": "Point", "coordinates": [ -90.0687005, 29.9545083 ] } },
{ "type": "Feature", "properties": { "name": "The Pelican Club", "barclass": "Bar", "barcode": 1 }, "geometry": { "type": "Point", "coordinates": [ -90.0669243, 29.9545783 ] } },
{ "type": "Feature", "properties": { "name": "Gateway", "barclass": "Bar", "barcode": 1 }, "geometry": { "type": "Point", "coordinates": [ -90.0690496, 29.9547038 ] } },
{ "type": "Feature", "properties": { "name": "Kingfish", "barclass": "Bar", "barcode": 1 }, "geometry": { "type": "Point", "coordinates": [ -90.0661126, 29.9550532 ] } },
{ "type": "Feature", "properties": { "name": "Bourbon Street Drinkery", "barclass": "Bar", "barcode": 1 }, "geometry": { "type": "Point", "coordinates": [ -90.068927, 29.9550751 ] } },
{ "type": "Feature", "properties": { "name": null, "barclass": "Bar", "barcode": 1 }, "geometry": { "type": "Point", "coordinates": [ -90.0686452, 29.955167 ] } },
{ "type": "Feature", "properties": { "name": "Touché Bar", "barclass": "Bar", "barcode": 1 }, "geometry": { "type": "Point", "coordinates": [ -90.0659831, 29.9565157 ] } },
{ "type": "Feature", "properties": { "name": "Pat O'Briens", "barclass": "Bar", "barcode": 1 }, "geometry": { "type": "Point", "coordinates": [ -90.0654893, 29.9580935 ] } },
{ "type": "Feature", "properties": { "name": "Stanley * Service Bar", "barclass": "Bar", "barcode": 1 }, "geometry": { "type": "Point", "coordinates": [ -90.0628559, 29.958181 ] } },
{ "type": "Feature", "properties": { "name": "Finnegan’s Easy", "barclass": "Bar", "barcode": 1 }, "geometry": { "type": "Point", "coordinates": [ -90.065174601164188, 29.9584127 ] } },
{ "type": "Feature", "properties": { "name": "Maison Bourbon", "barclass": "Bar", "barcode": 1 }, "geometry": { "type": "Point", "coordinates": [ -90.0657855, 29.9585817 ] } },
{ "type": "Feature", "properties": { "name": "Cats Neow", "barclass": "Bar", "barcode": 1 }, "geometry": { "type": "Point", "coordinates": [ -90.065682, 29.9587167 ] } },
{ "type": "Feature", "properties": { "name": "Tropical Isle", "barclass": "Bar", "barcode": 1 }, "geometry": { "type": "Point", "coordinates": [ -90.065287, 29.9590948 ] } },
{ "type": "Feature", "properties": { "name": "Bourbon O Bar", "barclass": "Bar", "barcode": 1 }, "geometry": { "type": "Point", "coordinates": [ -90.0651058, 29.9591115 ] } },
{ "type": "Feature", "properties": { "name": "The Funky Pirate Blues Club", "barclass": "Bar", "barcode": 1 }, "geometry": { "type": "Point", "coordinates": [ -90.0652129, 29.9592168 ] } },
{ "type": "Feature", "properties": { "name": "Napoleon’s Itch", "barclass": "Bar", "barcode": 1 }, "geometry": { "type": "Point", "coordinates": [ -90.0649919, 29.9592482 ] } },
{ "type": "Feature", "properties": { "name": "Fritzel's European Jazz Pub", "barclass": "Pub", "barcode": 2 }, "geometry": { "type": "Point", "coordinates": [ -90.065138, 29.9592916 ] } },
{ "type": "Feature", "properties": { "name": "Oz", "barclass": "Bar", "barcode": 1 }, "geometry": { "type": "Point", "coordinates": [ -90.0647414, 29.9594933 ] } },
{ "type": "Feature", "properties": { "name": "Bourbon Pub", "barclass": "Pub", "barcode": 2 }, "geometry": { "type": "Point", "coordinates": [ -90.0649137, 29.9595997 ] } },
{ "type": "Feature", "properties": { "name": "Good Friends Bar", "barclass": "Bar", "barcode": 1 }, "geometry": { "type": "Point", "coordinates": [ -90.0657564, 29.9599512 ] } },
{ "type": "Feature", "properties": { "name": "Molly's at the Market", "barclass": "Pub", "barcode": 2 }, "geometry": { "type": "Point", "coordinates": [ -90.0599077, 29.9601094 ] } },
{ "type": "Feature", "properties": { "name": "Coop's Place", "barclass": "Pub", "barcode": 2 }, "geometry": { "type": "Point", "coordinates": [ -90.0598686, 29.9601621 ] } },
{ "type": "Feature", "properties": { "name": "Cane and Table", "barclass": "Bar", "barcode": 1 }, "geometry": { "type": "Point", "coordinates": [ -90.059821, 29.9602216 ] } },
{ "type": "Feature", "properties": { "name": "Flanagan's Pub", "barclass": "Pub", "barcode": 2 }, "geometry": { "type": "Point", "coordinates": [ -90.0621427, 29.9602607 ] } },
{ "type": "Feature", "properties": { "name": "Cafe Lafitte in Exile", "barclass": "Bar", "barcode": 1 }, "geometry": { "type": "Point", "coordinates": [ -90.0641956, 29.9603663 ] } },
{ "type": "Feature", "properties": { "name": "Santos Bar", "barclass": "Nightclub", "barcode": 3 }, "geometry": { "type": "Point", "coordinates": [ -90.0594606, 29.9605893 ] } },
{ "type": "Feature", "properties": { "name": "Bamboula’s", "barclass": "Bar", "barcode": 1 }, "geometry": { "type": "Point", "coordinates": [ -90.0578571, 29.962929 ] } },
{ "type": "Feature", "properties": { "name": "Nola Poboys & Bar", "barclass": "Bar", "barcode": 1 }, "geometry": { "type": "Point", "coordinates": [ -90.0575854, 29.9629364 ] } },
{ "type": "Feature", "properties": { "name": "Markey's Bar", "barclass": "Bar", "barcode": 1 }, "geometry": { "type": "Point", "coordinates": [ -90.0438193, 29.963018 ] } },
{ "type": "Feature", "properties": { "name": "Blue Nile", "barclass": "Nightclub", "barcode": 3 }, "geometry": { "type": "Point", "coordinates": [ -90.05786031479559, 29.96314125 ] } },
{ "type": "Feature", "properties": { "name": "Favela Chic", "barclass": "Bar", "barcode": 1 }, "geometry": { "type": "Point", "coordinates": [ -90.0576369, 29.9633531 ] } },
{ "type": "Feature", "properties": { "name": "Café Negril", "barclass": "Nightclub", "barcode": 3 }, "geometry": { "type": "Point", "coordinates": [ -90.0578775, 29.9637559 ] } },
{ "type": "Feature", "properties": { "name": "Bywater Brew Pub", "barclass": "Bar", "barcode": 1 }, "geometry": { "type": "Point", "coordinates": [ -90.047167, 29.9637609 ] } },
{ "type": "Feature", "properties": { "name": "Apple Barrel", "barclass": "Bar", "barcode": 1 }, "geometry": { "type": "Point", "coordinates": [ -90.0576579, 29.9638102 ] } },
{ "type": "Feature", "properties": { "name": "Friendly Bar", "barclass": "Bar", "barcode": 1 }, "geometry": { "type": "Point", "coordinates": [ -90.055020682643942, 29.9638105 ] } },
{ "type": "Feature", "properties": { "name": "d.b.a.", "barclass": "Bar", "barcode": 1 }, "geometry": { "type": "Point", "coordinates": [ -90.0578917, 29.9639393 ] } },
{ "type": "Feature", "properties": { "name": "American Sports Saloon", "barclass": "Bar", "barcode": 1 }, "geometry": { "type": "Point", "coordinates": [ -90.058991, 29.9606269 ] } },
{ "type": "Feature", "properties": { "name": "Palm Court Jazz Cafe", "barclass": "Nightclub", "barcode": 3 }, "geometry": { "type": "Point", "coordinates": [ -90.0590747, 29.9607625 ] } },
{ "type": "Feature", "properties": { "name": "Aunt Tiki's", "barclass": "Bar", "barcode": 1 }, "geometry": { "type": "Point", "coordinates": [ -90.0592514, 29.9609442 ] } },
{ "type": "Feature", "properties": { "name": "Lafitte’s Blacksmith Shop", "barclass": "Bar", "barcode": 1 }, "geometry": { "type": "Point", "coordinates": [ -90.0635754, 29.9610508 ] } },
{ "type": "Feature", "properties": { "name": null, "barclass": "Bar", "barcode": 1 }, "geometry": { "type": "Point", "coordinates": [ -90.0583149, 29.9610756 ] } },
{ "type": "Feature", "properties": { "name": "Balcony Music Club", "barclass": "Nightclub", "barcode": 3 }, "geometry": { "type": "Point", "coordinates": [ -90.0582296, 29.962012 ] } },
{ "type": "Feature", "properties": { "name": "Golden Lantern", "barclass": "Bar", "barcode": 1 }, "geometry": { "type": "Point", "coordinates": [ -90.0606005, 29.9627372 ] } },
{ "type": "Feature", "properties": { "name": "Cosimo's", "barclass": "Pub", "barcode": 2 }, "geometry": { "type": "Point", "coordinates": [ -90.063863778235586, 29.96401285 ] } },
{ "type": "Feature", "properties": { "name": "Royal Street Inn & R Bar", "barclass": "Bar", "barcode": 1 }, "geometry": { "type": "Point", "coordinates": [ -90.0594405, 29.9640783 ] } },
{ "type": "Feature", "properties": { "name": "Little People's Place", "barclass": "Pub", "barcode": 2 }, "geometry": { "type": "Point", "coordinates": [ -90.0657609, 29.9663099 ] } },
{ "type": "Feature", "properties": { "name": "The Spotted Cat Music Club", "barclass": "Bar", "barcode": 1 }, "geometry": { "type": "Point", "coordinates": [ -90.057632897989748, 29.96408125 ] } },
{ "type": "Feature", "properties": { "name": "Snug Harbor", "barclass": "Nightclub", "barcode": 3 }, "geometry": { "type": "Point", "coordinates": [ -90.0579159, 29.9641347 ] } },
{ "type": "Feature", "properties": { "name": "Anna's", "barclass": "Bar", "barcode": 1 }, "geometry": { "type": "Point", "coordinates": [ -90.0512526, 29.9649524 ] } },
{ "type": "Feature", "properties": { "name": "Big Daddy's Bar", "barclass": "Bar", "barcode": 1 }, "geometry": { "type": "Point", "coordinates": [ -90.0514628, 29.965018 ] } },
{ "type": "Feature", "properties": { "name": "Pepp's Pub", "barclass": "Bar", "barcode": 1 }, "geometry": { "type": "Point", "coordinates": [ -90.0514113, 29.9651407 ] } },
{ "type": "Feature", "properties": { "name": "The Franklin", "barclass": "Bar", "barcode": 1 }, "geometry": { "type": "Point", "coordinates": [ -90.0510061, 29.9656655 ] } },
{ "type": "Feature", "properties": { "name": "Breakaway's", "barclass": "Pub", "barcode": 2 }, "geometry": { "type": "Point", "coordinates": [ -90.0511514, 29.9660228 ] } },
{ "type": "Feature", "properties": { "name": "Marie's Bar", "barclass": "Bar", "barcode": 1 }, "geometry": { "type": "Point", "coordinates": [ -90.0520344, 29.9669213 ] } },
{ "type": "Feature", "properties": { "name": "The Elysian Bar", "barclass": "Bar", "barcode": 1 }, "geometry": { "type": "Point", "coordinates": [ -90.0549688, 29.9669985 ] } },
{ "type": "Feature", "properties": { "name": "Phoenix", "barclass": "Bar", "barcode": 1 }, "geometry": { "type": "Point", "coordinates": [ -90.0564851, 29.967478 ] } },
{ "type": "Feature", "properties": { "name": "Saturn Bar", "barclass": "Bar", "barcode": 1 }, "geometry": { "type": "Point", "coordinates": [ -90.0442228, 29.9679094 ] } },
{ "type": "Feature", "properties": { "name": "Melvin's", "barclass": "Bar", "barcode": 1 }, "geometry": { "type": "Point", "coordinates": [ -90.0577648, 29.9683718 ] } },
{ "type": "Feature", "properties": { "name": "Allways Lounge", "barclass": "Bar", "barcode": 1 }, "geometry": { "type": "Point", "coordinates": [ -90.0556576, 29.9685211 ] } },
{ "type": "Feature", "properties": { "name": "Kajun's Pub", "barclass": "Pub", "barcode": 2 }, "geometry": { "type": "Point", "coordinates": [ -90.0549612, 29.9685425 ] } },
{ "type": "Feature", "properties": { "name": "Faubourg Wine Shop", "barclass": "Bar", "barcode": 1 }, "geometry": { "type": "Point", "coordinates": [ -90.0479382, 29.9687704 ] } },
{ "type": "Feature", "properties": { "name": "Siberia", "barclass": "Bar", "barcode": 1 }, "geometry": { "type": "Point", "coordinates": [ -90.0559113, 29.9688957 ] } },
{ "type": "Feature", "properties": { "name": "Emporium New Orleans", "barclass": "Bar", "barcode": 1 }, "geometry": { "type": "Point", "coordinates": [ -90.0557304, 29.9689322 ] } },
{ "type": "Feature", "properties": { "name": "Hi-Ho Lounge", "barclass": "Bar", "barcode": 1 }, "geometry": { "type": "Point", "coordinates": [ -90.055427247825577, 29.96898115 ] } },
{ "type": "Feature", "properties": { "name": "Mayhaw at the Market", "barclass": "Bar", "barcode": 1 }, "geometry": { "type": "Point", "coordinates": [ -90.0522122, 29.9695275 ] } },
{ "type": "Feature", "properties": { "name": "St Roch Tavern", "barclass": "Pub", "barcode": 2 }, "geometry": { "type": "Point", "coordinates": [ -90.052544614534881, 29.96994655 ] } },
{ "type": "Feature", "properties": { "name": "Dos Jefes Uptown Cigar Bar", "barclass": "Nightclub", "barcode": 3 }, "geometry": { "type": "Point", "coordinates": [ -90.1181699, 29.9165533 ] } },
{ "type": "Feature", "properties": { "name": "F&M Patio Bar", "barclass": "Bar", "barcode": 1 }, "geometry": { "type": "Point", "coordinates": [ -90.1069893, 29.9168445 ] } },
{ "type": "Feature", "properties": { "name": "45 Tchoup", "barclass": "Bar", "barcode": 1 }, "geometry": { "type": "Point", "coordinates": [ -90.1031605, 29.9170862 ] } },
{ "type": "Feature", "properties": { "name": "Grit's Bar", "barclass": "Bar", "barcode": 1 }, "geometry": { "type": "Point", "coordinates": [ -90.1070345, 29.9173639 ] } },
{ "type": "Feature", "properties": { "name": "Tipitina's", "barclass": "Nightclub", "barcode": 3 }, "geometry": { "type": "Point", "coordinates": [ -90.10081566406302, 29.91741505 ] } },
{ "type": "Feature", "properties": { "name": "NOLA Distillery", "barclass": "Bar", "barcode": 1 }, "geometry": { "type": "Point", "coordinates": [ -90.092704666019642, 29.9181967 ] } },
{ "type": "Feature", "properties": { "name": "Henry's Uptown Bar", "barclass": "Bar", "barcode": 1 }, "geometry": { "type": "Point", "coordinates": [ -90.1101949, 29.9204823 ] } },
{ "type": "Feature", "properties": { "name": "Brothers III Lounge", "barclass": "Bar", "barcode": 1 }, "geometry": { "type": "Point", "coordinates": [ -90.1033217, 29.9205135 ] } },
{ "type": "Feature", "properties": { "name": "Le Bon Temps Roulé", "barclass": "Bar", "barcode": 1 }, "geometry": { "type": "Point", "coordinates": [ -90.1062274, 29.9205444 ] } },
{ "type": "Feature", "properties": { "name": "Bronx Bar", "barclass": "Pub", "barcode": 2 }, "geometry": { "type": "Point", "coordinates": [ -90.102104, 29.9206451 ] } },
{ "type": "Feature", "properties": { "name": "The Tchoup Yard", "barclass": "Bar", "barcode": 1 }, "geometry": { "type": "Point", "coordinates": [ -90.0764562, 29.9216561 ] } },
{ "type": "Feature", "properties": { "name": "Pete's Out In the Cold", "barclass": "Bar", "barcode": 1 }, "geometry": { "type": "Point", "coordinates": [ -90.081236, 29.9220999 ] } },
{ "type": "Feature", "properties": { "name": "The Bulldog, Uptown", "barclass": "Bar", "barcode": 1 }, "geometry": { "type": "Point", "coordinates": [ -90.0873491, 29.9234775 ] } },
{ "type": "Feature", "properties": { "name": "Balcony Bar and Cafe", "barclass": "Pub", "barcode": 2 }, "geometry": { "type": "Point", "coordinates": [ -90.0866108, 29.9240397 ] } },
{ "type": "Feature", "properties": { "name": "Rendezvous Tavern", "barclass": "Pub", "barcode": 2 }, "geometry": { "type": "Point", "coordinates": [ -90.0856327, 29.9245809 ] } },
{ "type": "Feature", "properties": { "name": "Tracey's", "barclass": "Pub", "barcode": 2 }, "geometry": { "type": "Point", "coordinates": [ -90.0808843, 29.9269571 ] } },
{ "type": "Feature", "properties": { "name": "The Saint Bar & Lounge", "barclass": "Bar", "barcode": 1 }, "geometry": { "type": "Point", "coordinates": [ -90.073214181935754, 29.93115595 ] } },
{ "type": "Feature", "properties": { "name": "Down the Hatch", "barclass": "Pub", "barcode": 2 }, "geometry": { "type": "Point", "coordinates": [ -90.0745947, 29.9316931 ] } },
{ "type": "Feature", "properties": { "name": "Portside Lounge", "barclass": "Bar", "barcode": 1 }, "geometry": { "type": "Point", "coordinates": [ -90.090046895739178, 29.93207105 ] } },
{ "type": "Feature", "properties": { "name": "Half Moon Bar & Grill", "barclass": "Pub", "barcode": 2 }, "geometry": { "type": "Point", "coordinates": [ -90.0742775, 29.9321155 ] } },
{ "type": "Feature", "properties": { "name": "The Club Ms Mae’s", "barclass": "Bar", "barcode": 1 }, "geometry": { "type": "Point", "coordinates": [ -90.1012357, 29.9207396 ] } },
{ "type": "Feature", "properties": { "name": "St. Joe's Bar", "barclass": "Bar", "barcode": 1 }, "geometry": { "type": "Point", "coordinates": [ -90.1169407, 29.9212893 ] } },
{ "type": "Feature", "properties": { "name": "Monkey Hill Bar", "barclass": "Bar", "barcode": 1 }, "geometry": { "type": "Point", "coordinates": [ -90.1236287, 29.9226458 ] } },
{ "type": "Feature", "properties": { "name": "Fat Harry's", "barclass": "Pub", "barcode": 2 }, "geometry": { "type": "Point", "coordinates": [ -90.1014783, 29.9263542 ] } },
{ "type": "Feature", "properties": { "name": "Qi Qi", "barclass": "Bar", "barcode": 1 }, "geometry": { "type": "Point", "coordinates": [ -90.0921719, 29.9265272 ] } },
{ "type": "Feature", "properties": { "name": "Prytania Bar", "barclass": "Bar", "barcode": 1 }, "geometry": { "type": "Point", "coordinates": [ -90.0920941, 29.9265458 ] } },
{ "type": "Feature", "properties": { "name": "Delachaise Wine Bar & Bistro", "barclass": "Bar", "barcode": 1 }, "geometry": { "type": "Point", "coordinates": [ -90.092514925272695, 29.92744915 ] } },
{ "type": "Feature", "properties": { "name": "Gasa Gasa", "barclass": "Bar", "barcode": 1 }, "geometry": { "type": "Point", "coordinates": [ -90.107909114265979, 29.93484185 ] } },
{ "type": "Feature", "properties": { "name": "Cure", "barclass": "Bar", "barcode": 1 }, "geometry": { "type": "Point", "coordinates": [ -90.1074802, 29.9350175 ] } },
{ "type": "Feature", "properties": { "name": "Other Bar", "barclass": "Bar", "barcode": 1 }, "geometry": { "type": "Point", "coordinates": [ -90.109158, 29.9350887 ] } },
{ "type": "Feature", "properties": { "name": "Verret's Lounge", "barclass": "Bar", "barcode": 1 }, "geometry": { "type": "Point", "coordinates": [ -90.0873167, 29.9325072 ] } },
{ "type": "Feature", "properties": { "name": "Hot Tin", "barclass": "Bar", "barcode": 1 }, "geometry": { "type": "Point", "coordinates": [ -90.0796778, 29.9350016 ] } },
{ "type": "Feature", "properties": { "name": "Avenue Pub", "barclass": "Pub", "barcode": 2 }, "geometry": { "type": "Point", "coordinates": [ -90.076730606192626, 29.9369172 ] } },
{ "type": "Feature", "properties": { "name": "The Irish House", "barclass": "Pub", "barcode": 2 }, "geometry": { "type": "Point", "coordinates": [ -90.0752035, 29.9391258 ] } },
{ "type": "Feature", "properties": { "name": "Barrel Proof", "barclass": "Bar", "barcode": 1 }, "geometry": { "type": "Point", "coordinates": [ -90.0711708, 29.9391967 ] } },
{ "type": "Feature", "properties": { "name": "Patron Saint", "barclass": "Bar", "barcode": 1 }, "geometry": { "type": "Point", "coordinates": [ -90.0707053, 29.9398536 ] } },
{ "type": "Feature", "properties": { "name": "The Courtyard Brewery", "barclass": "Pub", "barcode": 2 }, "geometry": { "type": "Point", "coordinates": [ -90.0718326, 29.9398897 ] } },
{ "type": "Feature", "properties": { "name": "Treehouse Cocktail Bar", "barclass": "Bar", "barcode": 1 }, "geometry": { "type": "Point", "coordinates": [ -90.0784293, 29.9415443 ] } },
{ "type": "Feature", "properties": { "name": null, "barclass": "Bar", "barcode": 1 }, "geometry": { "type": "Point", "coordinates": [ -90.0697572, 29.9425701 ] } },
{ "type": "Feature", "properties": { "name": "Circle Bar", "barclass": "Bar", "barcode": 1 }, "geometry": { "type": "Point", "coordinates": [ -90.0724792, 29.9427294 ] } },
{ "type": "Feature", "properties": { "name": "The Boot Bar and Gtrill", "barclass": "Bar", "barcode": 1 }, "geometry": { "type": "Point", "coordinates": [ -90.1234851, 29.9411338 ] } },
{ "type": "Feature", "properties": { "name": "Redd's Uptilly Tavern", "barclass": "Bar", "barcode": 1 }, "geometry": { "type": "Point", "coordinates": [ -90.1287363, 29.941361 ] } },
{ "type": "Feature", "properties": { "name": "Cooter Brown's Tavern", "barclass": "Pub", "barcode": 2 }, "geometry": { "type": "Point", "coordinates": [ -90.1344011, 29.9424931 ] } },
{ "type": "Feature", "properties": { "name": "New Orleans Original Daiquiris", "barclass": "Bar", "barcode": 1 }, "geometry": { "type": "Point", "coordinates": [ -90.1345423, 29.9430888 ] } },
{ "type": "Feature", "properties": { "name": "Snake and Jake's Christmas Club Lounge", "barclass": "Bar", "barcode": 1 }, "geometry": { "type": "Point", "coordinates": [ -90.1260102, 29.9441812 ] } },
{ "type": "Feature", "properties": { "name": "Madigan's Bar", "barclass": "Bar", "barcode": 1 }, "geometry": { "type": "Point", "coordinates": [ -90.13289190105894, 29.94473955 ] } },
{ "type": "Feature", "properties": { "name": "Robert's Bar and Liquor Store", "barclass": "Pub", "barcode": 2 }, "geometry": { "type": "Point", "coordinates": [ -90.1132467, 29.9469449 ] } },
{ "type": "Feature", "properties": { "name": "Sukeban", "barclass": "Bar", "barcode": 1 }, "geometry": { "type": "Point", "coordinates": [ -90.130453, 29.9477791 ] } },
{ "type": "Feature", "properties": { "name": "Oak St Brewery", "barclass": "Bar", "barcode": 1 }, "geometry": { "type": "Point", "coordinates": [ -90.1307047, 29.9482436 ] } },
{ "type": "Feature", "properties": { "name": "Maple Leaf Bar", "barclass": "Pub", "barcode": 2 }, "geometry": { "type": "Point", "coordinates": [ -90.132077583729, 29.948946 ] } },
{ "type": "Feature", "properties": { "name": "Flamingo A-Go-Go", "barclass": "Bar", "barcode": 1 }, "geometry": { "type": "Point", "coordinates": [ -90.0697635, 29.9439659 ] } },
{ "type": "Feature", "properties": { "name": "The Lobby Bar at the Barnett", "barclass": "Bar", "barcode": 1 }, "geometry": { "type": "Point", "coordinates": [ -90.0721644, 29.9483279 ] } },
{ "type": "Feature", "properties": { "name": "High-Five Pool Bar", "barclass": "Bar", "barcode": 1 }, "geometry": { "type": "Point", "coordinates": [ -90.0718845, 29.9483772 ] } },
{ "type": "Feature", "properties": { "name": "Happy's", "barclass": "Bar", "barcode": 1 }, "geometry": { "type": "Point", "coordinates": [ -90.0742856, 29.9506005 ] } },
{ "type": "Feature", "properties": { "name": "Catahoula Rooftop Bar", "barclass": "Bar", "barcode": 1 }, "geometry": { "type": "Point", "coordinates": [ -90.0731028, 29.9518354 ] } },
{ "type": "Feature", "properties": { "name": "Henry's Gin Bar", "barclass": "Bar", "barcode": 1 }, "geometry": { "type": "Point", "coordinates": [ -90.0729503, 29.9521453 ] } },
{ "type": "Feature", "properties": { "name": "monkey board", "barclass": "Bar", "barcode": 1 }, "geometry": { "type": "Point", "coordinates": [ -90.0746753, 29.9534152 ] } },
{ "type": "Feature", "properties": { "name": "Cajun Mike’s Bar", "barclass": "Bar", "barcode": 1 }, "geometry": { "type": "Point", "coordinates": [ -90.0712167, 29.9539183 ] } },
{ "type": "Feature", "properties": { "name": "NOLA Star Bar", "barclass": "Bar", "barcode": 1 }, "geometry": { "type": "Point", "coordinates": [ -90.0748146, 29.9540215 ] } },
{ "type": "Feature", "properties": { "name": "Sazerac Bar at The Roosevelt", "barclass": "Bar", "barcode": 1 }, "geometry": { "type": "Point", "coordinates": [ -90.0721554, 29.9542008 ] } },
{ "type": "Feature", "properties": { "name": "Old Absinthe House", "barclass": "Bar", "barcode": 1 }, "geometry": { "type": "Point", "coordinates": [ -90.0684677, 29.9553574 ] } },
{ "type": "Feature", "properties": { "name": "The Beach on Bourbon", "barclass": "Bar", "barcode": 1 }, "geometry": { "type": "Point", "coordinates": [ -90.0688897, 29.9553717 ] } },
{ "type": "Feature", "properties": { "name": "The Jazz Playhouse", "barclass": "Nightclub", "barcode": 3 }, "geometry": { "type": "Point", "coordinates": [ -90.0680407, 29.9558177 ] } },
{ "type": "Feature", "properties": { "name": "Rick's Cabaret", "barclass": "Bar", "barcode": 1 }, "geometry": { "type": "Point", "coordinates": [ -90.068265, 29.9558391 ] } },
{ "type": "Feature", "properties": { "name": null, "barclass": "Bar", "barcode": 1 }, "geometry": { "type": "Point", "coordinates": [ -90.0685003, 29.9558405 ] } },
{ "type": "Feature", "properties": { "name": "Hurricane City", "barclass": "Bar", "barcode": 1 }, "geometry": { "type": "Point", "coordinates": [ -90.067882, 29.9562363 ] } },
{ "type": "Feature", "properties": { "name": "Erin Rose / Killer Po Boys", "barclass": "Bar", "barcode": 1 }, "geometry": { "type": "Point", "coordinates": [ -90.067964, 29.9565283 ] } },
{ "type": "Feature", "properties": { "name": "The Bombay Club", "barclass": "Bar", "barcode": 1 }, "geometry": { "type": "Point", "coordinates": [ -90.068422, 29.9566005 ] } },
{ "type": "Feature", "properties": { "name": "Fat Catz Music Club", "barclass": "Bar", "barcode": 1 }, "geometry": { "type": "Point", "coordinates": [ -90.0670672, 29.9569121 ] } },
{ "type": "Feature", "properties": { "name": "Le Roundup", "barclass": "Bar", "barcode": 1 }, "geometry": { "type": "Point", "coordinates": [ -90.067496, 29.9573962 ] } },
{ "type": "Feature", "properties": { "name": "Toulouse Dive Bar", "barclass": "Bar", "barcode": 1 }, "geometry": { "type": "Point", "coordinates": [ -90.0662611, 29.9576389 ] } },
{ "type": "Feature", "properties": { "name": "The Dungeon", "barclass": "Bar", "barcode": 1 }, "geometry": { "type": "Point", "coordinates": [ -90.0662896, 29.9576548 ] } },
{ "type": "Feature", "properties": { "name": "Huge Ass Beers", "barclass": "Bar", "barcode": 1 }, "geometry": { "type": "Point", "coordinates": [ -90.0663259, 29.9579797 ] } },
{ "type": "Feature", "properties": { "name": "The Corner Pocket", "barclass": "Nightclub", "barcode": 3 }, "geometry": { "type": "Point", "coordinates": [ -90.0688554, 29.9581436 ] } },
{ "type": "Feature", "properties": { "name": "Fahy's Irish Pub", "barclass": "Pub", "barcode": 2 }, "geometry": { "type": "Point", "coordinates": [ -90.0681614, 29.9589389 ] } },
{ "type": "Feature", "properties": { "name": "Gold Mine Saloon", "barclass": "Nightclub", "barcode": 3 }, "geometry": { "type": "Point", "coordinates": [ -90.0665767, 29.9592919 ] } },
{ "type": "Feature", "properties": { "name": "The Page", "barclass": "Bar", "barcode": 1 }, "geometry": { "type": "Point", "coordinates": [ -90.0690917, 29.9595499 ] } },
{ "type": "Feature", "properties": { "name": "The Schooner Saloon", "barclass": "Bar", "barcode": 1 }, "geometry": { "type": "Point", "coordinates": [ -90.0673537, 29.959847 ] } },
{ "type": "Feature", "properties": { "name": "Black Penny", "barclass": "Bar", "barcode": 1 }, "geometry": { "type": "Point", "coordinates": [ -90.06822, 29.9604474 ] } },
{ "type": "Feature", "properties": { "name": "Rawhide", "barclass": "Bar", "barcode": 1 }, "geometry": { "type": "Point", "coordinates": [ -90.0666704, 29.9606289 ] } },
{ "type": "Feature", "properties": { "name": "Carrollton Station", "barclass": "Pub", "barcode": 2 }, "geometry": { "type": "Point", "coordinates": [ -90.1291473, 29.9493209 ] } },
{ "type": "Feature", "properties": { "name": "Jimmy's Music Club", "barclass": "Nightclub", "barcode": 3 }, "geometry": { "type": "Point", "coordinates": [ -90.1293709, 29.9494939 ] } },
{ "type": "Feature", "properties": { "name": "Roulaison Distilling Co", "barclass": "Bar", "barcode": 1 }, "geometry": { "type": "Point", "coordinates": [ -90.1003881, 29.9515726 ] } },
{ "type": "Feature", "properties": { "name": "Jazz It Up", "barclass": "Bar", "barcode": 1 }, "geometry": { "type": "Point", "coordinates": [ -90.1014282, 29.9529763 ] } },
{ "type": "Feature", "properties": { "name": "Finn McCool's Irish Pub", "barclass": "Pub", "barcode": 2 }, "geometry": { "type": "Point", "coordinates": [ -90.0991644, 29.9695738 ] } },
{ "type": "Feature", "properties": { "name": "Banks Street Bar & Grill", "barclass": "Bar", "barcode": 1 }, "geometry": { "type": "Point", "coordinates": [ -90.1064478, 29.9744821 ] } },
{ "type": "Feature", "properties": { "name": "Midcity Yacht Club", "barclass": "Bar", "barcode": 1 }, "geometry": { "type": "Point", "coordinates": [ -90.1097849, 29.9752574 ] } },
{ "type": "Feature", "properties": { "name": "Red Door", "barclass": "Bar", "barcode": 1 }, "geometry": { "type": "Point", "coordinates": [ -90.0992961, 29.9754037 ] } },
{ "type": "Feature", "properties": { "name": "The \"O\" Bar", "barclass": "Pub", "barcode": 2 }, "geometry": { "type": "Point", "coordinates": [ -90.0999498, 29.9754493 ] } },
{ "type": "Feature", "properties": { "name": "Roosevelt Hotel Bar", "barclass": "Bar", "barcode": 1 }, "geometry": { "type": "Point", "coordinates": [ -90.0721553, 29.9545738 ] } },
{ "type": "Feature", "properties": { "name": "Davenport Lounge", "barclass": "Nightclub", "barcode": 3 }, "geometry": { "type": "Point", "coordinates": [ -90.0709252, 29.9547564 ] } },
{ "type": "Feature", "properties": { "name": "Mango Mango Daiquiris", "barclass": "Bar", "barcode": 1 }, "geometry": { "type": "Point", "coordinates": [ -90.0691655, 29.9548082 ] } },
{ "type": "Feature", "properties": { "name": "Handsome Willy's", "barclass": "Pub", "barcode": 2 }, "geometry": { "type": "Point", "coordinates": [ -90.077821, 29.9570758 ] } },
{ "type": "Feature", "properties": { "name": "Three Legged Dog", "barclass": "Bar", "barcode": 1 }, "geometry": { "type": "Point", "coordinates": [ -90.0693741, 29.9575253 ] } },
{ "type": "Feature", "properties": { "name": "Jewel of the South", "barclass": "Bar", "barcode": 1 }, "geometry": { "type": "Point", "coordinates": [ -90.0694844, 29.9585553 ] } },
{ "type": "Feature", "properties": { "name": "Chickie Wah Wah", "barclass": "Nightclub", "barcode": 3 }, "geometry": { "type": "Point", "coordinates": [ -90.0895866, 29.9667519 ] } },
{ "type": "Feature", "properties": { "name": "Broadside", "barclass": "Bar", "barcode": 1 }, "geometry": { "type": "Point", "coordinates": [ -90.08345325, 29.9689218 ] } },
{ "type": "Feature", "properties": { "name": "Bayou Beer Garden", "barclass": "Pub", "barcode": 2 }, "geometry": { "type": "Point", "coordinates": [ -90.0916728, 29.9719674 ] } },
{ "type": "Feature", "properties": { "name": "Pal's Lounge", "barclass": "Pub", "barcode": 2 }, "geometry": { "type": "Point", "coordinates": [ -90.0863765, 29.9767469 ] } },
{ "type": "Feature", "properties": { "name": "Voodoo Lounge", "barclass": "Bar", "barcode": 1 }, "geometry": { "type": "Point", "coordinates": [ -90.0679926, 29.9607326 ] } },
{ "type": "Feature", "properties": { "name": "Rampart Treehouse", "barclass": "Bar", "barcode": 1 }, "geometry": { "type": "Point", "coordinates": [ -90.0675982, 29.9611823 ] } },
{ "type": "Feature", "properties": { "name": "Bar Tonique", "barclass": "Bar", "barcode": 1 }, "geometry": { "type": "Point", "coordinates": [ -90.0672165, 29.9616106 ] } },
{ "type": "Feature", "properties": { "name": "GrandPre's", "barclass": "Bar", "barcode": 1 }, "geometry": { "type": "Point", "coordinates": [ -90.0669824, 29.9618607 ] } },
{ "type": "Feature", "properties": { "name": "Mother-in-Law Lounge", "barclass": "Pub", "barcode": 2 }, "geometry": { "type": "Point", "coordinates": [ -90.0667792, 29.9709625 ] } },
{ "type": "Feature", "properties": { "name": "Seal's Class Act", "barclass": "Bar", "barcode": 1 }, "geometry": { "type": "Point", "coordinates": [ -90.0686369, 29.9787187 ] } },
{ "type": "Feature", "properties": { "name": "El Rinconcito", "barclass": "Pub", "barcode": 2 }, "geometry": { "type": "Point", "coordinates": [ -90.0991184, 29.9755717 ] } },
{ "type": "Feature", "properties": { "name": "Parkview Tavern", "barclass": "Bar", "barcode": 1 }, "geometry": { "type": "Point", "coordinates": [ -90.0935813, 29.9806679 ] } },
{ "type": "Feature", "properties": { "name": "Homedale Inn", "barclass": "Pub", "barcode": 2 }, "geometry": { "type": "Point", "coordinates": [ -90.11020859629366, 29.991649 ] } },
{ "type": "Feature", "properties": { "name": "Lots a Luck Tavern", "barclass": "Pub", "barcode": 2 }, "geometry": { "type": "Point", "coordinates": [ -90.1143419, 29.9924077 ] } },
{ "type": "Feature", "properties": { "name": "Swirl - Sensational Wines", "barclass": "Bar", "barcode": 1 }, "geometry": { "type": "Point", "coordinates": [ -90.0843487, 29.9805376 ] } },
{ "type": "Feature", "properties": { "name": "Seahorse Saloon", "barclass": "Bar", "barcode": 1 }, "geometry": { "type": "Point", "coordinates": [ -90.0768858, 29.9818577 ] } },
{ "type": "Feature", "properties": { "name": "Showcase Gentlemen's Club", "barclass": "Bar", "barcode": 1 }, "geometry": { "type": "Point", "coordinates": [ -90.0714674, 29.9840925 ] } },
{ "type": "Feature", "properties": { "name": "Deutsches Haus", "barclass": "Biergarten", "barcode": 4 }, "geometry": { "type": "Point", "coordinates": [ -90.087686954953028, 29.9860443 ] } },
{ "type": "Feature", "properties": { "name": "Jockey's Pub & Sports Bar", "barclass": "Pub", "barcode": 2 }, "geometry": { "type": "Point", "coordinates": [ -90.0764246, 29.9862557 ] } },
{ "type": "Feature", "properties": { "name": "The Sandbar", "barclass": "Bar", "barcode": 1 }, "geometry": { "type": "Point", "coordinates": [ -90.0705983, 30.0277922 ] } },
{ "type": "Feature", "properties": { "name": "The John", "barclass": "Bar", "barcode": 1 }, "geometry": { "type": "Point", "coordinates": [ -90.058092, 29.9663681 ] } },
{ "type": "Feature", "properties": { "name": "Wifey’s Queer Bar", "barclass": "Bar", "barcode": 1 }, "geometry": { "type": "Point", "coordinates": [ -90.0593155, 29.9674851 ] } },
{ "type": "Feature", "properties": { "name": "Holy Diver", "barclass": "Bar", "barcode": 1 }, "geometry": { "type": "Point", "coordinates": [ -90.063129994423861, 29.9681621 ] } },
{ "type": "Feature", "properties": { "name": "Sweet Lorraine's Jazz Club", "barclass": "Nightclub", "barcode": 3 }, "geometry": { "type": "Point", "coordinates": [ -90.0596218, 29.9684429 ] } },
{ "type": "Feature", "properties": { "name": "Poor Boys Bar", "barclass": "Bar", "barcode": 1 }, "geometry": { "type": "Point", "coordinates": [ -90.064180633291883, 29.96974515 ] } },
{ "type": "Feature", "properties": { "name": "The Bottom Line", "barclass": "Bar", "barcode": 1 }, "geometry": { "type": "Point", "coordinates": [ -90.0583943, 29.9736433 ] } },
{ "type": "Feature", "properties": { "name": "Madame Vic's", "barclass": "Bar", "barcode": 1 }, "geometry": { "type": "Point", "coordinates": [ -90.057443, 29.9726803 ] } },
{ "type": "Feature", "properties": { "name": "Sports Vue", "barclass": "Pub", "barcode": 2 }, "geometry": { "type": "Point", "coordinates": [ -90.0569352, 29.9747964 ] } },
{ "type": "Feature", "properties": { "name": "Lakeshore Landing", "barclass": "Pub", "barcode": 2 }, "geometry": { "type": "Point", "coordinates": [ -90.0130264, 30.0399574 ] } },
{ "type": "Feature", "properties": { "name": "The Lazy Jack", "barclass": "Pub", "barcode": 2 }, "geometry": { "type": "Point", "coordinates": [ -90.0131288, 30.0402956 ] } },
{ "type": "Feature", "properties": { "name": "Lost Tavern", "barclass": "Pub", "barcode": 2 }, "geometry": { "type": "Point", "coordinates": [ -89.7397076, 30.1625329 ] } }
]
}
