{
"type": "FeatureCollection",
"name": "OPP_bars_milwaukee",
"crs": { "type": "name", "properties": { "name": "urn:ogc:def:crs:OGC:1.3:CRS84" } },
"features": [
{ "type": "Feature", "properties": { "name": "The RedZone MKE", "barclass": "Bar", "barcode": 1 }, "geometry": { "type": "Point", "coordinates": [ -87.910333706989618, 42.9310332 ] } },
{ "type": "Feature", "properties": { "name": "Landmark 1850 Inn", "barclass": "Bar", "barcode": 1 }, "geometry": { "type": "Point", "coordinates": [ -87.91009892581323, 42.937336 ] } },
{ "type": "Feature", "properties": { "name": "The Airport Lounge", "barclass": "Bar", "barcode": 1 }, "geometry": { "type": "Point", "coordinates": [ -87.91043305, 42.93761495 ] } },
{ "type": "Feature", "properties": { "name": "Pat's Niche Pub & Grub", "barclass": "Pub", "barcode": 2 }, "geometry": { "type": "Point", "coordinates": [ -87.9092689, 42.9725287 ] } },
{ "type": "Feature", "properties": { "name": "Dale Z's On Tour", "barclass": "Bar", "barcode": 1 }, "geometry": { "type": "Point", "coordinates": [ -87.9088323, 42.9793928 ] } },
{ "type": "Feature", "properties": { "name": "Brown & Gibbs Sports Bar", "barclass": "Pub", "barcode": 2 }, "geometry": { "type": "Point", "coordinates": [ -87.908311, 43.0030134 ] } },
{ "type": "Feature", "properties": { "name": "The Backyard", "barclass": "Bar", "barcode": 1 }, "geometry": { "type": "Point", "coordinates": [ -87.9063922, 43.0053488 ] } },
{ "type": "Feature", "properties": { "name": "Lost Whale", "barclass": "Bar", "barcode": 1 }, "geometry": { "type": "Point", "coordinates": [ -87.90645, 43.005422 ] } },
{ "type": "Feature", "properties": { "name": "Component Brewing Company", "barclass": "Bar", "barcode": 1 }, "geometry": { "type": "Point", "coordinates": [ -87.9106993, 43.0067162 ] } },
{ "type": "Feature", "properties": { "name": "New Barons Brewing Cooperative", "barclass": "Bar", "barcode": 1 }, "geometry": { "type": "Point", "coordinates": [ -87.911049, 43.0067776 ] } },
{ "type": "Feature", "properties": { "name": "La Pina", "barclass": "Bar", "barcode": 1 }, "geometry": { "type": "Point", "coordinates": [ -87.9141399, 43.0109383 ] } },
{ "type": "Feature", "properties": { "name": "Kaña Mojito Lounge", "barclass": "Bar", "barcode": 1 }, "geometry": { "type": "Point", "coordinates": [ -87.9127692, 43.0121906 ] } },
{ "type": "Feature", "properties": { "name": "Points View Boîte", "barclass": "Bar", "barcode": 1 }, "geometry": { "type": "Point", "coordinates": [ -87.911449, 43.0138123 ] } },
{ "type": "Feature", "properties": { "name": "Woody's", "barclass": "Bar", "barcode": 1 }, "geometry": { "type": "Point", "coordinates": [ -87.912921435804009, 43.0143399 ] } },
{ "type": "Feature", "properties": { "name": "The Dark Horse Tavern", "barclass": "Pub", "barcode": 2 }, "geometry": { "type": "Point", "coordinates": [ -87.9127743, 43.015585 ] } },
{ "type": "Feature", "properties": { "name": "Giving Tree Garage", "barclass": "Biergarten", "barcode": 4 }, "geometry": { "type": "Point", "coordinates": [ -87.9123196, 43.0220348 ] } },
{ "type": "Feature", "properties": { "name": "Walker's Pint", "barclass": "Pub", "barcode": 2 }, "geometry": { "type": "Point", "coordinates": [ -87.9124706, 43.0227426 ] } },
{ "type": "Feature", "properties": { "name": "Fluid", "barclass": "Pub", "barcode": 2 }, "geometry": { "type": "Point", "coordinates": [ -87.9128219, 43.0227598 ] } },
{ "type": "Feature", "properties": { "name": "Revival", "barclass": "Bar", "barcode": 1 }, "geometry": { "type": "Point", "coordinates": [ -87.9124709, 43.0228052 ] } },
{ "type": "Feature", "properties": { "name": "La Cage", "barclass": "Nightclub", "barcode": 3 }, "geometry": { "type": "Point", "coordinates": [ -87.912970424786891, 43.0230499 ] } },
{ "type": "Feature", "properties": { "name": "Twisted Path Distillery", "barclass": "Bar", "barcode": 1 }, "geometry": { "type": "Point", "coordinates": [ -87.911038, 43.0068899 ] } },
{ "type": "Feature", "properties": { "name": "Torzala Brewing Company", "barclass": "Bar", "barcode": 1 }, "geometry": { "type": "Point", "coordinates": [ -87.9105779, 43.0073894 ] } },
{ "type": "Feature", "properties": { "name": "Red Maple MKE", "barclass": "Bar", "barcode": 1 }, "geometry": { "type": "Point", "coordinates": [ -87.91134425, 43.01122165 ] } },
{ "type": "Feature", "properties": { "name": "Waterfall Lounge & Events", "barclass": "Bar", "barcode": 1 }, "geometry": { "type": "Point", "coordinates": [ -87.9107134, 43.0121565 ] } },
{ "type": "Feature", "properties": { "name": "La Mexicana", "barclass": "Bar", "barcode": 1 }, "geometry": { "type": "Point", "coordinates": [ -87.910875, 43.0121587 ] } },
{ "type": "Feature", "properties": { "name": "Mona's Nightclub", "barclass": "Nightclub", "barcode": 3 }, "geometry": { "type": "Point", "coordinates": [ -87.911435785263336, 43.01672935 ] } },
{ "type": "Feature", "properties": { "name": "Harbor Room", "barclass": "Bar", "barcode": 1 }, "geometry": { "type": "Point", "coordinates": [ -87.910580473167528, 43.01690695 ] } },
{ "type": "Feature", "properties": { "name": "Boone and Crockett", "barclass": "Bar", "barcode": 1 }, "geometry": { "type": "Point", "coordinates": [ -87.9064475, 43.0227069 ] } },
{ "type": "Feature", "properties": { "name": "Kruz", "barclass": "Bar", "barcode": 1 }, "geometry": { "type": "Point", "coordinates": [ -87.906683614029035, 43.02338175 ] } },
{ "type": "Feature", "properties": { "name": "O'Lydia's Bar and Grill", "barclass": "Pub", "barcode": 2 }, "geometry": { "type": "Point", "coordinates": [ -87.910747645280935, 43.02747315 ] } },
{ "type": "Feature", "properties": { "name": "Cork MKE", "barclass": "Bar", "barcode": 1 }, "geometry": { "type": "Point", "coordinates": [ -87.9170378, 43.0202711 ] } },
{ "type": "Feature", "properties": { "name": "Urban Harvest Brewing Company", "barclass": "Pub", "barcode": 2 }, "geometry": { "type": "Point", "coordinates": [ -87.9166586, 43.0204948 ] } },
{ "type": "Feature", "properties": { "name": "The Local", "barclass": "Pub", "barcode": 2 }, "geometry": { "type": "Point", "coordinates": [ -87.9170299, 43.0229375 ] } },
{ "type": "Feature", "properties": { "name": "Exclusive Life Lounge", "barclass": "Bar", "barcode": 1 }, "geometry": { "type": "Point", "coordinates": [ -87.9276636, 43.0233775 ] } },
{ "type": "Feature", "properties": { "name": "Zocalo Tavern", "barclass": "Bar", "barcode": 1 }, "geometry": { "type": "Point", "coordinates": [ -87.9180427, 43.0244205 ] } },
{ "type": "Feature", "properties": { "name": "Camacho's", "barclass": "Bar", "barcode": 1 }, "geometry": { "type": "Point", "coordinates": [ -87.9183931, 43.0245727 ] } },
{ "type": "Feature", "properties": { "name": "Last Rites", "barclass": "Bar", "barcode": 1 }, "geometry": { "type": "Point", "coordinates": [ -87.9183891, 43.0247021 ] } },
{ "type": "Feature", "properties": { "name": "Snifter's Tapas and Spirits", "barclass": "Bar", "barcode": 1 }, "geometry": { "type": "Point", "coordinates": [ -87.9166602, 43.0250534 ] } },
{ "type": "Feature", "properties": { "name": "MobCraft Beer", "barclass": "Pub", "barcode": 2 }, "geometry": { "type": "Point", "coordinates": [ -87.9171484, 43.0261644 ] } },
{ "type": "Feature", "properties": { "name": "Conejito's Place", "barclass": "Pub", "barcode": 2 }, "geometry": { "type": "Point", "coordinates": [ -87.9180396, 43.0261968 ] } },
{ "type": "Feature", "properties": { "name": "Steny's Tavern & Grill", "barclass": "Pub", "barcode": 2 }, "geometry": { "type": "Point", "coordinates": [ -87.9123161, 43.0230581 ] } },
{ "type": "Feature", "properties": { "name": "Fat Daddy's", "barclass": "Bar", "barcode": 1 }, "geometry": { "type": "Point", "coordinates": [ -87.9119794, 43.0233456 ] } },
{ "type": "Feature", "properties": { "name": "POP", "barclass": "Bar", "barcode": 1 }, "geometry": { "type": "Point", "coordinates": [ -87.9121015, 43.0233502 ] } },
{ "type": "Feature", "properties": { "name": "DIX Milwaukee", "barclass": "Bar", "barcode": 1 }, "geometry": { "type": "Point", "coordinates": [ -87.911479375271284, 43.02339145 ] } },
{ "type": "Feature", "properties": { "name": "Pomeroy", "barclass": "Bar", "barcode": 1 }, "geometry": { "type": "Point", "coordinates": [ -87.9128097, 43.0237099 ] } },
{ "type": "Feature", "properties": { "name": "The Tin Widow", "barclass": "Bar", "barcode": 1 }, "geometry": { "type": "Point", "coordinates": [ -87.912833, 43.024128 ] } },
{ "type": "Feature", "properties": { "name": "Sabbatic", "barclass": "Bar", "barcode": 1 }, "geometry": { "type": "Point", "coordinates": [ -87.9124739, 43.02413 ] } },
{ "type": "Feature", "properties": { "name": "Indeed Brewing Company", "barclass": "Pub", "barcode": 2 }, "geometry": { "type": "Point", "coordinates": [ -87.9124177, 43.0255474 ] } },
{ "type": "Feature", "properties": { "name": "Glassnote Candle Bar", "barclass": "Bar", "barcode": 1 }, "geometry": { "type": "Point", "coordinates": [ -87.9122927, 43.0256727 ] } },
{ "type": "Feature", "properties": { "name": "UpTop", "barclass": "Bar", "barcode": 1 }, "geometry": { "type": "Point", "coordinates": [ -87.9130393, 43.0258291 ] } },
{ "type": "Feature", "properties": { "name": "Zad's", "barclass": "Pub", "barcode": 2 }, "geometry": { "type": "Point", "coordinates": [ -87.9124671, 43.0264298 ] } },
{ "type": "Feature", "properties": { "name": "Shaker's Cigar Bar", "barclass": "Bar", "barcode": 1 }, "geometry": { "type": "Point", "coordinates": [ -87.9124424, 43.0267549 ] } },
{ "type": "Feature", "properties": { "name": "Caroline’s Jazz Club", "barclass": "Bar", "barcode": 1 }, "geometry": { "type": "Point", "coordinates": [ -87.9128025, 43.0271882 ] } },
{ "type": "Feature", "properties": { "name": "Black Sheep", "barclass": "Bar", "barcode": 1 }, "geometry": { "type": "Point", "coordinates": [ -87.9124194, 43.0289545 ] } },
{ "type": "Feature", "properties": { "name": "The Emporium Brew Pub", "barclass": "Pub", "barcode": 2 }, "geometry": { "type": "Point", "coordinates": [ -87.9122432, 43.0344876 ] } },
{ "type": "Feature", "properties": { "name": "City Fountain", "barclass": "Bar", "barcode": 1 }, "geometry": { "type": "Point", "coordinates": [ -87.9142838, 43.0380788 ] } },
{ "type": "Feature", "properties": { "name": "3rd Street Market Bar", "barclass": "Bar", "barcode": 1 }, "geometry": { "type": "Point", "coordinates": [ -87.9145322, 43.0382922 ] } },
{ "type": "Feature", "properties": { "name": "Mo's Irish Pub", "barclass": "Pub", "barcode": 2 }, "geometry": { "type": "Point", "coordinates": [ -87.9115753, 43.0389259 ] } },
{ "type": "Feature", "properties": { "name": "Bar 333", "barclass": "Bar", "barcode": 1 }, "geometry": { "type": "Point", "coordinates": [ -87.9147481, 43.0411142 ] } },
{ "type": "Feature", "properties": { "name": "Deer Camp", "barclass": "Bar", "barcode": 1 }, "geometry": { "type": "Point", "coordinates": [ -87.9146638, 43.0435404 ] } },
{ "type": "Feature", "properties": { "name": "Distil", "barclass": "Bar", "barcode": 1 }, "geometry": { "type": "Point", "coordinates": [ -87.9064605, 43.0393945 ] } },
{ "type": "Feature", "properties": { "name": "Oak & Oyster", "barclass": "Bar", "barcode": 1 }, "geometry": { "type": "Point", "coordinates": [ -87.9063661, 43.0394493 ] } },
{ "type": "Feature", "properties": { "name": "Lucid Light Lounge", "barclass": "Nightclub", "barcode": 3 }, "geometry": { "type": "Point", "coordinates": [ -87.9067566, 43.0395204 ] } },
{ "type": "Feature", "properties": { "name": "Dick's Pizza & Pleasure", "barclass": "Nightclub", "barcode": 3 }, "geometry": { "type": "Point", "coordinates": [ -87.906251979130431, 43.0395574 ] } },
{ "type": "Feature", "properties": { "name": "Zen on Seven", "barclass": "Bar", "barcode": 1 }, "geometry": { "type": "Point", "coordinates": [ -87.906432043833291, 43.0397917 ] } },
{ "type": "Feature", "properties": { "name": "XO Cocktail Parlor", "barclass": "Bar", "barcode": 1 }, "geometry": { "type": "Point", "coordinates": [ -87.9070439, 43.0400906 ] } },
{ "type": "Feature", "properties": { "name": "Your Office", "barclass": "Pub", "barcode": 2 }, "geometry": { "type": "Point", "coordinates": [ -87.9069318, 43.0404061 ] } },
{ "type": "Feature", "properties": { "name": "Newsroom Pub", "barclass": "Pub", "barcode": 2 }, "geometry": { "type": "Point", "coordinates": [ -87.910313, 43.0408169 ] } },
{ "type": "Feature", "properties": { "name": "The Dark Room", "barclass": "Bar", "barcode": 1 }, "geometry": { "type": "Point", "coordinates": [ -87.9105069, 43.0416523 ] } },
{ "type": "Feature", "properties": { "name": "the Bar", "barclass": "Bar", "barcode": 1 }, "geometry": { "type": "Point", "coordinates": [ -87.910983, 43.0418714 ] } },
{ "type": "Feature", "properties": { "name": "Major Goolsby's", "barclass": "Bar", "barcode": 1 }, "geometry": { "type": "Point", "coordinates": [ -87.915583, 43.0417425 ] } },
{ "type": "Feature", "properties": { "name": "Who's On Third", "barclass": "Bar", "barcode": 1 }, "geometry": { "type": "Point", "coordinates": [ -87.914784696248745, 43.04315915 ] } },
{ "type": "Feature", "properties": { "name": "Oak Barrel Public House", "barclass": "Bar", "barcode": 1 }, "geometry": { "type": "Point", "coordinates": [ -87.914881825410873, 43.0437638 ] } },
{ "type": "Feature", "properties": { "name": "Drink Wisconsinbly Pub", "barclass": "Pub", "barcode": 2 }, "geometry": { "type": "Point", "coordinates": [ -87.9153436, 43.0445388 ] } },
{ "type": "Feature", "properties": { "name": "The New Fashioned", "barclass": "Bar", "barcode": 1 }, "geometry": { "type": "Point", "coordinates": [ -87.9156081, 43.0448902 ] } },
{ "type": "Feature", "properties": { "name": "Red Star", "barclass": "Nightclub", "barcode": 3 }, "geometry": { "type": "Point", "coordinates": [ -87.9149842, 43.0449358 ] } },
{ "type": "Feature", "properties": { "name": null, "barclass": "Biergarten", "barcode": 4 }, "geometry": { "type": "Point", "coordinates": [ -87.922766254418647, 43.0450154 ] } },
{ "type": "Feature", "properties": { "name": "The Beer Garden", "barclass": "Biergarten", "barcode": 4 }, "geometry": { "type": "Point", "coordinates": [ -87.915066286047463, 43.04505785 ] } },
{ "type": "Feature", "properties": { "name": "The Rooftop", "barclass": "Bar", "barcode": 1 }, "geometry": { "type": "Point", "coordinates": [ -87.922536, 43.0450883 ] } },
{ "type": "Feature", "properties": { "name": "The Beer Garden", "barclass": "Bar", "barcode": 1 }, "geometry": { "type": "Point", "coordinates": [ -87.9149567, 43.0451004 ] } },
{ "type": "Feature", "properties": { "name": "Knight's Bar", "barclass": "Bar", "barcode": 1 }, "geometry": { "type": "Point", "coordinates": [ -87.9145995, 43.0439168 ] } },
{ "type": "Feature", "properties": { "name": "RWB", "barclass": "Bar", "barcode": 1 }, "geometry": { "type": "Point", "coordinates": [ -87.9142987, 43.0439433 ] } },
{ "type": "Feature", "properties": { "name": "Buckhead Back Bar Saloon", "barclass": "Bar", "barcode": 1 }, "geometry": { "type": "Point", "coordinates": [ -87.9137879, 43.0439694 ] } },
{ "type": "Feature", "properties": { "name": "Brüdd Cafe", "barclass": "Pub", "barcode": 2 }, "geometry": { "type": "Point", "coordinates": [ -87.914298, 43.0440047 ] } },
{ "type": "Feature", "properties": { "name": "The Pub Club", "barclass": "Pub", "barcode": 2 }, "geometry": { "type": "Point", "coordinates": [ -87.9145887, 43.0444865 ] } },
{ "type": "Feature", "properties": { "name": "Truth Lounge", "barclass": "Bar", "barcode": 1 }, "geometry": { "type": "Point", "coordinates": [ -87.9145878, 43.0446851 ] } },
{ "type": "Feature", "properties": { "name": "WhiteTail Milwaukee", "barclass": "Bar", "barcode": 1 }, "geometry": { "type": "Point", "coordinates": [ -87.9141786, 43.0447219 ] } },
{ "type": "Feature", "properties": { "name": "Uncle Bucks on Third", "barclass": "Bar", "barcode": 1 }, "geometry": { "type": "Point", "coordinates": [ -87.9146878, 43.0449314 ] } },
{ "type": "Feature", "properties": { "name": "Trinity Three", "barclass": "Pub", "barcode": 2 }, "geometry": { "type": "Point", "coordinates": [ -87.912052621175803, 43.04528385 ] } },
{ "type": "Feature", "properties": { "name": "Pourman's", "barclass": "Pub", "barcode": 2 }, "geometry": { "type": "Point", "coordinates": [ -87.9114416295956, 43.04529015 ] } },
{ "type": "Feature", "properties": { "name": "Gallagher's", "barclass": "Pub", "barcode": 2 }, "geometry": { "type": "Point", "coordinates": [ -87.912053230806549, 43.04535865 ] } },
{ "type": "Feature", "properties": { "name": null, "barclass": "Biergarten", "barcode": 4 }, "geometry": { "type": "Point", "coordinates": [ -87.911629492935305, 43.04547055 ] } },
{ "type": "Feature", "properties": { "name": "The Harp", "barclass": "Pub", "barcode": 2 }, "geometry": { "type": "Point", "coordinates": [ -87.912753343741855, 43.045471 ] } },
{ "type": "Feature", "properties": { "name": "McGillycuddy's Bar & Grill", "barclass": "Bar", "barcode": 1 }, "geometry": { "type": "Point", "coordinates": [ -87.911515527739823, 43.0454735 ] } },
{ "type": "Feature", "properties": { "name": "Foy's", "barclass": "Pub", "barcode": 2 }, "geometry": { "type": "Point", "coordinates": [ -87.912221227491841, 43.0454919 ] } },
{ "type": "Feature", "properties": { "name": "Duffy's", "barclass": "Pub", "barcode": 2 }, "geometry": { "type": "Point", "coordinates": [ -87.911869634400006, 43.04550345 ] } },
{ "type": "Feature", "properties": { "name": null, "barclass": "Biergarten", "barcode": 4 }, "geometry": { "type": "Point", "coordinates": [ -87.912034699004494, 43.04550385 ] } },
{ "type": "Feature", "properties": { "name": "Scooter's Pub", "barclass": "Pub", "barcode": 2 }, "geometry": { "type": "Point", "coordinates": [ -87.9114467, 43.0458922 ] } },
{ "type": "Feature", "properties": { "name": "Mojo MKE", "barclass": "Bar", "barcode": 1 }, "geometry": { "type": "Point", "coordinates": [ -87.9119996, 43.0459276 ] } },
{ "type": "Feature", "properties": { "name": "Rogues Gallery", "barclass": "Bar", "barcode": 1 }, "geometry": { "type": "Point", "coordinates": [ -87.911929891403275, 43.0460523 ] } },
{ "type": "Feature", "properties": { "name": null, "barclass": "Bar", "barcode": 1 }, "geometry": { "type": "Point", "coordinates": [ -87.96987144351364, 42.9881646 ] } },
{ "type": "Feature", "properties": { "name": "Solutions", "barclass": "Pub", "barcode": 2 }, "geometry": { "type": "Point", "coordinates": [ -87.9873526, 42.994877 ] } },
{ "type": "Feature", "properties": { "name": "Holler House", "barclass": "Pub", "barcode": 2 }, "geometry": { "type": "Point", "coordinates": [ -87.9395795, 43.0031865 ] } },
{ "type": "Feature", "properties": { "name": "McKiernan's Irish Pub & Grill", "barclass": "Bar", "barcode": 1 }, "geometry": { "type": "Point", "coordinates": [ -87.960302, 43.0069849 ] } },
{ "type": "Feature", "properties": { "name": "La Hamaca Bar", "barclass": "Bar", "barcode": 1 }, "geometry": { "type": "Point", "coordinates": [ -87.9414656, 43.0086401 ] } },
{ "type": "Feature", "properties": { "name": "Kochanski's Concertina Beer Hall", "barclass": "Bar", "barcode": 1 }, "geometry": { "type": "Point", "coordinates": [ -87.9601518, 43.0097177 ] } },
{ "type": "Feature", "properties": { "name": "Who's On Layton", "barclass": "Pub", "barcode": 2 }, "geometry": { "type": "Point", "coordinates": [ -87.917519499299132, 42.9596926 ] } },
{ "type": "Feature", "properties": { "name": "Nick's Anvil Inn", "barclass": "Pub", "barcode": 2 }, "geometry": { "type": "Point", "coordinates": [ -87.9285006, 42.9918151 ] } },
{ "type": "Feature", "properties": { "name": "Reyna's Bar", "barclass": "Bar", "barcode": 1 }, "geometry": { "type": "Point", "coordinates": [ -87.918694, 42.9977462 ] } },
{ "type": "Feature", "properties": { "name": "Cedar Inn", "barclass": "Pub", "barcode": 2 }, "geometry": { "type": "Point", "coordinates": [ -87.9185694, 43.0047681 ] } },
{ "type": "Feature", "properties": { "name": "Smokeys", "barclass": "Bar", "barcode": 1 }, "geometry": { "type": "Point", "coordinates": [ -87.933472, 43.0048491 ] } },
{ "type": "Feature", "properties": { "name": "Club 6 Street", "barclass": "Bar", "barcode": 1 }, "geometry": { "type": "Point", "coordinates": [ -87.9188742, 43.0063619 ] } },
{ "type": "Feature", "properties": { "name": "Koz's Mini Bowl", "barclass": "Bar", "barcode": 1 }, "geometry": { "type": "Point", "coordinates": [ -87.919755879164398, 43.0066135 ] } },
{ "type": "Feature", "properties": { "name": "La Farándula", "barclass": "Bar", "barcode": 1 }, "geometry": { "type": "Point", "coordinates": [ -87.9243471, 43.0109153 ] } },
{ "type": "Feature", "properties": { "name": "La Sirenita Bar", "barclass": "Bar", "barcode": 1 }, "geometry": { "type": "Point", "coordinates": [ -87.9309716, 43.0124201 ] } },
{ "type": "Feature", "properties": { "name": "Bryant's Cocktail Lounge", "barclass": "Bar", "barcode": 1 }, "geometry": { "type": "Point", "coordinates": [ -87.9228675, 43.01434585 ] } },
{ "type": "Feature", "properties": { "name": "Bull Shooter Saloon", "barclass": "Pub", "barcode": 2 }, "geometry": { "type": "Point", "coordinates": [ -87.992191069527962, 43.02584575 ] } },
{ "type": "Feature", "properties": { "name": "Hangoverz", "barclass": "Bar", "barcode": 1 }, "geometry": { "type": "Point", "coordinates": [ -87.9462943, 43.0123955 ] } },
{ "type": "Feature", "properties": { "name": "El Infierno", "barclass": "Bar", "barcode": 1 }, "geometry": { "type": "Point", "coordinates": [ -87.9383193, 43.0125173 ] } },
{ "type": "Feature", "properties": { "name": "Tequila Night Club", "barclass": "Nightclub", "barcode": 3 }, "geometry": { "type": "Point", "coordinates": [ -87.9339991, 43.0159096 ] } },
{ "type": "Feature", "properties": { "name": "Ice House Bar & Grill", "barclass": "Pub", "barcode": 2 }, "geometry": { "type": "Point", "coordinates": [ -87.9673355, 43.0160718 ] } },
{ "type": "Feature", "properties": { "name": "The Patio Pub & Grill", "barclass": "Pub", "barcode": 2 }, "geometry": { "type": "Point", "coordinates": [ -87.945196, 43.0168822 ] } },
{ "type": "Feature", "properties": { "name": "Milwaukee Nights Pub", "barclass": "Pub", "barcode": 2 }, "geometry": { "type": "Point", "coordinates": [ -87.9622067, 43.0215059 ] } },
{ "type": "Feature", "properties": { "name": "Missy Sweet's Lounge", "barclass": "Bar", "barcode": 1 }, "geometry": { "type": "Point", "coordinates": [ -87.9569238, 43.0218166 ] } },
{ "type": "Feature", "properties": { "name": "Mamie’s", "barclass": "Bar", "barcode": 1 }, "geometry": { "type": "Point", "coordinates": [ -87.9553184, 43.0219238 ] } },
{ "type": "Feature", "properties": { "name": "Lombardi Brewing Company", "barclass": "Pub", "barcode": 2 }, "geometry": { "type": "Point", "coordinates": [ -87.9419065, 43.033419 ] } },
{ "type": "Feature", "properties": { "name": "Great Lakes Distillery Tasting Room", "barclass": "Bar", "barcode": 1 }, "geometry": { "type": "Point", "coordinates": [ -87.9187168, 43.0266465 ] } },
{ "type": "Feature", "properties": { "name": "Banderas", "barclass": "Bar", "barcode": 1 }, "geometry": { "type": "Point", "coordinates": [ -87.9159009, 43.0275135 ] } },
{ "type": "Feature", "properties": { "name": null, "barclass": "Biergarten", "barcode": 4 }, "geometry": { "type": "Point", "coordinates": [ -87.932653631762165, 43.03444095 ] } },
{ "type": "Feature", "properties": { "name": "Third Space Brewing Tap Room", "barclass": "Bar", "barcode": 1 }, "geometry": { "type": "Point", "coordinates": [ -87.9326545, 43.034482 ] } },
{ "type": "Feature", "properties": { "name": "High Note Karaoke Lounge", "barclass": "Bar", "barcode": 1 }, "geometry": { "type": "Point", "coordinates": [ -87.9205099, 43.0385197 ] } },
{ "type": "Feature", "properties": { "name": "Draft & Co.", "barclass": "Pub", "barcode": 2 }, "geometry": { "type": "Point", "coordinates": [ -87.9172222, 43.0386317 ] } },
{ "type": "Feature", "properties": { "name": "Miller Time Pub & Grill", "barclass": "Pub", "barcode": 2 }, "geometry": { "type": "Point", "coordinates": [ -87.9176416, 43.03869 ] } },
{ "type": "Feature", "properties": { "name": "Caffrey's", "barclass": "Pub", "barcode": 2 }, "geometry": { "type": "Point", "coordinates": [ -87.9331036, 43.0392014 ] } },
{ "type": "Feature", "properties": { "name": "The Joint", "barclass": "Bar", "barcode": 1 }, "geometry": { "type": "Point", "coordinates": [ -87.920068169414975, 43.03987305 ] } },
{ "type": "Feature", "properties": { "name": "Murphy's Pub", "barclass": "Pub", "barcode": 2 }, "geometry": { "type": "Point", "coordinates": [ -87.9334925, 43.0401588 ] } },
{ "type": "Feature", "properties": { "name": "Liquid Johnny's", "barclass": "Bar", "barcode": 1 }, "geometry": { "type": "Point", "coordinates": [ -88.0068866, 43.0263128 ] } },
{ "type": "Feature", "properties": { "name": null, "barclass": "Pub", "barcode": 2 }, "geometry": { "type": "Point", "coordinates": [ -88.0007055, 43.0283779 ] } },
{ "type": "Feature", "properties": { "name": "Fairview Inn", "barclass": "Bar", "barcode": 1 }, "geometry": { "type": "Point", "coordinates": [ -87.9965789, 43.0315451 ] } },
{ "type": "Feature", "properties": { "name": "Brewski's Bar & Grill", "barclass": "Pub", "barcode": 2 }, "geometry": { "type": "Point", "coordinates": [ -88.006990642464842, 43.03409825 ] } },
{ "type": "Feature", "properties": { "name": "Sobelman's Pub & Grill", "barclass": "Pub", "barcode": 2 }, "geometry": { "type": "Point", "coordinates": [ -87.93681, 43.0349055 ] } },
{ "type": "Feature", "properties": { "name": "Rounding Third", "barclass": "Bar", "barcode": 1 }, "geometry": { "type": "Point", "coordinates": [ -87.991650836338707, 43.03596895 ] } },
{ "type": "Feature", "properties": { "name": "Magoo's on the Mound", "barclass": "Pub", "barcode": 2 }, "geometry": { "type": "Point", "coordinates": [ -87.98582606981978, 43.0362949 ] } },
{ "type": "Feature", "properties": { "name": "McGinn's", "barclass": "Pub", "barcode": 2 }, "geometry": { "type": "Point", "coordinates": [ -87.986234851289794, 43.03630155 ] } },
{ "type": "Feature", "properties": { "name": "Dugout 54", "barclass": "Pub", "barcode": 2 }, "geometry": { "type": "Point", "coordinates": [ -87.9808291, 43.0367725 ] } },
{ "type": "Feature", "properties": { "name": "Kelly's Bleachers", "barclass": "Bar", "barcode": 1 }, "geometry": { "type": "Point", "coordinates": [ -87.9794128, 43.0368083 ] } },
{ "type": "Feature", "properties": { "name": "J & B's Blue Ribbon", "barclass": "Pub", "barcode": 2 }, "geometry": { "type": "Point", "coordinates": [ -87.9797371, 43.0368293 ] } },
{ "type": "Feature", "properties": { "name": "Spitfire's Sports Bar", "barclass": "Bar", "barcode": 1 }, "geometry": { "type": "Point", "coordinates": [ -87.976276751909609, 43.0444995 ] } },
{ "type": "Feature", "properties": { "name": "1903 Tavern", "barclass": "Bar", "barcode": 1 }, "geometry": { "type": "Point", "coordinates": [ -87.9593675, 43.0450223 ] } },
{ "type": "Feature", "properties": { "name": "The Neighborhood Draft", "barclass": "Pub", "barcode": 2 }, "geometry": { "type": "Point", "coordinates": [ -87.9455716, 43.0485219 ] } },
{ "type": "Feature", "properties": { "name": "In Plane View", "barclass": "Bar", "barcode": 1 }, "geometry": { "type": "Point", "coordinates": [ -87.901276924410013, 42.9595426 ] } },
{ "type": "Feature", "properties": { "name": "Gator's Pub", "barclass": "Bar", "barcode": 1 }, "geometry": { "type": "Point", "coordinates": [ -87.90195595, 42.96632235 ] } },
{ "type": "Feature", "properties": { "name": "The Bubbler", "barclass": "Bar", "barcode": 1 }, "geometry": { "type": "Point", "coordinates": [ -87.904517597025105, 42.98700815 ] } },
{ "type": "Feature", "properties": { "name": "Supermoon Beer Company", "barclass": "Bar", "barcode": 1 }, "geometry": { "type": "Point", "coordinates": [ -87.9049629, 42.9872675 ] } },
{ "type": "Feature", "properties": { "name": "The Vine Humboldt - Wine & Beer Garden", "barclass": "Biergarten", "barcode": 4 }, "geometry": { "type": "Point", "coordinates": [ -87.90128512519945, 42.9909525 ] } },
{ "type": "Feature", "properties": { "name": "Toni's Moody Blues", "barclass": "Bar", "barcode": 1 }, "geometry": { "type": "Point", "coordinates": [ -87.904492, 42.9934467 ] } },
{ "type": "Feature", "properties": { "name": "Burnhearts", "barclass": "Bar", "barcode": 1 }, "geometry": { "type": "Point", "coordinates": [ -87.8969505, 42.9972454 ] } },
{ "type": "Feature", "properties": { "name": "The Stone", "barclass": "Bar", "barcode": 1 }, "geometry": { "type": "Point", "coordinates": [ -87.9046466, 43.0005242 ] } },
{ "type": "Feature", "properties": { "name": "The Newport", "barclass": "Bar", "barcode": 1 }, "geometry": { "type": "Point", "coordinates": [ -87.8969153, 43.0005349 ] } },
{ "type": "Feature", "properties": { "name": "Milwaukee Brewing Co.", "barclass": "Bar", "barcode": 1 }, "geometry": { "type": "Point", "coordinates": [ -87.9039774, 43.0021674 ] } },
{ "type": "Feature", "properties": { "name": "Bad Moon Saloon", "barclass": "Bar", "barcode": 1 }, "geometry": { "type": "Point", "coordinates": [ -87.894404375209504, 42.9710071 ] } },
{ "type": "Feature", "properties": { "name": "Busby's Pub", "barclass": "Pub", "barcode": 2 }, "geometry": { "type": "Point", "coordinates": [ -87.880023400228779, 42.9812271 ] } },
{ "type": "Feature", "properties": { "name": "Blackbird Bar", "barclass": "Bar", "barcode": 1 }, "geometry": { "type": "Point", "coordinates": [ -87.8849559, 42.9900105 ] } },
{ "type": "Feature", "properties": { "name": "Wiggle Room", "barclass": "Bar", "barcode": 1 }, "geometry": { "type": "Point", "coordinates": [ -87.8850548, 42.9905157 ] } },
{ "type": "Feature", "properties": { "name": "South Shore Terrace", "barclass": "Biergarten", "barcode": 4 }, "geometry": { "type": "Point", "coordinates": [ -87.8810098, 42.9937415 ] } },
{ "type": "Feature", "properties": { "name": "Frank's Power Plant", "barclass": "Bar", "barcode": 1 }, "geometry": { "type": "Point", "coordinates": [ -87.893013681470578, 42.99422785 ] } },
{ "type": "Feature", "properties": { "name": "Highbury Pub", "barclass": "Pub", "barcode": 2 }, "geometry": { "type": "Point", "coordinates": [ -87.9037297, 43.0025406 ] } },
{ "type": "Feature", "properties": { "name": "Sugar Maple", "barclass": "Bar", "barcode": 1 }, "geometry": { "type": "Point", "coordinates": [ -87.903471284819844, 43.00271435 ] } },
{ "type": "Feature", "properties": { "name": "The Mothership", "barclass": "Bar", "barcode": 1 }, "geometry": { "type": "Point", "coordinates": [ -87.896889, 43.0027888 ] } },
{ "type": "Feature", "properties": { "name": "Pink Agave", "barclass": "Bar", "barcode": 1 }, "geometry": { "type": "Point", "coordinates": [ -87.9047902, 43.0038027 ] } },
{ "type": "Feature", "properties": { "name": "RSVR", "barclass": "Bar", "barcode": 1 }, "geometry": { "type": "Point", "coordinates": [ -87.9051714, 43.0043811 ] } },
{ "type": "Feature", "properties": { "name": "17th Ward Cocktail Lounge", "barclass": "Bar", "barcode": 1 }, "geometry": { "type": "Point", "coordinates": [ -87.9060833, 43.0054611 ] } },
{ "type": "Feature", "properties": { "name": "Campsite 131", "barclass": "Bar", "barcode": 1 }, "geometry": { "type": "Point", "coordinates": [ -87.9032399, 43.0304584 ] } },
{ "type": "Feature", "properties": { "name": "Camp Bar", "barclass": "Bar", "barcode": 1 }, "geometry": { "type": "Point", "coordinates": [ -87.9035891, 43.0315475 ] } },
{ "type": "Feature", "properties": { "name": "Klement's Sausage and Beer Garden", "barclass": "Biergarten", "barcode": 4 }, "geometry": { "type": "Point", "coordinates": [ -87.898977897290365, 43.03477455 ] } },
{ "type": "Feature", "properties": { "name": "Blu", "barclass": "Bar", "barcode": 1 }, "geometry": { "type": "Point", "coordinates": [ -87.9057546, 43.0396227 ] } },
{ "type": "Feature", "properties": { "name": "The House", "barclass": "Bar", "barcode": 1 }, "geometry": { "type": "Point", "coordinates": [ -87.8952305, 42.9978492 ] } },
{ "type": "Feature", "properties": { "name": "At Random", "barclass": "Bar", "barcode": 1 }, "geometry": { "type": "Point", "coordinates": [ -87.8913477, 42.9979192 ] } },
{ "type": "Feature", "properties": { "name": "Puddler’s Hall", "barclass": "Bar", "barcode": 1 }, "geometry": { "type": "Point", "coordinates": [ -87.893038831666672, 42.9987596 ] } },
{ "type": "Feature", "properties": { "name": "Club Garibaldi", "barclass": "Bar", "barcode": 1 }, "geometry": { "type": "Point", "coordinates": [ -87.889736706536837, 42.99896045 ] } },
{ "type": "Feature", "properties": { "name": "Cactus Club", "barclass": "Bar", "barcode": 1 }, "geometry": { "type": "Point", "coordinates": [ -87.890202040271902, 42.99903035 ] } },
{ "type": "Feature", "properties": { "name": "Palomino Bar", "barclass": "Bar", "barcode": 1 }, "geometry": { "type": "Point", "coordinates": [ -87.890061474562174, 42.9991218 ] } },
{ "type": "Feature", "properties": { "name": "Roundhouse Beer Garden at McKinley Marina", "barclass": "Biergarten", "barcode": 4 }, "geometry": { "type": "Point", "coordinates": [ -87.8832332, 43.0511221 ] } },
{ "type": "Feature", "properties": { "name": "Nomad World Pub", "barclass": "Pub", "barcode": 2 }, "geometry": { "type": "Point", "coordinates": [ -87.89384753549173, 43.05269185 ] } },
{ "type": "Feature", "properties": { "name": "WürstBar", "barclass": "Bar", "barcode": 1 }, "geometry": { "type": "Point", "coordinates": [ -87.8956083, 43.0527941 ] } },
{ "type": "Feature", "properties": { "name": "MKE's Smallest Bar", "barclass": "Bar", "barcode": 1 }, "geometry": { "type": "Point", "coordinates": [ -87.894411947020416, 43.05279895 ] } },
{ "type": "Feature", "properties": { "name": "Broken Bat Brewing Company", "barclass": "Bar", "barcode": 1 }, "geometry": { "type": "Point", "coordinates": [ -87.9099667, 43.0291896 ] } },
{ "type": "Feature", "properties": { "name": "NorthSouth Club", "barclass": "Bar", "barcode": 1 }, "geometry": { "type": "Point", "coordinates": [ -87.9090056, 43.0296193 ] } },
{ "type": "Feature", "properties": { "name": "Third Ward Beer Garden at Catalano Square", "barclass": "Biergarten", "barcode": 4 }, "geometry": { "type": "Point", "coordinates": [ -87.9067264, 43.031129 ] } },
{ "type": "Feature", "properties": { "name": "Club Charlies", "barclass": "Bar", "barcode": 1 }, "geometry": { "type": "Point", "coordinates": [ -87.9062839, 43.0316277 ] } },
{ "type": "Feature", "properties": { "name": "Indulge", "barclass": "Bar", "barcode": 1 }, "geometry": { "type": "Point", "coordinates": [ -87.9067736, 43.0316282 ] } },
{ "type": "Feature", "properties": { "name": "The Copper Turtle Brewery & Taverne", "barclass": "Pub", "barcode": 2 }, "geometry": { "type": "Point", "coordinates": [ -87.9061799, 43.0316354 ] } },
{ "type": "Feature", "properties": { "name": "Tied House", "barclass": "Bar", "barcode": 1 }, "geometry": { "type": "Point", "coordinates": [ -87.909221855052493, 43.03197085 ] } },
{ "type": "Feature", "properties": { "name": "Splash Studio", "barclass": "Bar", "barcode": 1 }, "geometry": { "type": "Point", "coordinates": [ -87.9069075, 43.0323457 ] } },
{ "type": "Feature", "properties": { "name": "Bugsy's Back Alley Speakeasy", "barclass": "Bar", "barcode": 1 }, "geometry": { "type": "Point", "coordinates": [ -87.9086043, 43.0329044 ] } },
{ "type": "Feature", "properties": { "name": "The Outsider", "barclass": "Bar", "barcode": 1 }, "geometry": { "type": "Point", "coordinates": [ -87.906824284897809, 43.03299635 ] } },
{ "type": "Feature", "properties": { "name": "Wizard Works Brewing", "barclass": "Bar", "barcode": 1 }, "geometry": { "type": "Point", "coordinates": [ -87.9080547, 43.0336768 ] } },
{ "type": "Feature", "properties": { "name": "Nicole's Third Ward Social", "barclass": "Bar", "barcode": 1 }, "geometry": { "type": "Point", "coordinates": [ -87.9075463, 43.0346658 ] } },
{ "type": "Feature", "properties": { "name": "The Wicked Hop", "barclass": "Bar", "barcode": 1 }, "geometry": { "type": "Point", "coordinates": [ -87.9075696, 43.0348876 ] } },
{ "type": "Feature", "properties": { "name": "St. Paul Fish Company Palapa / Ice Bar", "barclass": "Bar", "barcode": 1 }, "geometry": { "type": "Point", "coordinates": [ -87.907597, 43.0352261 ] } },
{ "type": "Feature", "properties": { "name": "BrownStone Social Lounge", "barclass": "Bar", "barcode": 1 }, "geometry": { "type": "Point", "coordinates": [ -87.908540602392264, 43.0368549 ] } },
{ "type": "Feature", "properties": { "name": "ELMNT Lounge", "barclass": "Bar", "barcode": 1 }, "geometry": { "type": "Point", "coordinates": [ -87.9088124, 43.0379203 ] } },
{ "type": "Feature", "properties": { "name": "District On Water", "barclass": "Bar", "barcode": 1 }, "geometry": { "type": "Point", "coordinates": [ -87.9088654, 43.038159 ] } },
{ "type": "Feature", "properties": { "name": "Stir", "barclass": "Bar", "barcode": 1 }, "geometry": { "type": "Point", "coordinates": [ -87.9106626, 43.0388933 ] } },
{ "type": "Feature", "properties": { "name": "Indulge", "barclass": "Bar", "barcode": 1 }, "geometry": { "type": "Point", "coordinates": [ -87.9064041, 43.0391239 ] } },
{ "type": "Feature", "properties": { "name": "No.720", "barclass": "Nightclub", "barcode": 3 }, "geometry": { "type": "Point", "coordinates": [ -87.9064564, 43.0393533 ] } },
{ "type": "Feature", "properties": { "name": "SportClub", "barclass": "Bar", "barcode": 1 }, "geometry": { "type": "Point", "coordinates": [ -87.9052437, 43.040234 ] } },
{ "type": "Feature", "properties": { "name": "Chic Underground Lounge", "barclass": "Bar", "barcode": 1 }, "geometry": { "type": "Point", "coordinates": [ -87.9052332, 43.0404448 ] } },
{ "type": "Feature", "properties": { "name": "The Sofie", "barclass": "Bar", "barcode": 1 }, "geometry": { "type": "Point", "coordinates": [ -87.9057055, 43.0407491 ] } },
{ "type": "Feature", "properties": { "name": "Foy's", "barclass": "Bar", "barcode": 1 }, "geometry": { "type": "Point", "coordinates": [ -87.9053188, 43.0409099 ] } },
{ "type": "Feature", "properties": { "name": "Bad Genie", "barclass": "Nightclub", "barcode": 3 }, "geometry": { "type": "Point", "coordinates": [ -87.905701, 43.0409675 ] } },
{ "type": "Feature", "properties": { "name": "Taylor's", "barclass": "Bar", "barcode": 1 }, "geometry": { "type": "Point", "coordinates": [ -87.905745596595381, 43.04110265 ] } },
{ "type": "Feature", "properties": { "name": "Agency", "barclass": "Bar", "barcode": 1 }, "geometry": { "type": "Point", "coordinates": [ -87.9008529, 43.0419893 ] } },
{ "type": "Feature", "properties": { "name": "Juneau Beer Garden", "barclass": "Biergarten", "barcode": 4 }, "geometry": { "type": "Point", "coordinates": [ -87.8980123, 43.0435312 ] } },
{ "type": "Feature", "properties": { "name": "Monica's on Astor", "barclass": "Bar", "barcode": 1 }, "geometry": { "type": "Point", "coordinates": [ -87.8995009, 43.0464241 ] } },
{ "type": "Feature", "properties": { "name": "County Clare", "barclass": "Pub", "barcode": 2 }, "geometry": { "type": "Point", "coordinates": [ -87.8994682, 43.0467572 ] } },
{ "type": "Feature", "properties": { "name": "Y-Not II", "barclass": "Bar", "barcode": 1 }, "geometry": { "type": "Point", "coordinates": [ -87.9030903, 43.0494989 ] } },
{ "type": "Feature", "properties": { "name": "Points East Pub", "barclass": "Pub", "barcode": 2 }, "geometry": { "type": "Point", "coordinates": [ -87.9048809, 43.0495168 ] } },
{ "type": "Feature", "properties": { "name": "Mangos Cafe", "barclass": "Bar", "barcode": 1 }, "geometry": { "type": "Point", "coordinates": [ -87.903189039157795, 43.05260445 ] } },
{ "type": "Feature", "properties": { "name": "Hosed on Brady", "barclass": "Bar", "barcode": 1 }, "geometry": { "type": "Point", "coordinates": [ -87.8970006, 43.0526784 ] } },
{ "type": "Feature", "properties": { "name": "Angelo's Piano Lounge", "barclass": "Bar", "barcode": 1 }, "geometry": { "type": "Point", "coordinates": [ -87.903183520693503, 43.0527165 ] } },
{ "type": "Feature", "properties": { "name": "Regano's Roman Coin", "barclass": "Pub", "barcode": 2 }, "geometry": { "type": "Point", "coordinates": [ -87.899330602008732, 43.053151 ] } },
{ "type": "Feature", "properties": { "name": "Eagle Park Brewing Company", "barclass": "Pub", "barcode": 2 }, "geometry": { "type": "Point", "coordinates": [ -87.901439612463179, 43.0542106 ] } },
{ "type": "Feature", "properties": { "name": "Lakefront Brewery Beer Hall", "barclass": "Pub", "barcode": 2 }, "geometry": { "type": "Point", "coordinates": [ -87.9051461, 43.0547707 ] } },
{ "type": "Feature", "properties": { "name": "Wolski's Tavern", "barclass": "Bar", "barcode": 1 }, "geometry": { "type": "Point", "coordinates": [ -87.896606960248818, 43.05522505 ] } },
{ "type": "Feature", "properties": { "name": "Scaffidi’s Hideout", "barclass": "Bar", "barcode": 1 }, "geometry": { "type": "Point", "coordinates": [ -87.8982237, 43.0552663 ] } },
{ "type": "Feature", "properties": { "name": "Jack's American Pub", "barclass": "Pub", "barcode": 2 }, "geometry": { "type": "Point", "coordinates": [ -87.8947061, 43.0528354 ] } },
{ "type": "Feature", "properties": { "name": "Club Brady", "barclass": "Bar", "barcode": 1 }, "geometry": { "type": "Point", "coordinates": [ -87.8941901, 43.052841 ] } },
{ "type": "Feature", "properties": { "name": "Malone's on Brady", "barclass": "Bar", "barcode": 1 }, "geometry": { "type": "Point", "coordinates": [ -87.8944846, 43.0528455 ] } },
{ "type": "Feature", "properties": { "name": "Jo-Cat's Pub", "barclass": "Pub", "barcode": 2 }, "geometry": { "type": "Point", "coordinates": [ -87.8950029, 43.0528526 ] } },
{ "type": "Feature", "properties": { "name": "Up and Under Pub", "barclass": "Pub", "barcode": 2 }, "geometry": { "type": "Point", "coordinates": [ -87.8963199, 43.0530577 ] } },
{ "type": "Feature", "properties": { "name": "Hi Hat Lounge", "barclass": "Pub", "barcode": 2 }, "geometry": { "type": "Point", "coordinates": [ -87.8951526, 43.0530662 ] } },
{ "type": "Feature", "properties": { "name": "Pete's Pub", "barclass": "Pub", "barcode": 2 }, "geometry": { "type": "Point", "coordinates": [ -87.8956957, 43.0530719 ] } },
{ "type": "Feature", "properties": { "name": "Hi Hat Garage", "barclass": "Pub", "barcode": 2 }, "geometry": { "type": "Point", "coordinates": [ -87.895248146582333, 43.05322435 ] } },
{ "type": "Feature", "properties": { "name": "Halliday's", "barclass": "Pub", "barcode": 2 }, "geometry": { "type": "Point", "coordinates": [ -87.89202204999998, 43.053613 ] } },
{ "type": "Feature", "properties": { "name": "Thurman’s 15", "barclass": "Bar", "barcode": 1 }, "geometry": { "type": "Point", "coordinates": [ -87.895215290208341, 43.05368475 ] } },
{ "type": "Feature", "properties": { "name": "The Standard Tavern", "barclass": "Bar", "barcode": 1 }, "geometry": { "type": "Point", "coordinates": [ -87.896531529295771, 43.05417875 ] } },
{ "type": "Feature", "properties": { "name": "Jamo's", "barclass": "Bar", "barcode": 1 }, "geometry": { "type": "Point", "coordinates": [ -87.8948092, 43.054511 ] } },
{ "type": "Feature", "properties": { "name": "Wayfinder", "barclass": "Pub", "barcode": 2 }, "geometry": { "type": "Point", "coordinates": [ -87.8874991, 43.0578136 ] } },
{ "type": "Feature", "properties": { "name": "Farwell Wine Bar", "barclass": "Bar", "barcode": 1 }, "geometry": { "type": "Point", "coordinates": [ -87.8870874, 43.057896 ] } },
{ "type": "Feature", "properties": { "name": "Vintage", "barclass": "Bar", "barcode": 1 }, "geometry": { "type": "Point", "coordinates": [ -87.885167332162325, 43.05894405 ] } },
{ "type": "Feature", "properties": { "name": "Merge", "barclass": "Pub", "barcode": 2 }, "geometry": { "type": "Point", "coordinates": [ -87.8853369, 43.0589512 ] } },
{ "type": "Feature", "properties": { "name": "AXE MKE", "barclass": "Bar", "barcode": 1 }, "geometry": { "type": "Point", "coordinates": [ -87.885674403767126, 43.0591734 ] } },
{ "type": "Feature", "properties": { "name": "Shanghai MKE", "barclass": "Bar", "barcode": 1 }, "geometry": { "type": "Point", "coordinates": [ -87.8853885, 43.0598246 ] } },
{ "type": "Feature", "properties": { "name": "Tiki Hut", "barclass": "Bar", "barcode": 1 }, "geometry": { "type": "Point", "coordinates": [ -87.8753764, 43.05984485 ] } },
{ "type": "Feature", "properties": { "name": "Von Trier", "barclass": "Bar", "barcode": 1 }, "geometry": { "type": "Point", "coordinates": [ -87.885950651880222, 43.05992885 ] } },
{ "type": "Feature", "properties": { "name": "Red Lion Pub on Tannery Row", "barclass": "Pub", "barcode": 2 }, "geometry": { "type": "Point", "coordinates": [ -87.900968654865295, 43.05528665 ] } },
{ "type": "Feature", "properties": { "name": "Fink’s", "barclass": "Bar", "barcode": 1 }, "geometry": { "type": "Point", "coordinates": [ -87.898286968968677, 43.05607405 ] } },
{ "type": "Feature", "properties": { "name": "Top Tier Sports Lounge", "barclass": "Bar", "barcode": 1 }, "geometry": { "type": "Point", "coordinates": [ -87.8981659, 43.0594922 ] } },
{ "type": "Feature", "properties": { "name": "The Gig", "barclass": "Bar", "barcode": 1 }, "geometry": { "type": "Point", "coordinates": [ -87.896901240412049, 43.06395895 ] } },
{ "type": "Feature", "properties": { "name": "Club 99", "barclass": "Bar", "barcode": 1 }, "geometry": { "type": "Point", "coordinates": [ -87.9029909, 43.0655632 ] } },
{ "type": "Feature", "properties": { "name": "Foundation", "barclass": "Bar", "barcode": 1 }, "geometry": { "type": "Point", "coordinates": [ -87.900121395668819, 43.0679786 ] } },
{ "type": "Feature", "properties": { "name": "Nessun Dorma", "barclass": "Bar", "barcode": 1 }, "geometry": { "type": "Point", "coordinates": [ -87.898898848728237, 43.06916875 ] } },
{ "type": "Feature", "properties": { "name": "Black Husky Brewing", "barclass": "Bar", "barcode": 1 }, "geometry": { "type": "Point", "coordinates": [ -87.8999675, 43.071003 ] } },
{ "type": "Feature", "properties": { "name": "Klinger's East", "barclass": "Pub", "barcode": 2 }, "geometry": { "type": "Point", "coordinates": [ -87.899602632206921, 43.0713119 ] } },
{ "type": "Feature", "properties": { "name": "The Tracks Tavern & Grill", "barclass": "Bar", "barcode": 1 }, "geometry": { "type": "Point", "coordinates": [ -87.898179020264195, 43.07156945 ] } },
{ "type": "Feature", "properties": { "name": "Nine Below", "barclass": "Bar", "barcode": 1 }, "geometry": { "type": "Point", "coordinates": [ -87.8866584, 43.0599924 ] } },
{ "type": "Feature", "properties": { "name": "The Next Bar", "barclass": "Bar", "barcode": 1 }, "geometry": { "type": "Point", "coordinates": [ -87.8882503, 43.0602947 ] } },
{ "type": "Feature", "properties": { "name": "Snack Boys Snack Bar", "barclass": "Bar", "barcode": 1 }, "geometry": { "type": "Point", "coordinates": [ -87.884695325072812, 43.06035205 ] } },
{ "type": "Feature", "properties": { "name": "Paddy's Pub", "barclass": "Pub", "barcode": 2 }, "geometry": { "type": "Point", "coordinates": [ -87.885893016784721, 43.0610513 ] } },
{ "type": "Feature", "properties": { "name": "Beach Bar", "barclass": "Bar", "barcode": 1 }, "geometry": { "type": "Point", "coordinates": [ -87.87373215, 43.06164665 ] } },
{ "type": "Feature", "properties": { "name": "The Estate", "barclass": "Bar", "barcode": 1 }, "geometry": { "type": "Point", "coordinates": [ -87.8857767, 43.0619672 ] } },
{ "type": "Feature", "properties": { "name": "OG Pub & Grille", "barclass": "Pub", "barcode": 2 }, "geometry": { "type": "Point", "coordinates": [ -87.8890999, 43.0636369 ] } },
{ "type": "Feature", "properties": { "name": "Gee Willickers", "barclass": "Bar", "barcode": 1 }, "geometry": { "type": "Point", "coordinates": [ -87.8963879, 43.0655163 ] } },
{ "type": "Feature", "properties": { "name": "Henry's Pub & Grille", "barclass": "Pub", "barcode": 2 }, "geometry": { "type": "Point", "coordinates": [ -87.87859, 43.065983 ] } },
{ "type": "Feature", "properties": { "name": "The Miramar Theatre", "barclass": "Nightclub", "barcode": 3 }, "geometry": { "type": "Point", "coordinates": [ -87.887564484335229, 43.07045215 ] } },
{ "type": "Feature", "properties": { "name": "Meow Bar", "barclass": "Bar", "barcode": 1 }, "geometry": { "type": "Point", "coordinates": [ -87.9020533, 43.0748627 ] } },
{ "type": "Feature", "properties": { "name": "Art Bar", "barclass": "Bar", "barcode": 1 }, "geometry": { "type": "Point", "coordinates": [ -87.901902, 43.0748679 ] } },
{ "type": "Feature", "properties": { "name": "cafe corazon", "barclass": "Bar", "barcode": 1 }, "geometry": { "type": "Point", "coordinates": [ -87.9004251, 43.0754661 ] } },
{ "type": "Feature", "properties": { "name": "Amorphic Beer", "barclass": "Bar", "barcode": 1 }, "geometry": { "type": "Point", "coordinates": [ -87.9005911, 43.0840699 ] } },
{ "type": "Feature", "properties": { "name": "Gathering Place Brewing Company", "barclass": "Bar", "barcode": 1 }, "geometry": { "type": "Point", "coordinates": [ -87.900877, 43.0856431 ] } },
{ "type": "Feature", "properties": { "name": "Axel's", "barclass": "Pub", "barcode": 2 }, "geometry": { "type": "Point", "coordinates": [ -87.8881505, 43.0707968 ] } },
{ "type": "Feature", "properties": { "name": "Pilot Project", "barclass": "Pub", "barcode": 2 }, "geometry": { "type": "Point", "coordinates": [ -87.9221803, 43.0451057 ] } },
{ "type": "Feature", "properties": { "name": "Tom's Watch Bar", "barclass": "Pub", "barcode": 2 }, "geometry": { "type": "Point", "coordinates": [ -87.915596, 43.0451715 ] } },
{ "type": "Feature", "properties": { "name": "The Loaded Slate", "barclass": "Bar", "barcode": 1 }, "geometry": { "type": "Point", "coordinates": [ -87.914864003507432, 43.0452069 ] } },
{ "type": "Feature", "properties": { "name": "Explorium Distilled", "barclass": "Pub", "barcode": 2 }, "geometry": { "type": "Point", "coordinates": [ -87.9156492, 43.0454579 ] } },
{ "type": "Feature", "properties": { "name": "Central Waters Brewing Co. Milwaukee Taproom", "barclass": "Pub", "barcode": 2 }, "geometry": { "type": "Point", "coordinates": [ -87.9255172, 43.0455787 ] } },
{ "type": "Feature", "properties": { "name": "Jackson's Blue Ribbon Pub", "barclass": "Pub", "barcode": 2 }, "geometry": { "type": "Point", "coordinates": [ -87.9246877, 43.0459141 ] } },
{ "type": "Feature", "properties": { "name": "Amped Private Suite Karaoke Bar", "barclass": "Bar", "barcode": 1 }, "geometry": { "type": "Point", "coordinates": [ -87.923369997029283, 43.0459512 ] } },
{ "type": "Feature", "properties": { "name": "Coffee to Cocktails Bar", "barclass": "Bar", "barcode": 1 }, "geometry": { "type": "Point", "coordinates": [ -87.9213638, 43.0460977 ] } },
{ "type": "Feature", "properties": { "name": "Dead Bird Brewing Company", "barclass": "Pub", "barcode": 2 }, "geometry": { "type": "Point", "coordinates": [ -87.9167323, 43.053415 ] } },
{ "type": "Feature", "properties": { "name": "Lounge 340", "barclass": "Bar", "barcode": 1 }, "geometry": { "type": "Point", "coordinates": [ -87.9155785, 43.0553094 ] } },
{ "type": "Feature", "properties": { "name": "Brothers Bar & Grill", "barclass": "Pub", "barcode": 2 }, "geometry": { "type": "Point", "coordinates": [ -87.9115108, 43.0461174 ] } },
{ "type": "Feature", "properties": { "name": "W XYZ Bar", "barclass": "Bar", "barcode": 1 }, "geometry": { "type": "Point", "coordinates": [ -87.9138259, 43.0462361 ] } },
{ "type": "Feature", "properties": { "name": "Red Rock Saloon", "barclass": "Pub", "barcode": 2 }, "geometry": { "type": "Point", "coordinates": [ -87.911490218310419, 43.04643545 ] } },
{ "type": "Feature", "properties": { "name": "Dream Lounge Social", "barclass": "Bar", "barcode": 1 }, "geometry": { "type": "Point", "coordinates": [ -87.9140837, 43.0541413 ] } },
{ "type": "Feature", "properties": { "name": "Summer of '85", "barclass": "Pub", "barcode": 2 }, "geometry": { "type": "Point", "coordinates": [ -87.9144096, 43.0594605 ] } },
{ "type": "Feature", "properties": { "name": "Elwood’s Liquor & Tap", "barclass": "Bar", "barcode": 1 }, "geometry": { "type": "Point", "coordinates": [ -87.911423892206656, 43.04490205 ] } },
{ "type": "Feature", "properties": { "name": "BarNone", "barclass": "Pub", "barcode": 2 }, "geometry": { "type": "Point", "coordinates": [ -87.911376745874577, 43.0455646 ] } },
{ "type": "Feature", "properties": { "name": "Duke's On Water", "barclass": "Bar", "barcode": 1 }, "geometry": { "type": "Point", "coordinates": [ -87.9113511, 43.045892 ] } },
{ "type": "Feature", "properties": { "name": "The Tap Yard", "barclass": "Biergarten", "barcode": 4 }, "geometry": { "type": "Point", "coordinates": [ -87.909899112065659, 43.050181 ] } },
{ "type": "Feature", "properties": { "name": "Estrabrook Park Biergarten", "barclass": "Biergarten", "barcode": 4 }, "geometry": { "type": "Point", "coordinates": [ -87.907392394078073, 43.09959725 ] } },
{ "type": "Feature", "properties": { "name": "Still On Twelfth Street II", "barclass": "Bar", "barcode": 1 }, "geometry": { "type": "Point", "coordinates": [ -87.92730149682626, 43.05544005 ] } },
{ "type": "Feature", "properties": { "name": "Garfield's 502", "barclass": "Bar", "barcode": 1 }, "geometry": { "type": "Point", "coordinates": [ -87.91738919572083, 43.05928965 ] } },
{ "type": "Feature", "properties": { "name": "Levels On North", "barclass": "Bar", "barcode": 1 }, "geometry": { "type": "Point", "coordinates": [ -87.9195872, 43.0604261 ] } },
{ "type": "Feature", "properties": { "name": "O’Briens Irish Pub", "barclass": "Pub", "barcode": 2 }, "geometry": { "type": "Point", "coordinates": [ -87.9756984, 43.0490327 ] } },
{ "type": "Feature", "properties": { "name": "Dana's Fieldhouse", "barclass": "Pub", "barcode": 2 }, "geometry": { "type": "Point", "coordinates": [ -87.9761865, 43.049041 ] } },
{ "type": "Feature", "properties": { "name": "Ace High", "barclass": "Bar", "barcode": 1 }, "geometry": { "type": "Point", "coordinates": [ -87.9508786, 43.0540175 ] } },
{ "type": "Feature", "properties": { "name": "Chocolate Rose Lounge", "barclass": "Bar", "barcode": 1 }, "geometry": { "type": "Point", "coordinates": [ -87.9699273, 43.0588526 ] } },
{ "type": "Feature", "properties": { "name": "Premier Sports Lounge", "barclass": "Pub", "barcode": 2 }, "geometry": { "type": "Point", "coordinates": [ -87.963656039725592, 43.060445 ] } },
{ "type": "Feature", "properties": { "name": "Fun House Tap", "barclass": "Pub", "barcode": 2 }, "geometry": { "type": "Point", "coordinates": [ -87.943441, 43.0643973 ] } },
{ "type": "Feature", "properties": { "name": "Wally's Pub", "barclass": "Pub", "barcode": 2 }, "geometry": { "type": "Point", "coordinates": [ -87.9826303, 43.0654511 ] } },
{ "type": "Feature", "properties": { "name": "Infinity Lounge", "barclass": "Nightclub", "barcode": 3 }, "geometry": { "type": "Point", "coordinates": [ -87.9635118, 43.0795923 ] } },
{ "type": "Feature", "properties": { "name": "B-N-B Cap Tap", "barclass": "Pub", "barcode": 2 }, "geometry": { "type": "Point", "coordinates": [ -87.9661128, 43.0896376 ] } },
{ "type": "Feature", "properties": { "name": "Big Man", "barclass": "Pub", "barcode": 2 }, "geometry": { "type": "Point", "coordinates": [ -87.9355408, 43.0897686 ] } },
{ "type": "Feature", "properties": { "name": null, "barclass": "Pub", "barcode": 2 }, "geometry": { "type": "Point", "coordinates": [ -88.0077356, 43.0785192 ] } },
{ "type": "Feature", "properties": { "name": "Fremo's", "barclass": "Bar", "barcode": 1 }, "geometry": { "type": "Point", "coordinates": [ -87.9928248, 43.1026628 ] } },
{ "type": "Feature", "properties": { "name": "Dragon's Place", "barclass": "Pub", "barcode": 2 }, "geometry": { "type": "Point", "coordinates": [ -88.0011843, 43.1098785 ] } },
{ "type": "Feature", "properties": { "name": "Dee's Elegance", "barclass": "Bar", "barcode": 1 }, "geometry": { "type": "Point", "coordinates": [ -88.0042565, 43.112645 ] } },
{ "type": "Feature", "properties": { "name": null, "barclass": "Nightclub", "barcode": 3 }, "geometry": { "type": "Point", "coordinates": [ -88.0550475, 43.1200892 ] } },
{ "type": "Feature", "properties": { "name": "Mitchell's Tavern", "barclass": "Pub", "barcode": 2 }, "geometry": { "type": "Point", "coordinates": [ -88.0435383, 43.1252359 ] } },
{ "type": "Feature", "properties": { "name": "The Hideaway Sports Bar & Grill", "barclass": "Bar", "barcode": 1 }, "geometry": { "type": "Point", "coordinates": [ -88.024432080025804, 43.12874445 ] } },
{ "type": "Feature", "properties": { "name": "Dale’s of Milwaukee", "barclass": "Pub", "barcode": 2 }, "geometry": { "type": "Point", "coordinates": [ -87.9891138, 43.0903105 ] } },
{ "type": "Feature", "properties": { "name": "Court MVP", "barclass": "Bar", "barcode": 1 }, "geometry": { "type": "Point", "coordinates": [ -87.9840655, 43.0963001 ] } },
{ "type": "Feature", "properties": { "name": "Eve Lounge", "barclass": "Bar", "barcode": 1 }, "geometry": { "type": "Point", "coordinates": [ -87.9896038, 43.1007767 ] } },
{ "type": "Feature", "properties": { "name": "Elite Bar & Grill", "barclass": "Bar", "barcode": 1 }, "geometry": { "type": "Point", "coordinates": [ -87.9910096, 43.1010048 ] } }
]
}
