{
"type": "FeatureCollection",
"name": "OPP_bars_losangeles",
"crs": { "type": "name", "properties": { "name": "urn:ogc:def:crs:OGC:1.3:CRS84" } },
"features": [
{ "type": "Feature", "properties": { "name": "Blu2O", "barclass": "Bar", "barcode": 1 }, "geometry": { "type": "Point", "coordinates": [ -118.4019304, 33.9405563 ] } },
{ "type": "Feature", "properties": { "name": "Point the Way Cafe", "barclass": "Bar", "barcode": 1 }, "geometry": { "type": "Point", "coordinates": [ -118.4021742, 33.9411505 ] } },
{ "type": "Feature", "properties": { "name": "United Polaris Lounge", "barclass": "Bar", "barcode": 1 }, "geometry": { "type": "Point", "coordinates": [ -118.3998695, 33.9413527 ] } },
{ "type": "Feature", "properties": { "name": "Stella Artois", "barclass": "Bar", "barcode": 1 }, "geometry": { "type": "Point", "coordinates": [ -118.3971906, 33.9413809 ] } },
{ "type": "Feature", "properties": { "name": "The Marketplace", "barclass": "Bar", "barcode": 1 }, "geometry": { "type": "Point", "coordinates": [ -118.4021971, 33.942077 ] } },
{ "type": "Feature", "properties": { "name": "Engine Co No 28 Bar and Grill", "barclass": "Pub", "barcode": 2 }, "geometry": { "type": "Point", "coordinates": [ -118.3973166, 33.9421784 ] } },
{ "type": "Feature", "properties": { "name": null, "barclass": "Bar", "barcode": 1 }, "geometry": { "type": "Point", "coordinates": [ -118.4089738, 33.9435103 ] } },
{ "type": "Feature", "properties": { "name": "Chaya", "barclass": "Bar", "barcode": 1 }, "geometry": { "type": "Point", "coordinates": [ -118.4106751, 33.9435945 ] } },
{ "type": "Feature", "properties": { "name": "Santa Monica Brew Works", "barclass": "Pub", "barcode": 2 }, "geometry": { "type": "Point", "coordinates": [ -118.4105806, 33.9450616 ] } },
{ "type": "Feature", "properties": { "name": null, "barclass": "Bar", "barcode": 1 }, "geometry": { "type": "Point", "coordinates": [ -118.404256, 33.9466405 ] } },
{ "type": "Feature", "properties": { "name": "Harbor Room", "barclass": "Bar", "barcode": 1 }, "geometry": { "type": "Point", "coordinates": [ -118.4485982, 33.9590749 ] } },
{ "type": "Feature", "properties": { "name": "Mo's Place", "barclass": "Bar", "barcode": 1 }, "geometry": { "type": "Point", "coordinates": [ -118.4485005, 33.9594576 ] } },
{ "type": "Feature", "properties": { "name": "Prince O' Whales", "barclass": "Bar", "barcode": 1 }, "geometry": { "type": "Point", "coordinates": [ -118.4468002, 33.9603984 ] } },
{ "type": "Feature", "properties": { "name": "Ace Cerveceria & Tacos", "barclass": "Pub", "barcode": 2 }, "geometry": { "type": "Point", "coordinates": [ -118.4013673, 33.9460275 ] } },
{ "type": "Feature", "properties": { "name": "Sea Legs", "barclass": "Bar", "barcode": 1 }, "geometry": { "type": "Point", "coordinates": [ -118.4041167, 33.9468813 ] } },
{ "type": "Feature", "properties": { "name": "Reilly's Irish Pub", "barclass": "Pub", "barcode": 2 }, "geometry": { "type": "Point", "coordinates": [ -118.401237205245224, 33.9473531 ] } },
{ "type": "Feature", "properties": { "name": "Culver Karaoke", "barclass": "Bar", "barcode": 1 }, "geometry": { "type": "Point", "coordinates": [ -118.4025682, 34.0215702 ] } },
{ "type": "Feature", "properties": { "name": "Beach and Brew", "barclass": "Bar", "barcode": 1 }, "geometry": { "type": "Point", "coordinates": [ -118.4635234, 33.9812477 ] } },
{ "type": "Feature", "properties": { "name": "Brennan's", "barclass": "Pub", "barcode": 2 }, "geometry": { "type": "Point", "coordinates": [ -118.446105506013993, 33.98831825 ] } },
{ "type": "Feature", "properties": { "name": "Firestone Walker Propagator", "barclass": "Pub", "barcode": 2 }, "geometry": { "type": "Point", "coordinates": [ -118.448607, 33.9897663 ] } },
{ "type": "Feature", "properties": { "name": "SoCal Vibes Co. Abbot Kinney", "barclass": "Pub", "barcode": 2 }, "geometry": { "type": "Point", "coordinates": [ -118.4640786, 33.9899547 ] } },
{ "type": "Feature", "properties": { "name": "Deus Ex Machina - Emporium Of Post Modern Activities", "barclass": "Bar", "barcode": 1 }, "geometry": { "type": "Point", "coordinates": [ -118.452857495960586, 33.9943545 ] } },
{ "type": "Feature", "properties": { "name": "Townhouse & Del Monte Speakeasy", "barclass": "Bar", "barcode": 1 }, "geometry": { "type": "Point", "coordinates": [ -118.4726526, 33.9872485 ] } },
{ "type": "Feature", "properties": { "name": "The Brig", "barclass": "Bar", "barcode": 1 }, "geometry": { "type": "Point", "coordinates": [ -118.4642185, 33.9903277 ] } },
{ "type": "Feature", "properties": { "name": "Roosterfish", "barclass": "Bar", "barcode": 1 }, "geometry": { "type": "Point", "coordinates": [ -118.4680711, 33.9910459 ] } },
{ "type": "Feature", "properties": { "name": "The Venice Beach Bar", "barclass": "Bar", "barcode": 1 }, "geometry": { "type": "Point", "coordinates": [ -118.4799059, 33.9941379 ] } },
{ "type": "Feature", "properties": { "name": "Venice Beach Club", "barclass": "Bar", "barcode": 1 }, "geometry": { "type": "Point", "coordinates": [ -118.4802921, 33.9945827 ] } },
{ "type": "Feature", "properties": { "name": "The Waterfront", "barclass": "Bar", "barcode": 1 }, "geometry": { "type": "Point", "coordinates": [ -118.4807751, 33.9950488 ] } },
{ "type": "Feature", "properties": { "name": "Venice Beach Wines", "barclass": "Bar", "barcode": 1 }, "geometry": { "type": "Point", "coordinates": [ -118.4731874, 33.9986965 ] } },
{ "type": "Feature", "properties": { "name": "Rasselbock", "barclass": "Pub", "barcode": 2 }, "geometry": { "type": "Point", "coordinates": [ -118.4309057, 34.0042113 ] } },
{ "type": "Feature", "properties": { "name": "The Field", "barclass": "Bar", "barcode": 1 }, "geometry": { "type": "Point", "coordinates": [ -118.429729816007537, 34.0061904 ] } },
{ "type": "Feature", "properties": { "name": "Bigfoot West", "barclass": "Bar", "barcode": 1 }, "geometry": { "type": "Point", "coordinates": [ -118.4131335, 34.0155335 ] } },
{ "type": "Feature", "properties": { "name": "Oldfield's", "barclass": "Bar", "barcode": 1 }, "geometry": { "type": "Point", "coordinates": [ -118.4118434, 34.0162827 ] } },
{ "type": "Feature", "properties": { "name": "The Whale & Ale", "barclass": "Pub", "barcode": 2 }, "geometry": { "type": "Point", "coordinates": [ -118.284194289291435, 33.73765295 ] } },
{ "type": "Feature", "properties": { "name": "Crimsin", "barclass": "Bar", "barcode": 1 }, "geometry": { "type": "Point", "coordinates": [ -118.2843957, 33.7385293 ] } },
{ "type": "Feature", "properties": { "name": "The Artistry Lounge and Gallery", "barclass": "Bar", "barcode": 1 }, "geometry": { "type": "Point", "coordinates": [ -118.2877512, 33.7386423 ] } },
{ "type": "Feature", "properties": { "name": "6th Street Sports Bar", "barclass": "Bar", "barcode": 1 }, "geometry": { "type": "Point", "coordinates": [ -118.2847893, 33.7389631 ] } },
{ "type": "Feature", "properties": { "name": "Rock & Reilly's", "barclass": "Bar", "barcode": 1 }, "geometry": { "type": "Point", "coordinates": [ -118.2841064, 34.0242828 ] } },
{ "type": "Feature", "properties": { "name": "901 Bar & Grill", "barclass": "Bar", "barcode": 1 }, "geometry": { "type": "Point", "coordinates": [ -118.2773956, 34.0256314 ] } },
{ "type": "Feature", "properties": { "name": "The Pearl", "barclass": "Bar", "barcode": 1 }, "geometry": { "type": "Point", "coordinates": [ -118.2877886, 34.0272278 ] } },
{ "type": "Feature", "properties": { "name": "Dahlia", "barclass": "Bar", "barcode": 1 }, "geometry": { "type": "Point", "coordinates": [ -118.25883, 34.0393849 ] } },
{ "type": "Feature", "properties": { "name": "Mayan Music Venue", "barclass": "Nightclub", "barcode": 3 }, "geometry": { "type": "Point", "coordinates": [ -118.259064117039372, 34.04047005 ] } },
{ "type": "Feature", "properties": { "name": null, "barclass": "Nightclub", "barcode": 3 }, "geometry": { "type": "Point", "coordinates": [ -118.241676687603501, 34.0230272 ] } },
{ "type": "Feature", "properties": { "name": "Everson Royce Bar", "barclass": "Bar", "barcode": 1 }, "geometry": { "type": "Point", "coordinates": [ -118.2325798, 34.0344566 ] } },
{ "type": "Feature", "properties": { "name": null, "barclass": "Bar", "barcode": 1 }, "geometry": { "type": "Point", "coordinates": [ -118.234942180885213, 34.04272815 ] } },
{ "type": "Feature", "properties": { "name": "Crane's Bar", "barclass": "Bar", "barcode": 1 }, "geometry": { "type": "Point", "coordinates": [ -118.253728, 34.0427618 ] } },
{ "type": "Feature", "properties": { "name": "Broadway Bar", "barclass": "Bar", "barcode": 1 }, "geometry": { "type": "Point", "coordinates": [ -118.2553548, 34.0428385 ] } },
{ "type": "Feature", "properties": { "name": "Wendell", "barclass": "Bar", "barcode": 1 }, "geometry": { "type": "Point", "coordinates": [ -118.2510659, 34.0439931 ] } },
{ "type": "Feature", "properties": { "name": "Arts District Brewing Company", "barclass": "Pub", "barcode": 2 }, "geometry": { "type": "Point", "coordinates": [ -118.2352914, 34.0446827 ] } },
{ "type": "Feature", "properties": { "name": "broken shaker", "barclass": "Bar", "barcode": 1 }, "geometry": { "type": "Point", "coordinates": [ -118.2565088, 34.0447111 ] } },
{ "type": "Feature", "properties": { "name": "The Reserve", "barclass": "Nightclub", "barcode": 3 }, "geometry": { "type": "Point", "coordinates": [ -118.2518604, 34.0448078 ] } },
{ "type": "Feature", "properties": { "name": "33 Taps", "barclass": "Pub", "barcode": 2 }, "geometry": { "type": "Point", "coordinates": [ -118.2672963, 34.040614 ] } },
{ "type": "Feature", "properties": { "name": "Club Galaxy", "barclass": "Nightclub", "barcode": 3 }, "geometry": { "type": "Point", "coordinates": [ -118.258201, 34.0434571 ] } },
{ "type": "Feature", "properties": { "name": "Tom's Watch Bar", "barclass": "Pub", "barcode": 2 }, "geometry": { "type": "Point", "coordinates": [ -118.265476, 34.0439955 ] } },
{ "type": "Feature", "properties": { "name": "Caña", "barclass": "Bar", "barcode": 1 }, "geometry": { "type": "Point", "coordinates": [ -118.26335, 34.0440948 ] } },
{ "type": "Feature", "properties": { "name": "Native Son", "barclass": "Pub", "barcode": 2 }, "geometry": { "type": "Point", "coordinates": [ -118.2574692, 34.0442979 ] } },
{ "type": "Feature", "properties": { "name": "Ikasu Brewing", "barclass": "Pub", "barcode": 2 }, "geometry": { "type": "Point", "coordinates": [ -118.2574321, 34.0443499 ] } },
{ "type": "Feature", "properties": { "name": "The Novo", "barclass": "Nightclub", "barcode": 3 }, "geometry": { "type": "Point", "coordinates": [ -118.2653549, 34.0446735 ] } },
{ "type": "Feature", "properties": { "name": "Hanks Bar", "barclass": "Bar", "barcode": 1 }, "geometry": { "type": "Point", "coordinates": [ -118.2585637, 34.0446919 ] } },
{ "type": "Feature", "properties": { "name": "Veranda Poolside Lounge", "barclass": "Bar", "barcode": 1 }, "geometry": { "type": "Point", "coordinates": [ -118.2643582, 34.0456934 ] } },
{ "type": "Feature", "properties": { "name": "Strada", "barclass": "Bar", "barcode": 1 }, "geometry": { "type": "Point", "coordinates": [ -118.263412600166959, 34.0466614 ] } },
{ "type": "Feature", "properties": { "name": "Redline", "barclass": "Bar", "barcode": 1 }, "geometry": { "type": "Point", "coordinates": [ -118.2490136, 34.044836 ] } },
{ "type": "Feature", "properties": { "name": "Golden Gopher", "barclass": "Bar", "barcode": 1 }, "geometry": { "type": "Point", "coordinates": [ -118.256277, 34.044946 ] } },
{ "type": "Feature", "properties": { "name": "Spring St Bar", "barclass": "Bar", "barcode": 1 }, "geometry": { "type": "Point", "coordinates": [ -118.2514598, 34.0451875 ] } },
{ "type": "Feature", "properties": { "name": "The Falls", "barclass": "Bar", "barcode": 1 }, "geometry": { "type": "Point", "coordinates": [ -118.2514183, 34.0452421 ] } },
{ "type": "Feature", "properties": { "name": "Exchange LA", "barclass": "Nightclub", "barcode": 3 }, "geometry": { "type": "Point", "coordinates": [ -118.2512654, 34.0453545 ] } },
{ "type": "Feature", "properties": { "name": "Clifton's Republic", "barclass": "Bar", "barcode": 1 }, "geometry": { "type": "Point", "coordinates": [ -118.252907, 34.0453657 ] } },
{ "type": "Feature", "properties": { "name": "EightyTwo", "barclass": "Bar", "barcode": 1 }, "geometry": { "type": "Point", "coordinates": [ -118.237501, 34.0454561 ] } },
{ "type": "Feature", "properties": { "name": "Death & Co - Los Angeles", "barclass": "Bar", "barcode": 1 }, "geometry": { "type": "Point", "coordinates": [ -118.2357151, 34.0457227 ] } },
{ "type": "Feature", "properties": { "name": "Rhythm Room", "barclass": "Pub", "barcode": 2 }, "geometry": { "type": "Point", "coordinates": [ -118.2513244, 34.0459946 ] } },
{ "type": "Feature", "properties": { "name": "Angel City Brewery", "barclass": "Pub", "barcode": 2 }, "geometry": { "type": "Point", "coordinates": [ -118.237716213671632, 34.04627065 ] } },
{ "type": "Feature", "properties": { "name": "The Mermaid", "barclass": "Bar", "barcode": 1 }, "geometry": { "type": "Point", "coordinates": [ -118.2385027, 34.0466594 ] } },
{ "type": "Feature", "properties": { "name": "Seven Grand Whiskey Bar", "barclass": "Bar", "barcode": 1 }, "geometry": { "type": "Point", "coordinates": [ -118.255926, 34.0470366 ] } },
{ "type": "Feature", "properties": { "name": "Love Song Bar", "barclass": "Bar", "barcode": 1 }, "geometry": { "type": "Point", "coordinates": [ -118.2480296, 34.0470584 ] } },
{ "type": "Feature", "properties": { "name": "The Lash", "barclass": "Bar", "barcode": 1 }, "geometry": { "type": "Point", "coordinates": [ -118.2471951, 34.0471713 ] } },
{ "type": "Feature", "properties": { "name": "The Crocker Club", "barclass": "Nightclub", "barcode": 3 }, "geometry": { "type": "Point", "coordinates": [ -118.2495565, 34.0477021 ] } },
{ "type": "Feature", "properties": { "name": "Wolf and Crane", "barclass": "Bar", "barcode": 1 }, "geometry": { "type": "Point", "coordinates": [ -118.2397865, 34.0478916 ] } },
{ "type": "Feature", "properties": { "name": "Bar Ama", "barclass": "Bar", "barcode": 1 }, "geometry": { "type": "Point", "coordinates": [ -118.2477353, 34.0483579 ] } },
{ "type": "Feature", "properties": { "name": "Casey's Irish", "barclass": "Pub", "barcode": 2 }, "geometry": { "type": "Point", "coordinates": [ -118.2557823, 34.0484694 ] } },
{ "type": "Feature", "properties": { "name": "Bar 107", "barclass": "Bar", "barcode": 1 }, "geometry": { "type": "Point", "coordinates": [ -118.2476319, 34.0486256 ] } },
{ "type": "Feature", "properties": { "name": "Moroccan Lounge", "barclass": "Bar", "barcode": 1 }, "geometry": { "type": "Point", "coordinates": [ -118.233685849970783, 34.0487467 ] } },
{ "type": "Feature", "properties": { "name": "The Lexington Bar", "barclass": "Bar", "barcode": 1 }, "geometry": { "type": "Point", "coordinates": [ -118.2450952, 34.048993 ] } },
{ "type": "Feature", "properties": { "name": "Library Bar", "barclass": "Bar", "barcode": 1 }, "geometry": { "type": "Point", "coordinates": [ -118.2564869, 34.0491116 ] } },
{ "type": "Feature", "properties": { "name": "Gallery Bar", "barclass": "Bar", "barcode": 1 }, "geometry": { "type": "Point", "coordinates": [ -118.2538656, 34.0494266 ] } },
{ "type": "Feature", "properties": { "name": "Kippered", "barclass": "Bar", "barcode": 1 }, "geometry": { "type": "Point", "coordinates": [ -118.2493896, 34.0497338 ] } },
{ "type": "Feature", "properties": { "name": "Precinct DTLA", "barclass": "Bar", "barcode": 1 }, "geometry": { "type": "Point", "coordinates": [ -118.2493274, 34.0498331 ] } },
{ "type": "Feature", "properties": { "name": "The Grayson", "barclass": "Bar", "barcode": 1 }, "geometry": { "type": "Point", "coordinates": [ -118.2493081, 34.0499406 ] } },
{ "type": "Feature", "properties": { "name": "Slipper Clutch", "barclass": "Nightclub", "barcode": 3 }, "geometry": { "type": "Point", "coordinates": [ -118.2494117, 34.0500099 ] } },
{ "type": "Feature", "properties": { "name": "The New Jalisco Bar", "barclass": "Pub", "barcode": 2 }, "geometry": { "type": "Point", "coordinates": [ -118.2454369, 34.0502596 ] } },
{ "type": "Feature", "properties": { "name": "The Smell", "barclass": "Nightclub", "barcode": 3 }, "geometry": { "type": "Point", "coordinates": [ -118.2458647, 34.0504991 ] } },
{ "type": "Feature", "properties": { "name": "La Cita", "barclass": "Pub", "barcode": 2 }, "geometry": { "type": "Point", "coordinates": [ -118.249638559944259, 34.05068215 ] } },
{ "type": "Feature", "properties": { "name": "El Nuevo Reno", "barclass": "Bar", "barcode": 1 }, "geometry": { "type": "Point", "coordinates": [ -118.301606094783807, 33.97478785 ] } },
{ "type": "Feature", "properties": { "name": "El Tiburon", "barclass": "Bar", "barcode": 1 }, "geometry": { "type": "Point", "coordinates": [ -118.303712936964018, 33.97493135 ] } },
{ "type": "Feature", "properties": { "name": "Catch One", "barclass": "Nightclub", "barcode": 3 }, "geometry": { "type": "Point", "coordinates": [ -118.323925488637627, 34.04796935 ] } },
{ "type": "Feature", "properties": { "name": "Fountain LA", "barclass": "Bar", "barcode": 1 }, "geometry": { "type": "Point", "coordinates": [ -118.2972509, 34.0527908 ] } },
{ "type": "Feature", "properties": { "name": "Cham Gastropub", "barclass": "Pub", "barcode": 2 }, "geometry": { "type": "Point", "coordinates": [ -118.2972492, 34.0529907 ] } },
{ "type": "Feature", "properties": { "name": "Delicious Pizza", "barclass": "Bar", "barcode": 1 }, "geometry": { "type": "Point", "coordinates": [ -118.360892137098404, 34.03266085 ] } },
{ "type": "Feature", "properties": { "name": "Cafe Club Fais Do Do", "barclass": "Bar", "barcode": 1 }, "geometry": { "type": "Point", "coordinates": [ -118.357104704083923, 34.0327381 ] } },
{ "type": "Feature", "properties": { "name": "Carbon", "barclass": "Nightclub", "barcode": 3 }, "geometry": { "type": "Point", "coordinates": [ -118.3940738, 34.0257547 ] } },
{ "type": "Feature", "properties": { "name": "Founders Ale House", "barclass": "Pub", "barcode": 2 }, "geometry": { "type": "Point", "coordinates": [ -118.3833397, 34.0548722 ] } },
{ "type": "Feature", "properties": { "name": "No Smoking Bar", "barclass": "Bar", "barcode": 1 }, "geometry": { "type": "Point", "coordinates": [ -118.37615, 34.033796 ] } },
{ "type": "Feature", "properties": { "name": "The Mint", "barclass": "Bar", "barcode": 1 }, "geometry": { "type": "Point", "coordinates": [ -118.371602312971888, 34.05222575 ] } },
{ "type": "Feature", "properties": { "name": "Tom Bergin's Public House", "barclass": "Bar", "barcode": 1 }, "geometry": { "type": "Point", "coordinates": [ -118.3626075, 34.0600391 ] } },
{ "type": "Feature", "properties": { "name": "All Season Brewing", "barclass": "Pub", "barcode": 2 }, "geometry": { "type": "Point", "coordinates": [ -118.344517, 34.0602937 ] } },
{ "type": "Feature", "properties": { "name": "Busby's East", "barclass": "Nightclub", "barcode": 3 }, "geometry": { "type": "Point", "coordinates": [ -118.3455769, 34.0620838 ] } },
{ "type": "Feature", "properties": { "name": "Molly Malone's", "barclass": "Bar", "barcode": 1 }, "geometry": { "type": "Point", "coordinates": [ -118.3616658, 34.0652782 ] } },
{ "type": "Feature", "properties": { "name": "Moruno/Bar Vermut", "barclass": "Bar", "barcode": 1 }, "geometry": { "type": "Point", "coordinates": [ -118.360937, 34.0718215 ] } },
{ "type": "Feature", "properties": { "name": "Room 5 Lounge", "barclass": "Bar", "barcode": 1 }, "geometry": { "type": "Point", "coordinates": [ -118.344374062983405, 34.07479105 ] } },
{ "type": "Feature", "properties": { "name": "The Roger Room", "barclass": "Bar", "barcode": 1 }, "geometry": { "type": "Point", "coordinates": [ -118.3763536, 34.0780015 ] } },
{ "type": "Feature", "properties": { "name": "Jade Karaoke", "barclass": "Bar", "barcode": 1 }, "geometry": { "type": "Point", "coordinates": [ -118.3086468, 34.0569884 ] } },
{ "type": "Feature", "properties": { "name": "The Brass Monkey", "barclass": "Bar", "barcode": 1 }, "geometry": { "type": "Point", "coordinates": [ -118.2989093, 34.0610589 ] } },
{ "type": "Feature", "properties": { "name": "H.M.S. Bounty", "barclass": "Pub", "barcode": 2 }, "geometry": { "type": "Point", "coordinates": [ -118.297217, 34.0619557 ] } },
{ "type": "Feature", "properties": { "name": "POT", "barclass": "Bar", "barcode": 1 }, "geometry": { "type": "Point", "coordinates": [ -118.3010462, 34.0619593 ] } },
{ "type": "Feature", "properties": { "name": "The Arena", "barclass": "Nightclub", "barcode": 3 }, "geometry": { "type": "Point", "coordinates": [ -118.2947408, 34.0619789 ] } },
{ "type": "Feature", "properties": { "name": "Cafe Bleu", "barclass": "Bar", "barcode": 1 }, "geometry": { "type": "Point", "coordinates": [ -118.2975392, 34.0628726 ] } },
{ "type": "Feature", "properties": { "name": "The Normandie Club", "barclass": "Bar", "barcode": 1 }, "geometry": { "type": "Point", "coordinates": [ -118.300716, 34.0634433 ] } },
{ "type": "Feature", "properties": { "name": "쉘부르", "barclass": "Nightclub", "barcode": 3 }, "geometry": { "type": "Point", "coordinates": [ -118.2951054, 34.0689052 ] } },
{ "type": "Feature", "properties": { "name": null, "barclass": "Bar", "barcode": 1 }, "geometry": { "type": "Point", "coordinates": [ -118.308959, 34.0755263 ] } },
{ "type": "Feature", "properties": { "name": "Xpress", "barclass": "Nightclub", "barcode": 3 }, "geometry": { "type": "Point", "coordinates": [ -118.3021691, 34.0764443 ] } },
{ "type": "Feature", "properties": { "name": "Zouk Los Angeles", "barclass": "Nightclub", "barcode": 3 }, "geometry": { "type": "Point", "coordinates": [ -118.376840681442616, 34.08326085 ] } },
{ "type": "Feature", "properties": { "name": "The Parlor", "barclass": "Bar", "barcode": 1 }, "geometry": { "type": "Point", "coordinates": [ -118.347683, 34.0833062 ] } },
{ "type": "Feature", "properties": { "name": "BL/NKBAR", "barclass": "Bar", "barcode": 1 }, "geometry": { "type": "Point", "coordinates": [ -118.3492399, 34.0834077 ] } },
{ "type": "Feature", "properties": { "name": "Blown Out", "barclass": "Bar", "barcode": 1 }, "geometry": { "type": "Point", "coordinates": [ -118.3552046, 34.0835394 ] } },
{ "type": "Feature", "properties": { "name": "Villians Tavern", "barclass": "Pub", "barcode": 2 }, "geometry": { "type": "Point", "coordinates": [ -118.230985226339726, 34.0401902 ] } },
{ "type": "Feature", "properties": { "name": "Benny Boy", "barclass": "Biergarten", "barcode": 4 }, "geometry": { "type": "Point", "coordinates": [ -118.2155643, 34.0641518 ] } },
{ "type": "Feature", "properties": { "name": "Barbara's at the Brewery", "barclass": "Pub", "barcode": 2 }, "geometry": { "type": "Point", "coordinates": [ -118.218129049999988, 34.06459295 ] } },
{ "type": "Feature", "properties": { "name": "The Airliner", "barclass": "Bar", "barcode": 1 }, "geometry": { "type": "Point", "coordinates": [ -118.216232256580597, 34.07388845 ] } },
{ "type": "Feature", "properties": { "name": "The Greyhound", "barclass": "Bar", "barcode": 1 }, "geometry": { "type": "Point", "coordinates": [ -118.1939977, 34.1088123 ] } },
{ "type": "Feature", "properties": { "name": "Gold Line", "barclass": "Bar", "barcode": 1 }, "geometry": { "type": "Point", "coordinates": [ -118.1939586, 34.1091965 ] } },
{ "type": "Feature", "properties": { "name": "The Arroyo Club", "barclass": "Bar", "barcode": 1 }, "geometry": { "type": "Point", "coordinates": [ -118.193333, 34.1095215 ] } },
{ "type": "Feature", "properties": { "name": "Pulgarcito Sports Bar", "barclass": "Bar", "barcode": 1 }, "geometry": { "type": "Point", "coordinates": [ -118.2918498, 34.0468212 ] } },
{ "type": "Feature", "properties": { "name": "Rodeo Room", "barclass": "Bar", "barcode": 1 }, "geometry": { "type": "Point", "coordinates": [ -118.291435497613932, 34.0469847 ] } },
{ "type": "Feature", "properties": { "name": "Dublin's Irish Whiskey Pub", "barclass": "Pub", "barcode": 2 }, "geometry": { "type": "Point", "coordinates": [ -118.2591044, 34.0490796 ] } },
{ "type": "Feature", "properties": { "name": "Elevate Lounge", "barclass": "Bar", "barcode": 1 }, "geometry": { "type": "Point", "coordinates": [ -118.2581853, 34.049667 ] } },
{ "type": "Feature", "properties": { "name": "Spire73", "barclass": "Bar", "barcode": 1 }, "geometry": { "type": "Point", "coordinates": [ -118.2598612, 34.0499384 ] } },
{ "type": "Feature", "properties": { "name": "Public School 213", "barclass": "Bar", "barcode": 1 }, "geometry": { "type": "Point", "coordinates": [ -118.2574447, 34.0499523 ] } },
{ "type": "Feature", "properties": { "name": "The Rooftop Bar", "barclass": "Bar", "barcode": 1 }, "geometry": { "type": "Point", "coordinates": [ -118.2568186, 34.0501821 ] } },
{ "type": "Feature", "properties": { "name": "Jardin des Tuileries", "barclass": "Pub", "barcode": 2 }, "geometry": { "type": "Point", "coordinates": [ -118.2641492, 34.0505326 ] } },
{ "type": "Feature", "properties": { "name": "Rain Karoki", "barclass": "Bar", "barcode": 1 }, "geometry": { "type": "Point", "coordinates": [ -118.2843867, 34.0604833 ] } },
{ "type": "Feature", "properties": { "name": "Monte Carlo", "barclass": "Bar", "barcode": 1 }, "geometry": { "type": "Point", "coordinates": [ -118.292228, 34.0689256 ] } },
{ "type": "Feature", "properties": { "name": "Boomtown Brewery", "barclass": "Pub", "barcode": 2 }, "geometry": { "type": "Point", "coordinates": [ -118.2332154, 34.0508975 ] } },
{ "type": "Feature", "properties": { "name": "Golden Road Brewery", "barclass": "Pub", "barcode": 2 }, "geometry": { "type": "Point", "coordinates": [ -118.2494168, 34.0509541 ] } },
{ "type": "Feature", "properties": { "name": "The Edison", "barclass": "Bar", "barcode": 1 }, "geometry": { "type": "Point", "coordinates": [ -118.2452603, 34.0510825 ] } },
{ "type": "Feature", "properties": { "name": "Grand Performances", "barclass": "Nightclub", "barcode": 3 }, "geometry": { "type": "Point", "coordinates": [ -118.2514359, 34.0518917 ] } },
{ "type": "Feature", "properties": { "name": "BonaVista Lounge", "barclass": "Bar", "barcode": 1 }, "geometry": { "type": "Point", "coordinates": [ -118.2554085, 34.0528019 ] } },
{ "type": "Feature", "properties": { "name": "Homebound Brewhaus", "barclass": "Pub", "barcode": 2 }, "geometry": { "type": "Point", "coordinates": [ -118.2366121, 34.0555803 ] } },
{ "type": "Feature", "properties": { "name": "Traxx", "barclass": "Bar", "barcode": 1 }, "geometry": { "type": "Point", "coordinates": [ -118.236682238235289, 34.0560237 ] } },
{ "type": "Feature", "properties": { "name": "The Mullin Wine Bar", "barclass": "Bar", "barcode": 1 }, "geometry": { "type": "Point", "coordinates": [ -118.247942775470648, 34.05725075 ] } },
{ "type": "Feature", "properties": { "name": "Highland Park Brewery Chinatown", "barclass": "Pub", "barcode": 2 }, "geometry": { "type": "Point", "coordinates": [ -118.233389, 34.0657422 ] } },
{ "type": "Feature", "properties": { "name": "General Lee's", "barclass": "Bar", "barcode": 1 }, "geometry": { "type": "Point", "coordinates": [ -118.2375604, 34.0657509 ] } },
{ "type": "Feature", "properties": { "name": "Lock & Key", "barclass": "Bar", "barcode": 1 }, "geometry": { "type": "Point", "coordinates": [ -118.2919001, 34.0693707 ] } },
{ "type": "Feature", "properties": { "name": "Crawfords", "barclass": "Bar", "barcode": 1 }, "geometry": { "type": "Point", "coordinates": [ -118.277560767238626, 34.06961665 ] } },
{ "type": "Feature", "properties": { "name": "Vermont Karaoke and Billiards", "barclass": "Bar", "barcode": 1 }, "geometry": { "type": "Point", "coordinates": [ -118.292005, 34.0704496 ] } },
{ "type": "Feature", "properties": { "name": "Gold Room", "barclass": "Bar", "barcode": 1 }, "geometry": { "type": "Point", "coordinates": [ -118.2571172, 34.0764796 ] } },
{ "type": "Feature", "properties": { "name": "Goody Goody", "barclass": "Bar", "barcode": 1 }, "geometry": { "type": "Point", "coordinates": [ -118.2918928, 34.0769567 ] } },
{ "type": "Feature", "properties": { "name": "Bar Bandini", "barclass": "Bar", "barcode": 1 }, "geometry": { "type": "Point", "coordinates": [ -118.2654762, 34.0773398 ] } },
{ "type": "Feature", "properties": { "name": "The Echo", "barclass": "Nightclub", "barcode": 3 }, "geometry": { "type": "Point", "coordinates": [ -118.2601037, 34.0777328 ] } },
{ "type": "Feature", "properties": { "name": "Spirit House", "barclass": "Bar", "barcode": 1 }, "geometry": { "type": "Point", "coordinates": [ -118.2594191, 34.077927 ] } },
{ "type": "Feature", "properties": { "name": "The Semi-Tropic", "barclass": "Bar", "barcode": 1 }, "geometry": { "type": "Point", "coordinates": [ -118.259923, 34.0800319 ] } },
{ "type": "Feature", "properties": { "name": "Silverlake Lounge", "barclass": "Bar", "barcode": 1 }, "geometry": { "type": "Point", "coordinates": [ -118.2736459, 34.0829347 ] } },
{ "type": "Feature", "properties": { "name": "Club Bahia", "barclass": "Nightclub", "barcode": 3 }, "geometry": { "type": "Point", "coordinates": [ -118.24986824921784, 34.066299 ] } },
{ "type": "Feature", "properties": { "name": "Café Triste", "barclass": "Bar", "barcode": 1 }, "geometry": { "type": "Point", "coordinates": [ -118.2359551, 34.0663113 ] } },
{ "type": "Feature", "properties": { "name": "Thunderbolt", "barclass": "Bar", "barcode": 1 }, "geometry": { "type": "Point", "coordinates": [ -118.2542208, 34.0665232 ] } },
{ "type": "Feature", "properties": { "name": "Ototo", "barclass": "Bar", "barcode": 1 }, "geometry": { "type": "Point", "coordinates": [ -118.2515869, 34.0728329 ] } },
{ "type": "Feature", "properties": { "name": "The Douglas", "barclass": "Pub", "barcode": 2 }, "geometry": { "type": "Point", "coordinates": [ -118.2523164, 34.0742216 ] } },
{ "type": "Feature", "properties": { "name": "The Short Stop", "barclass": "Bar", "barcode": 1 }, "geometry": { "type": "Point", "coordinates": [ -118.253521947542822, 34.07535025 ] } },
{ "type": "Feature", "properties": { "name": "Little Joy", "barclass": "Bar", "barcode": 1 }, "geometry": { "type": "Point", "coordinates": [ -118.2544166, 34.0757226 ] } },
{ "type": "Feature", "properties": { "name": "Lowboy", "barclass": "Bar", "barcode": 1 }, "geometry": { "type": "Point", "coordinates": [ -118.2567329, 34.0763098 ] } },
{ "type": "Feature", "properties": { "name": "Tila", "barclass": "Bar", "barcode": 1 }, "geometry": { "type": "Point", "coordinates": [ -118.2553629, 34.0803313 ] } },
{ "type": "Feature", "properties": { "name": "Permanent Records Roadhouse", "barclass": "Bar", "barcode": 1 }, "geometry": { "type": "Point", "coordinates": [ -118.235064686548483, 34.10084855 ] } },
{ "type": "Feature", "properties": { "name": "Good Housekeeping HLP", "barclass": "Bar", "barcode": 1 }, "geometry": { "type": "Point", "coordinates": [ -118.1933767, 34.109755 ] } },
{ "type": "Feature", "properties": { "name": "Blind Barber", "barclass": "Bar", "barcode": 1 }, "geometry": { "type": "Point", "coordinates": [ -118.1925784, 34.1101119 ] } },
{ "type": "Feature", "properties": { "name": "Offbeat Bar", "barclass": "Bar", "barcode": 1 }, "geometry": { "type": "Point", "coordinates": [ -118.182084481559315, 34.11440335 ] } },
{ "type": "Feature", "properties": { "name": "Block Party", "barclass": "Bar", "barcode": 1 }, "geometry": { "type": "Point", "coordinates": [ -118.205506266401215, 34.12098705 ] } },
{ "type": "Feature", "properties": { "name": "The Hermosillo", "barclass": "Bar", "barcode": 1 }, "geometry": { "type": "Point", "coordinates": [ -118.2038147, 34.1210378 ] } },
{ "type": "Feature", "properties": { "name": "The Goldfish", "barclass": "Nightclub", "barcode": 3 }, "geometry": { "type": "Point", "coordinates": [ -118.205361729467143, 34.12151625 ] } },
{ "type": "Feature", "properties": { "name": "Walt's Bar", "barclass": "Bar", "barcode": 1 }, "geometry": { "type": "Point", "coordinates": [ -118.21664, 34.129672 ] } },
{ "type": "Feature", "properties": { "name": "The Fable", "barclass": "Bar", "barcode": 1 }, "geometry": { "type": "Point", "coordinates": [ -118.202069626586905, 34.1392289 ] } },
{ "type": "Feature", "properties": { "name": "Relentless Brewing and Spirits", "barclass": "Pub", "barcode": 2 }, "geometry": { "type": "Point", "coordinates": [ -118.2128884, 34.1393383 ] } },
{ "type": "Feature", "properties": { "name": "Vandell", "barclass": "Bar", "barcode": 1 }, "geometry": { "type": "Point", "coordinates": [ -118.287281, 34.1073013 ] } },
{ "type": "Feature", "properties": { "name": "Tenants of the Trees", "barclass": "Bar", "barcode": 1 }, "geometry": { "type": "Point", "coordinates": [ -118.2715334, 34.1083467 ] } },
{ "type": "Feature", "properties": { "name": "Club Tee Gee", "barclass": "Bar", "barcode": 1 }, "geometry": { "type": "Point", "coordinates": [ -118.260770496950059, 34.1176732 ] } },
{ "type": "Feature", "properties": { "name": "Bigfoot Lodge", "barclass": "Bar", "barcode": 1 }, "geometry": { "type": "Point", "coordinates": [ -118.2679451, 34.1236129 ] } },
{ "type": "Feature", "properties": { "name": "The Roost", "barclass": "Bar", "barcode": 1 }, "geometry": { "type": "Point", "coordinates": [ -118.2665453, 34.1243001 ] } },
{ "type": "Feature", "properties": { "name": "The Flight Low", "barclass": "Bar", "barcode": 1 }, "geometry": { "type": "Point", "coordinates": [ -118.2647157, 34.1252715 ] } },
{ "type": "Feature", "properties": { "name": "Golden Road Brewing Los Angeles", "barclass": "Pub", "barcode": 2 }, "geometry": { "type": "Point", "coordinates": [ -118.274389, 34.1504909 ] } },
{ "type": "Feature", "properties": { "name": "Zebulon L.A.", "barclass": "Bar", "barcode": 1 }, "geometry": { "type": "Point", "coordinates": [ -118.254739224197749, 34.10719505 ] } },
{ "type": "Feature", "properties": { "name": "Verdugo Bar", "barclass": "Bar", "barcode": 1 }, "geometry": { "type": "Point", "coordinates": [ -118.235096, 34.1138872 ] } },
{ "type": "Feature", "properties": { "name": "Eagle Rock Brewery", "barclass": "Pub", "barcode": 2 }, "geometry": { "type": "Point", "coordinates": [ -118.24334, 34.1148345 ] } },
{ "type": "Feature", "properties": { "name": "The Grant", "barclass": "Bar", "barcode": 1 }, "geometry": { "type": "Point", "coordinates": [ -118.2357655, 34.1163201 ] } },
{ "type": "Feature", "properties": { "name": "Western Station Beer and Wine", "barclass": "Bar", "barcode": 1 }, "geometry": { "type": "Point", "coordinates": [ -118.21651, 34.1397393 ] } },
{ "type": "Feature", "properties": { "name": "Banter Bar", "barclass": "Bar", "barcode": 1 }, "geometry": { "type": "Point", "coordinates": [ -118.429181, 34.0277411 ] } },
{ "type": "Feature", "properties": { "name": "The Garage", "barclass": "Bar", "barcode": 1 }, "geometry": { "type": "Point", "coordinates": [ -118.409791, 34.0277506 ] } },
{ "type": "Feature", "properties": { "name": "Boardwalk 11", "barclass": "Bar", "barcode": 1 }, "geometry": { "type": "Point", "coordinates": [ -118.411638887287396, 34.0292292 ] } },
{ "type": "Feature", "properties": { "name": "Tiny's Hi-Dive", "barclass": "Pub", "barcode": 2 }, "geometry": { "type": "Point", "coordinates": [ -118.449413845279807, 34.02953185 ] } },
{ "type": "Feature", "properties": { "name": "The Irish Times", "barclass": "Pub", "barcode": 2 }, "geometry": { "type": "Point", "coordinates": [ -118.41131815, 34.0296232 ] } },
{ "type": "Feature", "properties": { "name": "neat.", "barclass": "Bar", "barcode": 1 }, "geometry": { "type": "Point", "coordinates": [ -118.4472046, 34.0306971 ] } },
{ "type": "Feature", "properties": { "name": "Sorry Not Sorry", "barclass": "Bar", "barcode": 1 }, "geometry": { "type": "Point", "coordinates": [ -118.44251653271246, 34.03310095 ] } },
{ "type": "Feature", "properties": { "name": "Rosegold Saloon", "barclass": "Bar", "barcode": 1 }, "geometry": { "type": "Point", "coordinates": [ -118.4427, 34.0334027 ] } },
{ "type": "Feature", "properties": { "name": "7 Kingdoms", "barclass": "Bar", "barcode": 1 }, "geometry": { "type": "Point", "coordinates": [ -118.441999, 34.0383643 ] } },
{ "type": "Feature", "properties": { "name": null, "barclass": "Bar", "barcode": 1 }, "geometry": { "type": "Point", "coordinates": [ -118.4415548, 34.0390205 ] } },
{ "type": "Feature", "properties": { "name": "The Wellesbourne", "barclass": "Bar", "barcode": 1 }, "geometry": { "type": "Point", "coordinates": [ -118.4303955, 34.039414 ] } },
{ "type": "Feature", "properties": { "name": "Karaoke Bleu", "barclass": "Bar", "barcode": 1 }, "geometry": { "type": "Point", "coordinates": [ -118.4425012, 34.0398263 ] } },
{ "type": "Feature", "properties": { "name": "The Stalking Horse", "barclass": "Pub", "barcode": 2 }, "geometry": { "type": "Point", "coordinates": [ -118.420417924989891, 34.04470965 ] } },
{ "type": "Feature", "properties": { "name": "West End", "barclass": "Bar", "barcode": 1 }, "geometry": { "type": "Point", "coordinates": [ -118.432502, 34.0449882 ] } },
{ "type": "Feature", "properties": { "name": "The Nickel Mine", "barclass": "Pub", "barcode": 2 }, "geometry": { "type": "Point", "coordinates": [ -118.450742, 34.0460369 ] } },
{ "type": "Feature", "properties": { "name": "The Auld Fella", "barclass": "Pub", "barcode": 2 }, "geometry": { "type": "Point", "coordinates": [ -118.4633187, 34.0477091 ] } },
{ "type": "Feature", "properties": { "name": "Barney's Beanery", "barclass": "Pub", "barcode": 2 }, "geometry": { "type": "Point", "coordinates": [ -118.4466561, 34.0617224 ] } },
{ "type": "Feature", "properties": { "name": "Rocco's Tavern", "barclass": "Bar", "barcode": 1 }, "geometry": { "type": "Point", "coordinates": [ -118.4476983, 34.0619255 ] } },
{ "type": "Feature", "properties": { "name": "Bar & Lounge", "barclass": "Bar", "barcode": 1 }, "geometry": { "type": "Point", "coordinates": [ -118.4461409, 34.086507 ] } },
{ "type": "Feature", "properties": { "name": "The Surly Goat", "barclass": "Bar", "barcode": 1 }, "geometry": { "type": "Point", "coordinates": [ -118.5110569, 34.1612678 ] } },
{ "type": "Feature", "properties": { "name": "JJ Sullivan's Irish Pub", "barclass": "Pub", "barcode": 2 }, "geometry": { "type": "Point", "coordinates": [ -118.625898, 34.1654572 ] } },
{ "type": "Feature", "properties": { "name": "Pickwick Pub", "barclass": "Pub", "barcode": 2 }, "geometry": { "type": "Point", "coordinates": [ -118.5913116, 34.1664718 ] } },
{ "type": "Feature", "properties": { "name": "Paoli's Piano Bar", "barclass": "Bar", "barcode": 1 }, "geometry": { "type": "Point", "coordinates": [ -118.5915275, 34.1665032 ] } },
{ "type": "Feature", "properties": { "name": "Laurel Tavern", "barclass": "Bar", "barcode": 1 }, "geometry": { "type": "Point", "coordinates": [ -118.3920419, 34.1430803 ] } },
{ "type": "Feature", "properties": { "name": "White Harte", "barclass": "Pub", "barcode": 2 }, "geometry": { "type": "Point", "coordinates": [ -118.6163051, 34.1679965 ] } },
{ "type": "Feature", "properties": { "name": "The Copper Mine", "barclass": "Bar", "barcode": 1 }, "geometry": { "type": "Point", "coordinates": [ -118.602046, 34.1686019 ] } },
{ "type": "Feature", "properties": { "name": "Maui Sugar Mill Saloon", "barclass": "Bar", "barcode": 1 }, "geometry": { "type": "Point", "coordinates": [ -118.532822, 34.1686606 ] } },
{ "type": "Feature", "properties": { "name": null, "barclass": "Bar", "barcode": 1 }, "geometry": { "type": "Point", "coordinates": [ -118.551364825, 34.17220525 ] } },
{ "type": "Feature", "properties": { "name": "Fuego Bar and Grill", "barclass": "Bar", "barcode": 1 }, "geometry": { "type": "Point", "coordinates": [ -118.5598622, 34.1729712 ] } },
{ "type": "Feature", "properties": { "name": "Q Bar", "barclass": "Bar", "barcode": 1 }, "geometry": { "type": "Point", "coordinates": [ -118.603861, 34.1785384 ] } },
{ "type": "Feature", "properties": { "name": "Petie's", "barclass": "Bar", "barcode": 1 }, "geometry": { "type": "Point", "coordinates": [ -118.5365508, 34.1793079 ] } },
{ "type": "Feature", "properties": { "name": "Paladino's", "barclass": "Nightclub", "barcode": 3 }, "geometry": { "type": "Point", "coordinates": [ -118.5366016, 34.1809321 ] } },
{ "type": "Feature", "properties": { "name": "Lane 33 Bar & Grill", "barclass": "Bar", "barcode": 1 }, "geometry": { "type": "Point", "coordinates": [ -118.5718399, 34.1929862 ] } },
{ "type": "Feature", "properties": { "name": "Canby", "barclass": "Bar", "barcode": 1 }, "geometry": { "type": "Point", "coordinates": [ -118.554092, 34.193686 ] } },
{ "type": "Feature", "properties": { "name": "The Candy Cat Too", "barclass": "Nightclub", "barcode": 3 }, "geometry": { "type": "Point", "coordinates": [ -118.5706441, 34.1943437 ] } },
{ "type": "Feature", "properties": { "name": "C Frenz", "barclass": "Bar", "barcode": 1 }, "geometry": { "type": "Point", "coordinates": [ -118.535778019017542, 34.1983348 ] } },
{ "type": "Feature", "properties": { "name": null, "barclass": "Nightclub", "barcode": 3 }, "geometry": { "type": "Point", "coordinates": [ -118.5998048, 34.2008573 ] } },
{ "type": "Feature", "properties": { "name": "Scotland Yard", "barclass": "Pub", "barcode": 2 }, "geometry": { "type": "Point", "coordinates": [ -118.6074743, 34.2011872 ] } },
{ "type": "Feature", "properties": { "name": "Caseys", "barclass": "Bar", "barcode": 1 }, "geometry": { "type": "Point", "coordinates": [ -118.6070736, 34.2012063 ] } },
{ "type": "Feature", "properties": { "name": "The Back Room Jazz Bar", "barclass": "Bar", "barcode": 1 }, "geometry": { "type": "Point", "coordinates": [ -118.6005277, 34.201225 ] } },
{ "type": "Feature", "properties": { "name": "Liquid Zoo", "barclass": "Bar", "barcode": 1 }, "geometry": { "type": "Point", "coordinates": [ -118.4659686, 34.2018356 ] } },
{ "type": "Feature", "properties": { "name": null, "barclass": "Nightclub", "barcode": 3 }, "geometry": { "type": "Point", "coordinates": [ -118.605628701363358, 34.2020172 ] } },
{ "type": "Feature", "properties": { "name": "The Rabbit Hole", "barclass": "Bar", "barcode": 1 }, "geometry": { "type": "Point", "coordinates": [ -118.608548932869752, 34.2200542 ] } },
{ "type": "Feature", "properties": { "name": "La Jungla", "barclass": "Nightclub", "barcode": 3 }, "geometry": { "type": "Point", "coordinates": [ -118.467379875121281, 34.2263666 ] } },
{ "type": "Feature", "properties": { "name": "Rocco's Tavern", "barclass": "Bar", "barcode": 1 }, "geometry": { "type": "Point", "coordinates": [ -118.405779795009096, 34.14250165 ] } },
{ "type": "Feature", "properties": { "name": "Seventy7 North", "barclass": "Bar", "barcode": 1 }, "geometry": { "type": "Point", "coordinates": [ -118.4060703, 34.1425977 ] } },
{ "type": "Feature", "properties": { "name": "Epic Bar & Lounge", "barclass": "Bar", "barcode": 1 }, "geometry": { "type": "Point", "coordinates": [ -118.455004003113999, 34.15233325 ] } },
{ "type": "Feature", "properties": { "name": "Tipsy Cow", "barclass": "Bar", "barcode": 1 }, "geometry": { "type": "Point", "coordinates": [ -118.4598691, 34.1529332 ] } },
{ "type": "Feature", "properties": { "name": "Ireland's 32", "barclass": "Bar", "barcode": 1 }, "geometry": { "type": "Point", "coordinates": [ -118.4322044, 34.1722935 ] } },
{ "type": "Feature", "properties": { "name": "Tonga Hut", "barclass": "Bar", "barcode": 1 }, "geometry": { "type": "Point", "coordinates": [ -118.4121953, 34.1864924 ] } },
{ "type": "Feature", "properties": { "name": "La Sierra", "barclass": "Nightclub", "barcode": 3 }, "geometry": { "type": "Point", "coordinates": [ -118.449570593789048, 34.2271217 ] } },
{ "type": "Feature", "properties": { "name": "The Witches' Brew", "barclass": "Bar", "barcode": 1 }, "geometry": { "type": "Point", "coordinates": [ -118.484286775060411, 34.22876105 ] } },
{ "type": "Feature", "properties": { "name": "8ONE8 Brewing-Tasting Room", "barclass": "Bar", "barcode": 1 }, "geometry": { "type": "Point", "coordinates": [ -118.5889155, 34.2333158 ] } },
{ "type": "Feature", "properties": { "name": "Norwood Bar & Lounge", "barclass": "Bar", "barcode": 1 }, "geometry": { "type": "Point", "coordinates": [ -118.485292624880316, 34.23529585 ] } },
{ "type": "Feature", "properties": { "name": "Bar Louie", "barclass": "Bar", "barcode": 1 }, "geometry": { "type": "Point", "coordinates": [ -118.5564681, 34.2405696 ] } },
{ "type": "Feature", "properties": { "name": null, "barclass": "Bar", "barcode": 1 }, "geometry": { "type": "Point", "coordinates": [ -118.5896748, 34.2492623 ] } },
{ "type": "Feature", "properties": { "name": "West End Tavern", "barclass": "Pub", "barcode": 2 }, "geometry": { "type": "Point", "coordinates": [ -118.5969479, 34.2570135 ] } },
{ "type": "Feature", "properties": { "name": null, "barclass": "Bar", "barcode": 1 }, "geometry": { "type": "Point", "coordinates": [ -118.5963507, 34.2570279 ] } },
{ "type": "Feature", "properties": { "name": "Cowboy Palace Saloon", "barclass": "Bar", "barcode": 1 }, "geometry": { "type": "Point", "coordinates": [ -118.60151697348735, 34.2574713 ] } },
{ "type": "Feature", "properties": { "name": "Oh Grady's", "barclass": "Bar", "barcode": 1 }, "geometry": { "type": "Point", "coordinates": [ -118.5187381, 34.2650885 ] } },
{ "type": "Feature", "properties": { "name": "Paul's Tavern", "barclass": "Bar", "barcode": 1 }, "geometry": { "type": "Point", "coordinates": [ -118.468504924848361, 34.26510995 ] } },
{ "type": "Feature", "properties": { "name": null, "barclass": "Bar", "barcode": 1 }, "geometry": { "type": "Point", "coordinates": [ -118.5737637, 34.2652682 ] } },
{ "type": "Feature", "properties": { "name": "The Thirsty Crow", "barclass": "Bar", "barcode": 1 }, "geometry": { "type": "Point", "coordinates": [ -118.2737845, 34.0836919 ] } },
{ "type": "Feature", "properties": { "name": "Los Globos", "barclass": "Nightclub", "barcode": 3 }, "geometry": { "type": "Point", "coordinates": [ -118.274345218799624, 34.08382965 ] } },
{ "type": "Feature", "properties": { "name": "Bolita", "barclass": "Bar", "barcode": 1 }, "geometry": { "type": "Point", "coordinates": [ -118.2867138, 34.0873311 ] } },
{ "type": "Feature", "properties": { "name": "Alma's Cider and Beer", "barclass": "Bar", "barcode": 1 }, "geometry": { "type": "Point", "coordinates": [ -118.2867299, 34.0878509 ] } },
{ "type": "Feature", "properties": { "name": "The Satellite", "barclass": "Bar", "barcode": 1 }, "geometry": { "type": "Point", "coordinates": [ -118.268363114571912, 34.08994445 ] } },
{ "type": "Feature", "properties": { "name": "33 Taps Silver Lake", "barclass": "Pub", "barcode": 2 }, "geometry": { "type": "Point", "coordinates": [ -118.278242, 34.0908909 ] } },
{ "type": "Feature", "properties": { "name": "The Virgil", "barclass": "Bar", "barcode": 1 }, "geometry": { "type": "Point", "coordinates": [ -118.287062528693923, 34.09104695 ] } },
{ "type": "Feature", "properties": { "name": "Eagle LA", "barclass": "Bar", "barcode": 1 }, "geometry": { "type": "Point", "coordinates": [ -118.283961798286441, 34.09115315 ] } },
{ "type": "Feature", "properties": { "name": "4100 Bar", "barclass": "Bar", "barcode": 1 }, "geometry": { "type": "Point", "coordinates": [ -118.2814474, 34.0929435 ] } },
{ "type": "Feature", "properties": { "name": "Drugstore Cowboy", "barclass": "Bar", "barcode": 1 }, "geometry": { "type": "Point", "coordinates": [ -118.2837283, 34.0951709 ] } },
{ "type": "Feature", "properties": { "name": "Knucklehead Hollywood", "barclass": "Bar", "barcode": 1 }, "geometry": { "type": "Point", "coordinates": [ -118.324661352178211, 34.0904946 ] } },
{ "type": "Feature", "properties": { "name": "Gold Diggers", "barclass": "Bar", "barcode": 1 }, "geometry": { "type": "Point", "coordinates": [ -118.3125671, 34.0905978 ] } },
{ "type": "Feature", "properties": { "name": "la descarga", "barclass": "Bar", "barcode": 1 }, "geometry": { "type": "Point", "coordinates": [ -118.3094112, 34.0920862 ] } },
{ "type": "Feature", "properties": { "name": "Next Door Lounge", "barclass": "Nightclub", "barcode": 3 }, "geometry": { "type": "Point", "coordinates": [ -118.3384243, 34.0923281 ] } },
{ "type": "Feature", "properties": { "name": "Sassafras Saloon", "barclass": "Bar", "barcode": 1 }, "geometry": { "type": "Point", "coordinates": [ -118.3268614, 34.0934892 ] } },
{ "type": "Feature", "properties": { "name": "Eden Sunset", "barclass": "Nightclub", "barcode": 3 }, "geometry": { "type": "Point", "coordinates": [ -118.331898, 34.0981258 ] } },
{ "type": "Feature", "properties": { "name": "Cocktails", "barclass": "Bar", "barcode": 1 }, "geometry": { "type": "Point", "coordinates": [ -118.3174969, 34.0982094 ] } },
{ "type": "Feature", "properties": { "name": "Girl At The White Horse", "barclass": "Bar", "barcode": 1 }, "geometry": { "type": "Point", "coordinates": [ -118.3090907, 34.0990808 ] } },
{ "type": "Feature", "properties": { "name": "Mama's rooftop", "barclass": "Bar", "barcode": 1 }, "geometry": { "type": "Point", "coordinates": [ -118.3314153, 34.0996297 ] } },
{ "type": "Feature", "properties": { "name": "AV Nightclub", "barclass": "Nightclub", "barcode": 3 }, "geometry": { "type": "Point", "coordinates": [ -118.329773, 34.0999116 ] } },
{ "type": "Feature", "properties": { "name": "Bar Marmont", "barclass": "Bar", "barcode": 1 }, "geometry": { "type": "Point", "coordinates": [ -118.367390775472273, 34.09819505 ] } },
{ "type": "Feature", "properties": { "name": "Tropicana Bar", "barclass": "Bar", "barcode": 1 }, "geometry": { "type": "Point", "coordinates": [ -118.3422466, 34.1007872 ] } },
{ "type": "Feature", "properties": { "name": "Teddys", "barclass": "Nightclub", "barcode": 3 }, "geometry": { "type": "Point", "coordinates": [ -118.3417933, 34.1011399 ] } },
{ "type": "Feature", "properties": { "name": "The Lobby Bar", "barclass": "Bar", "barcode": 1 }, "geometry": { "type": "Point", "coordinates": [ -118.3416561, 34.1012041 ] } },
{ "type": "Feature", "properties": { "name": "Library Bar", "barclass": "Bar", "barcode": 1 }, "geometry": { "type": "Point", "coordinates": [ -118.3415868, 34.1012925 ] } },
{ "type": "Feature", "properties": { "name": "Jay's Bar", "barclass": "Pub", "barcode": 2 }, "geometry": { "type": "Point", "coordinates": [ -118.2830176, 34.0952957 ] } },
{ "type": "Feature", "properties": { "name": "Akbar", "barclass": "Bar", "barcode": 1 }, "geometry": { "type": "Point", "coordinates": [ -118.284251, 34.0956922 ] } },
{ "type": "Feature", "properties": { "name": "Tiki-Ti", "barclass": "Bar", "barcode": 1 }, "geometry": { "type": "Point", "coordinates": [ -118.285763, 34.0974797 ] } },
{ "type": "Feature", "properties": { "name": "Cha Cha Lounge", "barclass": "Bar", "barcode": 1 }, "geometry": { "type": "Point", "coordinates": [ -118.2594479, 34.09936 ] } },
{ "type": "Feature", "properties": { "name": "Cheetah's", "barclass": "Bar", "barcode": 1 }, "geometry": { "type": "Point", "coordinates": [ -118.2894422, 34.0995269 ] } },
{ "type": "Feature", "properties": { "name": "Covell", "barclass": "Bar", "barcode": 1 }, "geometry": { "type": "Point", "coordinates": [ -118.2901366, 34.0999488 ] } },
{ "type": "Feature", "properties": { "name": "Hi Tops Sports Bar", "barclass": "Pub", "barcode": 2 }, "geometry": { "type": "Point", "coordinates": [ -118.2916414, 34.1022591 ] } },
{ "type": "Feature", "properties": { "name": "Closed (Was 1739 Pub)", "barclass": "Pub", "barcode": 2 }, "geometry": { "type": "Point", "coordinates": [ -118.291954, 34.1028485 ] } },
{ "type": "Feature", "properties": { "name": "Drawing Room", "barclass": "Bar", "barcode": 1 }, "geometry": { "type": "Point", "coordinates": [ -118.286982, 34.10374 ] } },
{ "type": "Feature", "properties": { "name": "The Friend", "barclass": "Bar", "barcode": 1 }, "geometry": { "type": "Point", "coordinates": [ -118.2728052, 34.1060181 ] } },
{ "type": "Feature", "properties": { "name": null, "barclass": "Bar", "barcode": 1 }, "geometry": { "type": "Point", "coordinates": [ -118.329932899999989, 34.10002085 ] } },
{ "type": "Feature", "properties": { "name": "The Powder Room", "barclass": "Bar", "barcode": 1 }, "geometry": { "type": "Point", "coordinates": [ -118.3293758, 34.1000498 ] } },
{ "type": "Feature", "properties": { "name": "Blue Boar Pub", "barclass": "Pub", "barcode": 2 }, "geometry": { "type": "Point", "coordinates": [ -118.3297497, 34.100137 ] } },
{ "type": "Feature", "properties": { "name": "Good Times at Davey Wayne's", "barclass": "Bar", "barcode": 1 }, "geometry": { "type": "Point", "coordinates": [ -118.324029, 34.1002356 ] } },
{ "type": "Feature", "properties": { "name": "The Hotel Cafe", "barclass": "Nightclub", "barcode": 3 }, "geometry": { "type": "Point", "coordinates": [ -118.329833734229823, 34.10038475 ] } },
{ "type": "Feature", "properties": { "name": "The Room", "barclass": "Nightclub", "barcode": 3 }, "geometry": { "type": "Point", "coordinates": [ -118.3293676, 34.1007865 ] } },
{ "type": "Feature", "properties": { "name": "Sound Nightclub", "barclass": "Bar", "barcode": 1 }, "geometry": { "type": "Point", "coordinates": [ -118.3359353, 34.1010035 ] } },
{ "type": "Feature", "properties": { "name": "Eden", "barclass": "Nightclub", "barcode": 3 }, "geometry": { "type": "Point", "coordinates": [ -118.332176347934976, 34.10106815 ] } },
{ "type": "Feature", "properties": { "name": "Ecco Ultra Lounge", "barclass": "Nightclub", "barcode": 3 }, "geometry": { "type": "Point", "coordinates": [ -118.3293482, 34.1010713 ] } },
{ "type": "Feature", "properties": { "name": "Hollywood Hookah Lounge", "barclass": "Nightclub", "barcode": 3 }, "geometry": { "type": "Point", "coordinates": [ -118.3316234, 34.1014014 ] } },
{ "type": "Feature", "properties": { "name": "Jameson's Irish Pub", "barclass": "Pub", "barcode": 2 }, "geometry": { "type": "Point", "coordinates": [ -118.3358293, 34.1017225 ] } },
{ "type": "Feature", "properties": { "name": "The Day After", "barclass": "Nightclub", "barcode": 3 }, "geometry": { "type": "Point", "coordinates": [ -118.3378177, 34.1017354 ] } },
{ "type": "Feature", "properties": { "name": "Scum and Villainy Cantina", "barclass": "Bar", "barcode": 1 }, "geometry": { "type": "Point", "coordinates": [ -118.329066, 34.1017778 ] } },
{ "type": "Feature", "properties": { "name": "Black Rabbit Rose Magic", "barclass": "Nightclub", "barcode": 3 }, "geometry": { "type": "Point", "coordinates": [ -118.3321849, 34.1017836 ] } },
{ "type": "Feature", "properties": { "name": "Harvard & Stone Bar", "barclass": "Bar", "barcode": 1 }, "geometry": { "type": "Point", "coordinates": [ -118.3043117, 34.1018931 ] } },
{ "type": "Feature", "properties": { "name": "Tabula Rasa Bar", "barclass": "Bar", "barcode": 1 }, "geometry": { "type": "Point", "coordinates": [ -118.3014699, 34.1019569 ] } },
{ "type": "Feature", "properties": { "name": "Power House", "barclass": "Bar", "barcode": 1 }, "geometry": { "type": "Point", "coordinates": [ -118.3385447, 34.1021439 ] } },
{ "type": "Feature", "properties": { "name": "No Vacancy", "barclass": "Bar", "barcode": 1 }, "geometry": { "type": "Point", "coordinates": [ -118.3324458, 34.1022292 ] } },
{ "type": "Feature", "properties": { "name": "Club DV8", "barclass": "Nightclub", "barcode": 3 }, "geometry": { "type": "Point", "coordinates": [ -118.3395727, 34.1026303 ] } },
{ "type": "Feature", "properties": { "name": "Ann’s Wine Bar", "barclass": "Bar", "barcode": 1 }, "geometry": { "type": "Point", "coordinates": [ -118.3385469, 34.1124671 ] } },
{ "type": "Feature", "properties": { "name": "The Baked Potato", "barclass": "Nightclub", "barcode": 3 }, "geometry": { "type": "Point", "coordinates": [ -118.36313036071428, 34.1366318 ] } },
{ "type": "Feature", "properties": { "name": "Universal Bar & Grill", "barclass": "Bar", "barcode": 1 }, "geometry": { "type": "Point", "coordinates": [ -118.362202318400023, 34.143855 ] } },
{ "type": "Feature", "properties": { "name": "Forman's Tavern", "barclass": "Pub", "barcode": 2 }, "geometry": { "type": "Point", "coordinates": [ -118.3523416, 34.1523646 ] } },
{ "type": "Feature", "properties": { "name": "Spin The Bottle Wine Studio", "barclass": "Bar", "barcode": 1 }, "geometry": { "type": "Point", "coordinates": [ -118.3521486, 34.1523766 ] } },
{ "type": "Feature", "properties": { "name": "Idle Hour", "barclass": "Bar", "barcode": 1 }, "geometry": { "type": "Point", "coordinates": [ -118.370049, 34.1583581 ] } },
{ "type": "Feature", "properties": { "name": "Skinny's Lounge", "barclass": "Bar", "barcode": 1 }, "geometry": { "type": "Point", "coordinates": [ -118.3722162, 34.1604076 ] } },
{ "type": "Feature", "properties": { "name": "Hop Merchants Bottle Shop and Taproom", "barclass": "Bar", "barcode": 1 }, "geometry": { "type": "Point", "coordinates": [ -118.3725886, 34.1611228 ] } },
{ "type": "Feature", "properties": { "name": "Player One", "barclass": "Nightclub", "barcode": 3 }, "geometry": { "type": "Point", "coordinates": [ -118.3736814, 34.1637955 ] } },
{ "type": "Feature", "properties": { "name": "The Brickyard Pub", "barclass": "Pub", "barcode": 2 }, "geometry": { "type": "Point", "coordinates": [ -118.3735657, 34.164669 ] } },
{ "type": "Feature", "properties": { "name": null, "barclass": "Bar", "barcode": 1 }, "geometry": { "type": "Point", "coordinates": [ -118.3723979, 34.1647674 ] } },
{ "type": "Feature", "properties": { "name": "NoBAR", "barclass": "Bar", "barcode": 1 }, "geometry": { "type": "Point", "coordinates": [ -118.3624954, 34.1647911 ] } },
{ "type": "Feature", "properties": { "name": "The Bullet Bar", "barclass": "Bar", "barcode": 1 }, "geometry": { "type": "Point", "coordinates": [ -118.360228024874061, 34.17197035 ] } },
{ "type": "Feature", "properties": { "name": "La Vida Gentlemen's Club", "barclass": "Bar", "barcode": 1 }, "geometry": { "type": "Point", "coordinates": [ -118.3788299, 34.2241356 ] } },
{ "type": "Feature", "properties": { "name": null, "barclass": "Pub", "barcode": 2 }, "geometry": { "type": "Point", "coordinates": [ -118.3028134, 34.2594656 ] } }
]
}
