{
"type": "FeatureCollection",
"name": "OPP_bars_sanfrancisco",
"crs": { "type": "name", "properties": { "name": "urn:ogc:def:crs:OGC:1.3:CRS84" } },
"features": [
{ "type": "Feature", "properties": { "name": "The PUB@SFSU", "barclass": "Bar", "barcode": 1 }, "geometry": { "type": "Point", "coordinates": [ -122.4788561, 37.7221622 ] } },
{ "type": "Feature", "properties": { "name": "Ocean Ale House", "barclass": "Bar", "barcode": 1 }, "geometry": { "type": "Point", "coordinates": [ -122.45677, 37.7241672 ] } },
{ "type": "Feature", "properties": { "name": "The Dubliner", "barclass": "Pub", "barcode": 2 }, "geometry": { "type": "Point", "coordinates": [ -122.4696762, 37.7377005 ] } },
{ "type": "Feature", "properties": { "name": "Binu Bonu", "barclass": "Bar", "barcode": 1 }, "geometry": { "type": "Point", "coordinates": [ -122.4685481, 37.7386468 ] } },
{ "type": "Feature", "properties": { "name": "The Sherwood Cocktails and Lounge", "barclass": "Bar", "barcode": 1 }, "geometry": { "type": "Point", "coordinates": [ -122.4676699, 37.7389501 ] } },
{ "type": "Feature", "properties": { "name": "McCarthy‘s Irish Bar", "barclass": "Bar", "barcode": 1 }, "geometry": { "type": "Point", "coordinates": [ -122.466539, 37.740405 ] } },
{ "type": "Feature", "properties": { "name": "The Connection", "barclass": "Bar", "barcode": 1 }, "geometry": { "type": "Point", "coordinates": [ -122.4498831, 37.7099557 ] } },
{ "type": "Feature", "properties": { "name": "Geneva Pub", "barclass": "Bar", "barcode": 1 }, "geometry": { "type": "Point", "coordinates": [ -122.4364796, 37.7141742 ] } },
{ "type": "Feature", "properties": { "name": "The Halfway Club", "barclass": "Bar", "barcode": 1 }, "geometry": { "type": "Point", "coordinates": [ -122.436924, 37.7143665 ] } },
{ "type": "Feature", "properties": { "name": null, "barclass": "Nightclub", "barcode": 3 }, "geometry": { "type": "Point", "coordinates": [ -122.4441965, 37.7230834 ] } },
{ "type": "Feature", "properties": { "name": "Pissed Off Pete's", "barclass": "Bar", "barcode": 1 }, "geometry": { "type": "Point", "coordinates": [ -122.4343609, 37.7255163 ] } },
{ "type": "Feature", "properties": { "name": "Rocks Den", "barclass": "Bar", "barcode": 1 }, "geometry": { "type": "Point", "coordinates": [ -122.4327193, 37.7272028 ] } },
{ "type": "Feature", "properties": { "name": "Friend's Bar", "barclass": "Bar", "barcode": 1 }, "geometry": { "type": "Point", "coordinates": [ -122.4479698, 37.7318373 ] } },
{ "type": "Feature", "properties": { "name": "Glen Park Station", "barclass": "Bar", "barcode": 1 }, "geometry": { "type": "Point", "coordinates": [ -122.4341305, 37.7341553 ] } },
{ "type": "Feature", "properties": { "name": "The Peaks", "barclass": "Pub", "barcode": 2 }, "geometry": { "type": "Point", "coordinates": [ -122.4342405, 37.7509873 ] } },
{ "type": "Feature", "properties": { "name": "The Valley Tavern", "barclass": "Pub", "barcode": 2 }, "geometry": { "type": "Point", "coordinates": [ -122.4331353, 37.7514698 ] } },
{ "type": "Feature", "properties": { "name": "St. Mary's Pub", "barclass": "Pub", "barcode": 2 }, "geometry": { "type": "Point", "coordinates": [ -122.4245037, 37.7354739 ] } },
{ "type": "Feature", "properties": { "name": "Canchola's Bar", "barclass": "Bar", "barcode": 1 }, "geometry": { "type": "Point", "coordinates": [ -122.4242302, 37.7362958 ] } },
{ "type": "Feature", "properties": { "name": "Tip Top", "barclass": "Bar", "barcode": 1 }, "geometry": { "type": "Point", "coordinates": [ -122.424559459701669, 37.7364005 ] } },
{ "type": "Feature", "properties": { "name": "Tikal Bar", "barclass": "Bar", "barcode": 1 }, "geometry": { "type": "Point", "coordinates": [ -122.42226344927451, 37.7415468 ] } },
{ "type": "Feature", "properties": { "name": "Club Malibu", "barclass": "Nightclub", "barcode": 3 }, "geometry": { "type": "Point", "coordinates": [ -122.4218441, 37.7422316 ] } },
{ "type": "Feature", "properties": { "name": "The Bar on Dolores", "barclass": "Bar", "barcode": 1 }, "geometry": { "type": "Point", "coordinates": [ -122.4246216, 37.7437445 ] } },
{ "type": "Feature", "properties": { "name": "Rock Bar", "barclass": "Bar", "barcode": 1 }, "geometry": { "type": "Point", "coordinates": [ -122.4220729, 37.7440923 ] } },
{ "type": "Feature", "properties": { "name": "The Dubliner", "barclass": "Pub", "barcode": 2 }, "geometry": { "type": "Point", "coordinates": [ -122.4283147, 37.7517359 ] } },
{ "type": "Feature", "properties": { "name": "Radio Habana", "barclass": "Bar", "barcode": 1 }, "geometry": { "type": "Point", "coordinates": [ -122.4207974, 37.7551095 ] } },
{ "type": "Feature", "properties": { "name": "The Liberties", "barclass": "Bar", "barcode": 1 }, "geometry": { "type": "Point", "coordinates": [ -122.4233571, 37.7552542 ] } },
{ "type": "Feature", "properties": { "name": "Unwine'd", "barclass": "Bar", "barcode": 1 }, "geometry": { "type": "Point", "coordinates": [ -122.4657844, 37.7406397 ] } },
{ "type": "Feature", "properties": { "name": "Philosophers Club", "barclass": "Bar", "barcode": 1 }, "geometry": { "type": "Point", "coordinates": [ -122.4654436, 37.7408294 ] } },
{ "type": "Feature", "properties": { "name": "The Riptide", "barclass": "Bar", "barcode": 1 }, "geometry": { "type": "Point", "coordinates": [ -122.505343852883016, 37.7415856 ] } },
{ "type": "Feature", "properties": { "name": "White Cap", "barclass": "Bar", "barcode": 1 }, "geometry": { "type": "Point", "coordinates": [ -122.5048589, 37.7418792 ] } },
{ "type": "Feature", "properties": { "name": "After Hours SF", "barclass": "Pub", "barcode": 2 }, "geometry": { "type": "Point", "coordinates": [ -122.4989551, 37.7421604 ] } },
{ "type": "Feature", "properties": { "name": "Lost & Found", "barclass": "Bar", "barcode": 1 }, "geometry": { "type": "Point", "coordinates": [ -122.481747516449587, 37.7425831 ] } },
{ "type": "Feature", "properties": { "name": "Dragon Lounge", "barclass": "Bar", "barcode": 1 }, "geometry": { "type": "Point", "coordinates": [ -122.4809329, 37.742708 ] } },
{ "type": "Feature", "properties": { "name": "Shannon Arms", "barclass": "Pub", "barcode": 2 }, "geometry": { "type": "Point", "coordinates": [ -122.4760224, 37.7429041 ] } },
{ "type": "Feature", "properties": { "name": "Miraloma Club", "barclass": "Bar", "barcode": 1 }, "geometry": { "type": "Point", "coordinates": [ -122.4536779, 37.7438818 ] } },
{ "type": "Feature", "properties": { "name": "Two Pitchers Brewing Company", "barclass": "Pub", "barcode": 2 }, "geometry": { "type": "Point", "coordinates": [ -122.5048305, 37.752836 ] } },
{ "type": "Feature", "properties": { "name": "Flanahan's Pub", "barclass": "Pub", "barcode": 2 }, "geometry": { "type": "Point", "coordinates": [ -122.5045013, 37.752864 ] } },
{ "type": "Feature", "properties": { "name": "Boomerang", "barclass": "Bar", "barcode": 1 }, "geometry": { "type": "Point", "coordinates": [ -122.4791847, 37.7542699 ] } },
{ "type": "Feature", "properties": { "name": "Tiki Haven", "barclass": "Bar", "barcode": 1 }, "geometry": { "type": "Point", "coordinates": [ -122.4781838, 37.754295 ] } },
{ "type": "Feature", "properties": { "name": "oneup bar", "barclass": "Bar", "barcode": 1 }, "geometry": { "type": "Point", "coordinates": [ -122.4770736, 37.7543453 ] } },
{ "type": "Feature", "properties": { "name": "Pittsburgh's Pub", "barclass": "Pub", "barcode": 2 }, "geometry": { "type": "Point", "coordinates": [ -122.5071774, 37.7602405 ] } },
{ "type": "Feature", "properties": { "name": "Woods Outbound", "barclass": "Pub", "barcode": 2 }, "geometry": { "type": "Point", "coordinates": [ -122.5055953, 37.7603112 ] } },
{ "type": "Feature", "properties": { "name": "Woods Outbound", "barclass": "Bar", "barcode": 1 }, "geometry": { "type": "Point", "coordinates": [ -122.5055935, 37.7603154 ] } },
{ "type": "Feature", "properties": { "name": "Durty Nelly's", "barclass": "Pub", "barcode": 2 }, "geometry": { "type": "Point", "coordinates": [ -122.483036827183895, 37.7634848 ] } },
{ "type": "Feature", "properties": { "name": "Maggie & Mac's", "barclass": "Pub", "barcode": 2 }, "geometry": { "type": "Point", "coordinates": [ -122.466066221684059, 37.7635041 ] } },
{ "type": "Feature", "properties": { "name": "Silver Spur", "barclass": "Bar", "barcode": 1 }, "geometry": { "type": "Point", "coordinates": [ -122.4785512, 37.7636372 ] } },
{ "type": "Feature", "properties": { "name": "Lone Palm", "barclass": "Bar", "barcode": 1 }, "geometry": { "type": "Point", "coordinates": [ -122.4229151, 37.7552947 ] } },
{ "type": "Feature", "properties": { "name": "The Beehive", "barclass": "Bar", "barcode": 1 }, "geometry": { "type": "Point", "coordinates": [ -122.4215245, 37.7594191 ] } },
{ "type": "Feature", "properties": { "name": "Wildhawk", "barclass": "Bar", "barcode": 1 }, "geometry": { "type": "Point", "coordinates": [ -122.4207752, 37.7602548 ] } },
{ "type": "Feature", "properties": { "name": "Etcetera Wine Bar", "barclass": "Bar", "barcode": 1 }, "geometry": { "type": "Point", "coordinates": [ -122.421319, 37.7602888 ] } },
{ "type": "Feature", "properties": { "name": "The Chapel", "barclass": "Nightclub", "barcode": 3 }, "geometry": { "type": "Point", "coordinates": [ -122.421200995003687, 37.7604879 ] } },
{ "type": "Feature", "properties": { "name": "Fort Point Beer Company", "barclass": "Pub", "barcode": 2 }, "geometry": { "type": "Point", "coordinates": [ -122.421689, 37.760967 ] } },
{ "type": "Feature", "properties": { "name": "Cervecería de MateVeza", "barclass": "Bar", "barcode": 1 }, "geometry": { "type": "Point", "coordinates": [ -122.4285438, 37.761163 ] } },
{ "type": "Feature", "properties": { "name": "The Valencia Room", "barclass": "Nightclub", "barcode": 3 }, "geometry": { "type": "Point", "coordinates": [ -122.4215367, 37.7625463 ] } },
{ "type": "Feature", "properties": { "name": "500 Club", "barclass": "Bar", "barcode": 1 }, "geometry": { "type": "Point", "coordinates": [ -122.424156751077646, 37.76302135 ] } },
{ "type": "Feature", "properties": { "name": "Blondies Bar", "barclass": "Bar", "barcode": 1 }, "geometry": { "type": "Point", "coordinates": [ -122.4219848, 37.7642161 ] } },
{ "type": "Feature", "properties": { "name": "The Edge", "barclass": "Bar", "barcode": 1 }, "geometry": { "type": "Point", "coordinates": [ -122.4359987, 37.7607436 ] } },
{ "type": "Feature", "properties": { "name": "Midnight Sun", "barclass": "Bar", "barcode": 1 }, "geometry": { "type": "Point", "coordinates": [ -122.43432, 37.7608265 ] } },
{ "type": "Feature", "properties": { "name": "Moby Dick", "barclass": "Bar", "barcode": 1 }, "geometry": { "type": "Point", "coordinates": [ -122.4337728, 37.7608676 ] } },
{ "type": "Feature", "properties": { "name": "Toad Hall", "barclass": "Bar", "barcode": 1 }, "geometry": { "type": "Point", "coordinates": [ -122.4358979, 37.7609305 ] } },
{ "type": "Feature", "properties": { "name": "Copper", "barclass": "Bar", "barcode": 1 }, "geometry": { "type": "Point", "coordinates": [ -122.434589, 37.7610207 ] } },
{ "type": "Feature", "properties": { "name": "The Mix", "barclass": "Bar", "barcode": 1 }, "geometry": { "type": "Point", "coordinates": [ -122.434509, 37.7610642 ] } },
{ "type": "Feature", "properties": { "name": "Blush! Wine Bar", "barclass": "Bar", "barcode": 1 }, "geometry": { "type": "Point", "coordinates": [ -122.4352312, 37.7612906 ] } },
{ "type": "Feature", "properties": { "name": "QBar", "barclass": "Bar", "barcode": 1 }, "geometry": { "type": "Point", "coordinates": [ -122.4352611, 37.7616024 ] } },
{ "type": "Feature", "properties": { "name": "Twin Peaks Tavern", "barclass": "Bar", "barcode": 1 }, "geometry": { "type": "Point", "coordinates": [ -122.434998, 37.7624007 ] } },
{ "type": "Feature", "properties": { "name": "The Café", "barclass": "Bar", "barcode": 1 }, "geometry": { "type": "Point", "coordinates": [ -122.434327, 37.7630042 ] } },
{ "type": "Feature", "properties": { "name": "Mucky Duck", "barclass": "Bar", "barcode": 1 }, "geometry": { "type": "Point", "coordinates": [ -122.4664518, 37.7637154 ] } },
{ "type": "Feature", "properties": { "name": "The Sage & Drifter", "barclass": "Bar", "barcode": 1 }, "geometry": { "type": "Point", "coordinates": [ -122.4726646, 37.7639038 ] } },
{ "type": "Feature", "properties": { "name": "Fireside Bar", "barclass": "Bar", "barcode": 1 }, "geometry": { "type": "Point", "coordinates": [ -122.4643912, 37.7639974 ] } },
{ "type": "Feature", "properties": { "name": "The Red Tail", "barclass": "Bar", "barcode": 1 }, "geometry": { "type": "Point", "coordinates": [ -122.4638179, 37.7640194 ] } },
{ "type": "Feature", "properties": { "name": "Yancy's Saloon", "barclass": "Bar", "barcode": 1 }, "geometry": { "type": "Point", "coordinates": [ -122.4658639, 37.7641987 ] } },
{ "type": "Feature", "properties": { "name": "The Temple Bar", "barclass": "Pub", "barcode": 2 }, "geometry": { "type": "Point", "coordinates": [ -122.46705430137041, 37.76422305 ] } },
{ "type": "Feature", "properties": { "name": "Foghorn Taproom", "barclass": "Bar", "barcode": 1 }, "geometry": { "type": "Point", "coordinates": [ -122.4637059, 37.7642843 ] } },
{ "type": "Feature", "properties": { "name": "Casa Barajas / Chug Pub", "barclass": "Pub", "barcode": 2 }, "geometry": { "type": "Point", "coordinates": [ -122.4781609, 37.7652442 ] } },
{ "type": "Feature", "properties": { "name": "Finnegans Wake", "barclass": "Pub", "barcode": 2 }, "geometry": { "type": "Point", "coordinates": [ -122.4500311, 37.7653081 ] } },
{ "type": "Feature", "properties": { "name": "The Little Shamrock", "barclass": "Pub", "barcode": 2 }, "geometry": { "type": "Point", "coordinates": [ -122.4667058, 37.7657847 ] } },
{ "type": "Feature", "properties": { "name": "Casanova Lounge", "barclass": "Bar", "barcode": 1 }, "geometry": { "type": "Point", "coordinates": [ -122.4216786, 37.7643859 ] } },
{ "type": "Feature", "properties": { "name": "Delirium", "barclass": "Pub", "barcode": 2 }, "geometry": { "type": "Point", "coordinates": [ -122.4227284, 37.764764 ] } },
{ "type": "Feature", "properties": { "name": "Dalva", "barclass": "Pub", "barcode": 2 }, "geometry": { "type": "Point", "coordinates": [ -122.4224623, 37.7647708 ] } },
{ "type": "Feature", "properties": { "name": "Mother", "barclass": "Bar", "barcode": 1 }, "geometry": { "type": "Point", "coordinates": [ -122.4213338, 37.7648164 ] } },
{ "type": "Feature", "properties": { "name": "Skylark", "barclass": "Bar", "barcode": 1 }, "geometry": { "type": "Point", "coordinates": [ -122.4215576, 37.7648183 ] } },
{ "type": "Feature", "properties": { "name": "Elixir", "barclass": "Pub", "barcode": 2 }, "geometry": { "type": "Point", "coordinates": [ -122.4243046, 37.7649242 ] } },
{ "type": "Feature", "properties": { "name": "ABV", "barclass": "Bar", "barcode": 1 }, "geometry": { "type": "Point", "coordinates": [ -122.4235379, 37.7649457 ] } },
{ "type": "Feature", "properties": { "name": "Kilowatt", "barclass": "Pub", "barcode": 2 }, "geometry": { "type": "Point", "coordinates": [ -122.4232405, 37.7649743 ] } },
{ "type": "Feature", "properties": { "name": "Cafe du Nord", "barclass": "Pub", "barcode": 2 }, "geometry": { "type": "Point", "coordinates": [ -122.430544601232114, 37.7667182 ] } },
{ "type": "Feature", "properties": { "name": "Pilsner Inn", "barclass": "Nightclub", "barcode": 3 }, "geometry": { "type": "Point", "coordinates": [ -122.4287948, 37.7671357 ] } },
{ "type": "Feature", "properties": { "name": "Lookout", "barclass": "Bar", "barcode": 1 }, "geometry": { "type": "Point", "coordinates": [ -122.4333114, 37.7643689 ] } },
{ "type": "Feature", "properties": { "name": "Bar 49", "barclass": "Bar", "barcode": 1 }, "geometry": { "type": "Point", "coordinates": [ -122.432524, 37.7644304 ] } },
{ "type": "Feature", "properties": { "name": "Hi Tops", "barclass": "Pub", "barcode": 2 }, "geometry": { "type": "Point", "coordinates": [ -122.4318228, 37.7649986 ] } },
{ "type": "Feature", "properties": { "name": "Rikki's", "barclass": "Bar", "barcode": 1 }, "geometry": { "type": "Point", "coordinates": [ -122.431471, 37.7652703 ] } },
{ "type": "Feature", "properties": { "name": "Aub Zam Zam", "barclass": "Pub", "barcode": 2 }, "geometry": { "type": "Point", "coordinates": [ -122.4493023, 37.7696002 ] } },
{ "type": "Feature", "properties": { "name": "The Green Heron", "barclass": "Bar", "barcode": 1 }, "geometry": { "type": "Point", "coordinates": [ -122.4487116, 37.7696815 ] } },
{ "type": "Feature", "properties": { "name": "The Gold Cane", "barclass": "Pub", "barcode": 2 }, "geometry": { "type": "Point", "coordinates": [ -122.4480112, 37.7697699 ] } },
{ "type": "Feature", "properties": { "name": "Mary's", "barclass": "Pub", "barcode": 2 }, "geometry": { "type": "Point", "coordinates": [ -122.4460642, 37.7700421 ] } },
{ "type": "Feature", "properties": { "name": "The Mad Dog in the Fog", "barclass": "Pub", "barcode": 2 }, "geometry": { "type": "Point", "coordinates": [ -122.448141864105025, 37.7701937 ] } },
{ "type": "Feature", "properties": { "name": "Magnolia SF", "barclass": "Pub", "barcode": 2 }, "geometry": { "type": "Point", "coordinates": [ -122.4451944, 37.7703394 ] } },
{ "type": "Feature", "properties": { "name": "Vinorosso Enoteca", "barclass": "Bar", "barcode": 1 }, "geometry": { "type": "Point", "coordinates": [ -122.4153708, 37.7390486 ] } },
{ "type": "Feature", "properties": { "name": "El Trebol #2", "barclass": "Bar", "barcode": 1 }, "geometry": { "type": "Point", "coordinates": [ -122.4137221, 37.7526405 ] } },
{ "type": "Feature", "properties": { "name": "Ruth’s at Treat Street", "barclass": "Bar", "barcode": 1 }, "geometry": { "type": "Point", "coordinates": [ -122.4131711, 37.7526938 ] } },
{ "type": "Feature", "properties": { "name": "Shotwell's", "barclass": "Pub", "barcode": 2 }, "geometry": { "type": "Point", "coordinates": [ -122.4156655, 37.7587423 ] } },
{ "type": "Feature", "properties": { "name": "Trick Dog", "barclass": "Bar", "barcode": 1 }, "geometry": { "type": "Point", "coordinates": [ -122.4111877, 37.7592203 ] } },
{ "type": "Feature", "properties": { "name": "True Laurel", "barclass": "Bar", "barcode": 1 }, "geometry": { "type": "Point", "coordinates": [ -122.4114886, 37.7594967 ] } },
{ "type": "Feature", "properties": { "name": "Southern Pacific Brewing", "barclass": "Pub", "barcode": 2 }, "geometry": { "type": "Point", "coordinates": [ -122.4139896, 37.7601311 ] } },
{ "type": "Feature", "properties": { "name": "Homestead", "barclass": "Bar", "barcode": 1 }, "geometry": { "type": "Point", "coordinates": [ -122.4146785, 37.7604101 ] } },
{ "type": "Feature", "properties": { "name": null, "barclass": "Bar", "barcode": 1 }, "geometry": { "type": "Point", "coordinates": [ -122.4103873, 37.7605716 ] } },
{ "type": "Feature", "properties": { "name": "Barebottle Taproom", "barclass": "Pub", "barcode": 2 }, "geometry": { "type": "Point", "coordinates": [ -122.4091302, 37.7399113 ] } },
{ "type": "Feature", "properties": { "name": "Hop Oast", "barclass": "Bar", "barcode": 1 }, "geometry": { "type": "Point", "coordinates": [ -122.4085736, 37.748524 ] } },
{ "type": "Feature", "properties": { "name": "Pops", "barclass": "Pub", "barcode": 2 }, "geometry": { "type": "Point", "coordinates": [ -122.4083499, 37.7529503 ] } },
{ "type": "Feature", "properties": { "name": "El Chato", "barclass": "Bar", "barcode": 1 }, "geometry": { "type": "Point", "coordinates": [ -122.4094386, 37.7575118 ] } },
{ "type": "Feature", "properties": { "name": "Asiento", "barclass": "Bar", "barcode": 1 }, "geometry": { "type": "Point", "coordinates": [ -122.409452, 37.7577226 ] } },
{ "type": "Feature", "properties": { "name": "Verdi Club", "barclass": "Pub", "barcode": 2 }, "geometry": { "type": "Point", "coordinates": [ -122.4079125, 37.7632862 ] } },
{ "type": "Feature", "properties": { "name": "Mission Hill Saloon", "barclass": "Bar", "barcode": 1 }, "geometry": { "type": "Point", "coordinates": [ -122.4071599, 37.7633159 ] } },
{ "type": "Feature", "properties": { "name": "The Great Northern", "barclass": "Bar", "barcode": 1 }, "geometry": { "type": "Point", "coordinates": [ -122.4065246, 37.7676612 ] } },
{ "type": "Feature", "properties": { "name": "Wild Side West", "barclass": "Bar", "barcode": 1 }, "geometry": { "type": "Point", "coordinates": [ -122.4171535, 37.7390299 ] } },
{ "type": "Feature", "properties": { "name": "Lucky Horseshoe", "barclass": "Bar", "barcode": 1 }, "geometry": { "type": "Point", "coordinates": [ -122.416780571687696, 37.7392545 ] } },
{ "type": "Feature", "properties": { "name": "Holy Water", "barclass": "Bar", "barcode": 1 }, "geometry": { "type": "Point", "coordinates": [ -122.4182852, 37.7393085 ] } },
{ "type": "Feature", "properties": { "name": "Lucita's Nite Club", "barclass": "Nightclub", "barcode": 3 }, "geometry": { "type": "Point", "coordinates": [ -122.4202322, 37.7448156 ] } },
{ "type": "Feature", "properties": { "name": "The Knockout", "barclass": "Bar", "barcode": 1 }, "geometry": { "type": "Point", "coordinates": [ -122.4199903, 37.7451841 ] } },
{ "type": "Feature", "properties": { "name": "Fat Cat x The Mantis", "barclass": "Bar", "barcode": 1 }, "geometry": { "type": "Point", "coordinates": [ -122.4199359, 37.7452716 ] } },
{ "type": "Feature", "properties": { "name": "Royal Cuckoo", "barclass": "Bar", "barcode": 1 }, "geometry": { "type": "Point", "coordinates": [ -122.4202055, 37.7453905 ] } },
{ "type": "Feature", "properties": { "name": "Cellarmaker", "barclass": "Pub", "barcode": 2 }, "geometry": { "type": "Point", "coordinates": [ -122.4196363, 37.7457503 ] } },
{ "type": "Feature", "properties": { "name": "El Rio", "barclass": "Bar", "barcode": 1 }, "geometry": { "type": "Point", "coordinates": [ -122.4193292, 37.7467497 ] } },
{ "type": "Feature", "properties": { "name": "Mothership", "barclass": "Bar", "barcode": 1 }, "geometry": { "type": "Point", "coordinates": [ -122.4192506, 37.7468805 ] } },
{ "type": "Feature", "properties": { "name": "Roccapulco", "barclass": "Nightclub", "barcode": 3 }, "geometry": { "type": "Point", "coordinates": [ -122.419280828808894, 37.74723015 ] } },
{ "type": "Feature", "properties": { "name": "Dovre Club", "barclass": "Bar", "barcode": 1 }, "geometry": { "type": "Point", "coordinates": [ -122.4205203, 37.7489951 ] } },
{ "type": "Feature", "properties": { "name": "Evil Eye", "barclass": "Bar", "barcode": 1 }, "geometry": { "type": "Point", "coordinates": [ -122.4180938, 37.7500359 ] } },
{ "type": "Feature", "properties": { "name": "Clooney's Pub", "barclass": "Bar", "barcode": 1 }, "geometry": { "type": "Point", "coordinates": [ -122.4203499, 37.7504256 ] } },
{ "type": "Feature", "properties": { "name": "The Phone Booth", "barclass": "Bar", "barcode": 1 }, "geometry": { "type": "Point", "coordinates": [ -122.4162912, 37.7508668 ] } },
{ "type": "Feature", "properties": { "name": "Las Margaritas", "barclass": "Bar", "barcode": 1 }, "geometry": { "type": "Point", "coordinates": [ -122.4192534, 37.752297 ] } },
{ "type": "Feature", "properties": { "name": "The Napper Tandy", "barclass": "Pub", "barcode": 2 }, "geometry": { "type": "Point", "coordinates": [ -122.4164736, 37.7524748 ] } },
{ "type": "Feature", "properties": { "name": "El Farolito Bar", "barclass": "Bar", "barcode": 1 }, "geometry": { "type": "Point", "coordinates": [ -122.4183324, 37.7526946 ] } },
{ "type": "Feature", "properties": { "name": "Mission Bar", "barclass": "Pub", "barcode": 2 }, "geometry": { "type": "Point", "coordinates": [ -122.4184414, 37.7540276 ] } },
{ "type": "Feature", "properties": { "name": "Make Out Room", "barclass": "Bar", "barcode": 1 }, "geometry": { "type": "Point", "coordinates": [ -122.419366, 37.7553007 ] } },
{ "type": "Feature", "properties": { "name": "El Trebol", "barclass": "Bar", "barcode": 1 }, "geometry": { "type": "Point", "coordinates": [ -122.4175471, 37.7554153 ] } },
{ "type": "Feature", "properties": { "name": "Latin American Club", "barclass": "Bar", "barcode": 1 }, "geometry": { "type": "Point", "coordinates": [ -122.4206643, 37.7554302 ] } },
{ "type": "Feature", "properties": { "name": "Buddy", "barclass": "Bar", "barcode": 1 }, "geometry": { "type": "Point", "coordinates": [ -122.4171081, 37.7554502 ] } },
{ "type": "Feature", "properties": { "name": "Balancoire", "barclass": "Bar", "barcode": 1 }, "geometry": { "type": "Point", "coordinates": [ -122.4184756, 37.7561254 ] } },
{ "type": "Feature", "properties": { "name": "Laszlo", "barclass": "Bar", "barcode": 1 }, "geometry": { "type": "Point", "coordinates": [ -122.4190265, 37.7564579 ] } },
{ "type": "Feature", "properties": { "name": "Arcana", "barclass": "Bar", "barcode": 1 }, "geometry": { "type": "Point", "coordinates": [ -122.4190806, 37.7566653 ] } },
{ "type": "Feature", "properties": { "name": "Bar TZA", "barclass": "Bar", "barcode": 1 }, "geometry": { "type": "Point", "coordinates": [ -122.4187743, 37.7574019 ] } },
{ "type": "Feature", "properties": { "name": "Doc's Clock", "barclass": "Bar", "barcode": 1 }, "geometry": { "type": "Point", "coordinates": [ -122.4188042, 37.7583654 ] } },
{ "type": "Feature", "properties": { "name": "20 Spot", "barclass": "Bar", "barcode": 1 }, "geometry": { "type": "Point", "coordinates": [ -122.4204199, 37.7584304 ] } },
{ "type": "Feature", "properties": { "name": "Casements", "barclass": "Bar", "barcode": 1 }, "geometry": { "type": "Point", "coordinates": [ -122.4189869, 37.7594304 ] } },
{ "type": "Feature", "properties": { "name": "Teeth", "barclass": "Bar", "barcode": 1 }, "geometry": { "type": "Point", "coordinates": [ -122.41897635, 37.75986695 ] } },
{ "type": "Feature", "properties": { "name": "Bender's Bar and Grill", "barclass": "Pub", "barcode": 2 }, "geometry": { "type": "Point", "coordinates": [ -122.4171637, 37.7602344 ] } },
{ "type": "Feature", "properties": { "name": "Royal Cuckoo Market", "barclass": "Bar", "barcode": 1 }, "geometry": { "type": "Point", "coordinates": [ -122.4186233, 37.7603692 ] } },
{ "type": "Feature", "properties": { "name": "Beauty Bar", "barclass": "Bar", "barcode": 1 }, "geometry": { "type": "Point", "coordinates": [ -122.4190503, 37.7603764 ] } },
{ "type": "Feature", "properties": { "name": "The Sycamore", "barclass": "Bar", "barcode": 1 }, "geometry": { "type": "Point", "coordinates": [ -122.4196292, 37.762774 ] } },
{ "type": "Feature", "properties": { "name": "Slate", "barclass": "Nightclub", "barcode": 3 }, "geometry": { "type": "Point", "coordinates": [ -122.4181139, 37.7650253 ] } },
{ "type": "Feature", "properties": { "name": "The City Club", "barclass": "Bar", "barcode": 1 }, "geometry": { "type": "Point", "coordinates": [ -122.417997, 37.7650324 ] } },
{ "type": "Feature", "properties": { "name": "Dahlia", "barclass": "Bar", "barcode": 1 }, "geometry": { "type": "Point", "coordinates": [ -122.4198601, 37.768386 ] } },
{ "type": "Feature", "properties": { "name": "Standard Deviant", "barclass": "Pub", "barcode": 2 }, "geometry": { "type": "Point", "coordinates": [ -122.419475586356555, 37.7684711 ] } },
{ "type": "Feature", "properties": { "name": "Public Works", "barclass": "Nightclub", "barcode": 3 }, "geometry": { "type": "Point", "coordinates": [ -122.419265076608283, 37.7688931 ] } },
{ "type": "Feature", "properties": { "name": "Rite Spot Cafe", "barclass": "Bar", "barcode": 1 }, "geometry": { "type": "Point", "coordinates": [ -122.4150115, 37.7638277 ] } },
{ "type": "Feature", "properties": { "name": "Jolenes Bar", "barclass": "Bar", "barcode": 1 }, "geometry": { "type": "Point", "coordinates": [ -122.4133319, 37.765597 ] } },
{ "type": "Feature", "properties": { "name": "SF Eagle", "barclass": "Bar", "barcode": 1 }, "geometry": { "type": "Point", "coordinates": [ -122.4133375, 37.7699933 ] } },
{ "type": "Feature", "properties": { "name": "Butter", "barclass": "Bar", "barcode": 1 }, "geometry": { "type": "Point", "coordinates": [ -122.4132775, 37.7710719 ] } },
{ "type": "Feature", "properties": { "name": "DNA Lounge", "barclass": "Nightclub", "barcode": 3 }, "geometry": { "type": "Point", "coordinates": [ -122.412612570446342, 37.77108755 ] } },
{ "type": "Feature", "properties": { "name": "Bar Agricole", "barclass": "Bar", "barcode": 1 }, "geometry": { "type": "Point", "coordinates": [ -122.4130526, 37.7712823 ] } },
{ "type": "Feature", "properties": { "name": "Buzzworks", "barclass": "Bar", "barcode": 1 }, "geometry": { "type": "Point", "coordinates": [ -122.412894842261892, 37.77130135 ] } },
{ "type": "Feature", "properties": { "name": "Bergerac", "barclass": "Bar", "barcode": 1 }, "geometry": { "type": "Point", "coordinates": [ -122.413761, 37.7714013 ] } },
{ "type": "Feature", "properties": { "name": "Halcyon", "barclass": "Nightclub", "barcode": 3 }, "geometry": { "type": "Point", "coordinates": [ -122.413928400898797, 37.771445 ] } },
{ "type": "Feature", "properties": { "name": "The Budda Nightclub", "barclass": "Nightclub", "barcode": 3 }, "geometry": { "type": "Point", "coordinates": [ -122.413264771967235, 37.77151105 ] } },
{ "type": "Feature", "properties": { "name": "Calle-11", "barclass": "Nightclub", "barcode": 3 }, "geometry": { "type": "Point", "coordinates": [ -122.414020168084278, 37.7715937 ] } },
{ "type": "Feature", "properties": { "name": "Oasis", "barclass": "Nightclub", "barcode": 3 }, "geometry": { "type": "Point", "coordinates": [ -122.414435589167525, 37.7719147 ] } },
{ "type": "Feature", "properties": { "name": "Lone Star Saloon", "barclass": "Bar", "barcode": 1 }, "geometry": { "type": "Point", "coordinates": [ -122.4108479, 37.7721566 ] } },
{ "type": "Feature", "properties": { "name": "Hole In The Wall", "barclass": "Bar", "barcode": 1 }, "geometry": { "type": "Point", "coordinates": [ -122.4124752, 37.7729234 ] } },
{ "type": "Feature", "properties": { "name": "Powerhouse", "barclass": "Bar", "barcode": 1 }, "geometry": { "type": "Point", "coordinates": [ -122.4121937, 37.7731291 ] } },
{ "type": "Feature", "properties": { "name": "Azucar Lounge", "barclass": "Pub", "barcode": 2 }, "geometry": { "type": "Point", "coordinates": [ -122.411637, 37.7739747 ] } },
{ "type": "Feature", "properties": { "name": "Driftwood", "barclass": "Bar", "barcode": 1 }, "geometry": { "type": "Point", "coordinates": [ -122.4104282, 37.7745531 ] } },
{ "type": "Feature", "properties": { "name": "Enterprise Brewing Company", "barclass": "Pub", "barcode": 2 }, "geometry": { "type": "Point", "coordinates": [ -122.410704, 37.7771618 ] } },
{ "type": "Feature", "properties": { "name": "AJ's Bar", "barclass": "Bar", "barcode": 1 }, "geometry": { "type": "Point", "coordinates": [ -122.4157435, 37.7781961 ] } },
{ "type": "Feature", "properties": { "name": "Fermentation Lab", "barclass": "Pub", "barcode": 2 }, "geometry": { "type": "Point", "coordinates": [ -122.4155015, 37.7783946 ] } },
{ "type": "Feature", "properties": { "name": "The Crafty Fox", "barclass": "Pub", "barcode": 2 }, "geometry": { "type": "Point", "coordinates": [ -122.4203472, 37.7698488 ] } },
{ "type": "Feature", "properties": { "name": "Rickshaw Stop", "barclass": "Nightclub", "barcode": 3 }, "geometry": { "type": "Point", "coordinates": [ -122.420475375883228, 37.7759904 ] } },
{ "type": "Feature", "properties": { "name": "The Function", "barclass": "Bar", "barcode": 1 }, "geometry": { "type": "Point", "coordinates": [ -122.4181966, 37.7762746 ] } },
{ "type": "Feature", "properties": { "name": "Mr. Tipple's Recording Studio", "barclass": "Bar", "barcode": 1 }, "geometry": { "type": "Point", "coordinates": [ -122.418569, 37.7763736 ] } },
{ "type": "Feature", "properties": { "name": "uccello Lounge", "barclass": "Bar", "barcode": 1 }, "geometry": { "type": "Point", "coordinates": [ -122.4195624, 37.7777196 ] } },
{ "type": "Feature", "properties": { "name": "Shovels Bar", "barclass": "Pub", "barcode": 2 }, "geometry": { "type": "Point", "coordinates": [ -122.4172138, 37.7822886 ] } },
{ "type": "Feature", "properties": { "name": "Whitechapel", "barclass": "Bar", "barcode": 1 }, "geometry": { "type": "Point", "coordinates": [ -122.4188956, 37.7822987 ] } },
{ "type": "Feature", "properties": { "name": "Emperor Norton's Boozeland", "barclass": "Bar", "barcode": 1 }, "geometry": { "type": "Point", "coordinates": [ -122.4172601, 37.7826643 ] } },
{ "type": "Feature", "properties": { "name": "Secret Bar & Lounge", "barclass": "Bar", "barcode": 1 }, "geometry": { "type": "Point", "coordinates": [ -122.4191125, 37.7833726 ] } },
{ "type": "Feature", "properties": { "name": "The Nite Cap", "barclass": "Bar", "barcode": 1 }, "geometry": { "type": "Point", "coordinates": [ -122.4161155, 37.7853121 ] } },
{ "type": "Feature", "properties": { "name": "Biergarten", "barclass": "Biergarten", "barcode": 4 }, "geometry": { "type": "Point", "coordinates": [ -122.424091745356463, 37.77605515 ] } },
{ "type": "Feature", "properties": { "name": "B-Side", "barclass": "Bar", "barcode": 1 }, "geometry": { "type": "Point", "coordinates": [ -122.4216327, 37.7762192 ] } },
{ "type": "Feature", "properties": { "name": "Gambit Lounge", "barclass": "Bar", "barcode": 1 }, "geometry": { "type": "Point", "coordinates": [ -122.42589, 37.77638 ] } },
{ "type": "Feature", "properties": { "name": "Linden Room", "barclass": "Bar", "barcode": 1 }, "geometry": { "type": "Point", "coordinates": [ -122.4227507, 37.776529 ] } },
{ "type": "Feature", "properties": { "name": "Brass Tacks", "barclass": "Bar", "barcode": 1 }, "geometry": { "type": "Point", "coordinates": [ -122.4243782, 37.7768231 ] } },
{ "type": "Feature", "properties": { "name": "Anina", "barclass": "Bar", "barcode": 1 }, "geometry": { "type": "Point", "coordinates": [ -122.424297, 37.7768284 ] } },
{ "type": "Feature", "properties": { "name": "Sugar Lounge", "barclass": "Bar", "barcode": 1 }, "geometry": { "type": "Point", "coordinates": [ -122.4225489, 37.7768319 ] } },
{ "type": "Feature", "properties": { "name": "Afterwork Bar", "barclass": "Pub", "barcode": 2 }, "geometry": { "type": "Point", "coordinates": [ -122.4231714, 37.7770322 ] } },
{ "type": "Feature", "properties": { "name": "Birba", "barclass": "Bar", "barcode": 1 }, "geometry": { "type": "Point", "coordinates": [ -122.4241711, 37.7777921 ] } },
{ "type": "Feature", "properties": { "name": "Smuggler's Cove", "barclass": "Bar", "barcode": 1 }, "geometry": { "type": "Point", "coordinates": [ -122.423343, 37.7793996 ] } },
{ "type": "Feature", "properties": { "name": "Judnich's", "barclass": "Pub", "barcode": 2 }, "geometry": { "type": "Point", "coordinates": [ -122.4028439, 37.7253753 ] } },
{ "type": "Feature", "properties": { "name": "Restaurante-Pupusería Ilobasco", "barclass": "Pub", "barcode": 2 }, "geometry": { "type": "Point", "coordinates": [ -122.4039937, 37.7278009 ] } },
{ "type": "Feature", "properties": { "name": "Fat Beli Deli", "barclass": "Pub", "barcode": 2 }, "geometry": { "type": "Point", "coordinates": [ -122.404354, 37.7288873 ] } },
{ "type": "Feature", "properties": { "name": "El Toro Nightclub", "barclass": "Nightclub", "barcode": 3 }, "geometry": { "type": "Point", "coordinates": [ -122.405203638501746, 37.7306975 ] } },
{ "type": "Feature", "properties": { "name": "Sequoia Sake tasting room", "barclass": "Bar", "barcode": 1 }, "geometry": { "type": "Point", "coordinates": [ -122.4031529, 37.74044 ] } },
{ "type": "Feature", "properties": { "name": "Ruby Wine", "barclass": "Bar", "barcode": 1 }, "geometry": { "type": "Point", "coordinates": [ -122.3969617, 37.7624711 ] } },
{ "type": "Feature", "properties": { "name": "Bottom of the Hill", "barclass": "Bar", "barcode": 1 }, "geometry": { "type": "Point", "coordinates": [ -122.396411526559618, 37.7649626 ] } },
{ "type": "Feature", "properties": { "name": "San Francsco Brewing Co", "barclass": "Pub", "barcode": 2 }, "geometry": { "type": "Point", "coordinates": [ -122.399683, 37.7680641 ] } },
{ "type": "Feature", "properties": { "name": "Speakeasy Ales & Lagers", "barclass": "Bar", "barcode": 1 }, "geometry": { "type": "Point", "coordinates": [ -122.38064330273825, 37.7381406 ] } },
{ "type": "Feature", "properties": { "name": "Dogpatch Saloon", "barclass": "Bar", "barcode": 1 }, "geometry": { "type": "Point", "coordinates": [ -122.3885258, 37.7580357 ] } },
{ "type": "Feature", "properties": { "name": "Together Lounge", "barclass": "Bar", "barcode": 1 }, "geometry": { "type": "Point", "coordinates": [ -122.388527, 37.7581814 ] } },
{ "type": "Feature", "properties": { "name": "Third Rail", "barclass": "Bar", "barcode": 1 }, "geometry": { "type": "Point", "coordinates": [ -122.388354, 37.7606299 ] } },
{ "type": "Feature", "properties": { "name": "The Sea Star", "barclass": "Bar", "barcode": 1 }, "geometry": { "type": "Point", "coordinates": [ -122.3884137, 37.7607437 ] } },
{ "type": "Feature", "properties": { "name": "Blooms Saloon", "barclass": "Bar", "barcode": 1 }, "geometry": { "type": "Point", "coordinates": [ -122.3960042, 37.7627366 ] } },
{ "type": "Feature", "properties": { "name": "Ballast Point Tasting Room & Kitchen", "barclass": "Pub", "barcode": 2 }, "geometry": { "type": "Point", "coordinates": [ -122.3934451, 37.7664408 ] } },
{ "type": "Feature", "properties": { "name": "Mission Bay Wine Bar at Thrive City", "barclass": "Bar", "barcode": 1 }, "geometry": { "type": "Point", "coordinates": [ -122.3864865, 37.7684244 ] } },
{ "type": "Feature", "properties": { "name": "Harmonic Brewing", "barclass": "Pub", "barcode": 2 }, "geometry": { "type": "Point", "coordinates": [ -122.3868985, 37.7687441 ] } },
{ "type": "Feature", "properties": { "name": "F8", "barclass": "Nightclub", "barcode": 3 }, "geometry": { "type": "Point", "coordinates": [ -122.4099546, 37.7752814 ] } },
{ "type": "Feature", "properties": { "name": "Cat Club", "barclass": "Nightclub", "barcode": 3 }, "geometry": { "type": "Point", "coordinates": [ -122.4098955, 37.7753288 ] } },
{ "type": "Feature", "properties": { "name": "Decant SF", "barclass": "Bar", "barcode": 1 }, "geometry": { "type": "Point", "coordinates": [ -122.409533, 37.7756341 ] } },
{ "type": "Feature", "properties": { "name": "Raven Bar", "barclass": "Bar", "barcode": 1 }, "geometry": { "type": "Point", "coordinates": [ -122.4088971, 37.7757691 ] } },
{ "type": "Feature", "properties": { "name": "Bloodhound", "barclass": "Bar", "barcode": 1 }, "geometry": { "type": "Point", "coordinates": [ -122.4088161, 37.77581 ] } },
{ "type": "Feature", "properties": { "name": "The Stud", "barclass": "Bar", "barcode": 1 }, "geometry": { "type": "Point", "coordinates": [ -122.4083643, 37.7761653 ] } },
{ "type": "Feature", "properties": { "name": "1015 Folsom", "barclass": "Bar", "barcode": 1 }, "geometry": { "type": "Point", "coordinates": [ -122.40568296775534, 37.7780411 ] } },
{ "type": "Feature", "properties": { "name": "Custom Lounge", "barclass": "Pub", "barcode": 2 }, "geometry": { "type": "Point", "coordinates": [ -122.409904, 37.7786408 ] } },
{ "type": "Feature", "properties": { "name": "Monarch", "barclass": "Nightclub", "barcode": 3 }, "geometry": { "type": "Point", "coordinates": [ -122.408333598219571, 37.78097145 ] } },
{ "type": "Feature", "properties": { "name": "Tempest", "barclass": "Pub", "barcode": 2 }, "geometry": { "type": "Point", "coordinates": [ -122.4062574, 37.7812256 ] } },
{ "type": "Feature", "properties": { "name": "58 Social", "barclass": "Bar", "barcode": 1 }, "geometry": { "type": "Point", "coordinates": [ -122.3910462, 37.7778936 ] } },
{ "type": "Feature", "properties": { "name": "Saison Cellar & Wine Bar", "barclass": "Bar", "barcode": 1 }, "geometry": { "type": "Point", "coordinates": [ -122.393788, 37.7782501 ] } },
{ "type": "Feature", "properties": { "name": "Saison Cellar & Wine Bar: Member's Cellar", "barclass": "Bar", "barcode": 1 }, "geometry": { "type": "Point", "coordinates": [ -122.3936992, 37.7783062 ] } },
{ "type": "Feature", "properties": { "name": "Twenty Five Lusk", "barclass": "Bar", "barcode": 1 }, "geometry": { "type": "Point", "coordinates": [ -122.3943226, 37.778429 ] } },
{ "type": "Feature", "properties": { "name": "Candlestick Park Sports Bar", "barclass": "Bar", "barcode": 1 }, "geometry": { "type": "Point", "coordinates": [ -122.392018, 37.7784531 ] } },
{ "type": "Feature", "properties": { "name": "Kaiyō Rooftop", "barclass": "Bar", "barcode": 1 }, "geometry": { "type": "Point", "coordinates": [ -122.3923716, 37.7787752 ] } },
{ "type": "Feature", "properties": { "name": "Victory Hall & Parlor", "barclass": "Bar", "barcode": 1 }, "geometry": { "type": "Point", "coordinates": [ -122.3940943, 37.7789359 ] } },
{ "type": "Feature", "properties": { "name": "Bar VIA", "barclass": "Bar", "barcode": 1 }, "geometry": { "type": "Point", "coordinates": [ -122.3908206, 37.7792467 ] } },
{ "type": "Feature", "properties": { "name": "Woodbury", "barclass": "Bar", "barcode": 1 }, "geometry": { "type": "Point", "coordinates": [ -122.3930975, 37.7793221 ] } },
{ "type": "Feature", "properties": { "name": "Alchemist", "barclass": "Bar", "barcode": 1 }, "geometry": { "type": "Point", "coordinates": [ -122.3931598, 37.779374 ] } },
{ "type": "Feature", "properties": { "name": "Mars Bar & Restaurant", "barclass": "Bar", "barcode": 1 }, "geometry": { "type": "Point", "coordinates": [ -122.403243866293835, 37.7733106 ] } },
{ "type": "Feature", "properties": { "name": "?", "barclass": "Bar", "barcode": 1 }, "geometry": { "type": "Point", "coordinates": [ -122.40285, 37.775343 ] } },
{ "type": "Feature", "properties": { "name": "The Endup", "barclass": "Nightclub", "barcode": 3 }, "geometry": { "type": "Point", "coordinates": [ -122.4038409, 37.7772743 ] } },
{ "type": "Feature", "properties": { "name": "The Grand", "barclass": "Nightclub", "barcode": 3 }, "geometry": { "type": "Point", "coordinates": [ -122.397904109005694, 37.77909315 ] } },
{ "type": "Feature", "properties": { "name": "Thriller Social Club", "barclass": "Pub", "barcode": 2 }, "geometry": { "type": "Point", "coordinates": [ -122.398058143008427, 37.77922035 ] } },
{ "type": "Feature", "properties": { "name": "Hotel Utah Saloon", "barclass": "Pub", "barcode": 2 }, "geometry": { "type": "Point", "coordinates": [ -122.3981059, 37.7793831 ] } },
{ "type": "Feature", "properties": { "name": "Lava Restaurant & Lounge", "barclass": "Bar", "barcode": 1 }, "geometry": { "type": "Point", "coordinates": [ -122.3964816, 37.7806466 ] } },
{ "type": "Feature", "properties": { "name": "Buena Vida Cantina", "barclass": "Bar", "barcode": 1 }, "geometry": { "type": "Point", "coordinates": [ -122.4026799, 37.7810493 ] } },
{ "type": "Feature", "properties": { "name": "The Chieftain Irish Pub & Restaurant", "barclass": "Pub", "barcode": 2 }, "geometry": { "type": "Point", "coordinates": [ -122.4052119, 37.7814985 ] } },
{ "type": "Feature", "properties": { "name": "Wine Down", "barclass": "Bar", "barcode": 1 }, "geometry": { "type": "Point", "coordinates": [ -122.3983137, 37.7840748 ] } },
{ "type": "Feature", "properties": { "name": "Omg Club", "barclass": "Bar", "barcode": 1 }, "geometry": { "type": "Point", "coordinates": [ -122.409329234115404, 37.7817644 ] } },
{ "type": "Feature", "properties": { "name": "Mezzanine", "barclass": "Nightclub", "barcode": 3 }, "geometry": { "type": "Point", "coordinates": [ -122.408065, 37.782532 ] } },
{ "type": "Feature", "properties": { "name": "Lagom Bar", "barclass": "Bar", "barcode": 1 }, "geometry": { "type": "Point", "coordinates": [ -122.4090446, 37.782573 ] } },
{ "type": "Feature", "properties": { "name": "Punsch Bar", "barclass": "Bar", "barcode": 1 }, "geometry": { "type": "Point", "coordinates": [ -122.4092532, 37.7827313 ] } },
{ "type": "Feature", "properties": { "name": "Executive Order", "barclass": "Bar", "barcode": 1 }, "geometry": { "type": "Point", "coordinates": [ -122.4060429, 37.7832783 ] } },
{ "type": "Feature", "properties": { "name": "Union Square Sports Bar", "barclass": "Bar", "barcode": 1 }, "geometry": { "type": "Point", "coordinates": [ -122.409519, 37.7846208 ] } },
{ "type": "Feature", "properties": { "name": "Silk Road Bar", "barclass": "Bar", "barcode": 1 }, "geometry": { "type": "Point", "coordinates": [ -122.408418, 37.7855417 ] } },
{ "type": "Feature", "properties": { "name": "Johnny Foley's Irish House", "barclass": "Pub", "barcode": 2 }, "geometry": { "type": "Point", "coordinates": [ -122.408751, 37.7862372 ] } },
{ "type": "Feature", "properties": { "name": "John Foley's Dueling Piano Bar", "barclass": "Bar", "barcode": 1 }, "geometry": { "type": "Point", "coordinates": [ -122.4086732, 37.7862572 ] } },
{ "type": "Feature", "properties": { "name": "Elements Bar and Lounge", "barclass": "Bar", "barcode": 1 }, "geometry": { "type": "Point", "coordinates": [ -122.4073527, 37.7862923 ] } },
{ "type": "Feature", "properties": { "name": "SPiN SF", "barclass": "Bar", "barcode": 1 }, "geometry": { "type": "Point", "coordinates": [ -122.3992108, 37.7841938 ] } },
{ "type": "Feature", "properties": { "name": "The View Lounge", "barclass": "Bar", "barcode": 1 }, "geometry": { "type": "Point", "coordinates": [ -122.4043265, 37.7854136 ] } },
{ "type": "Feature", "properties": { "name": "Seven Square Taproom", "barclass": "Bar", "barcode": 1 }, "geometry": { "type": "Point", "coordinates": [ -122.3965903, 37.7859023 ] } },
{ "type": "Feature", "properties": { "name": "Press Club", "barclass": "Bar", "barcode": 1 }, "geometry": { "type": "Point", "coordinates": [ -122.4044428, 37.7859991 ] } },
{ "type": "Feature", "properties": { "name": "St. Regis Hotel Lobby Bar", "barclass": "Bar", "barcode": 1 }, "geometry": { "type": "Point", "coordinates": [ -122.4013648, 37.7860568 ] } },
{ "type": "Feature", "properties": { "name": "Shoji", "barclass": "Bar", "barcode": 1 }, "geometry": { "type": "Point", "coordinates": [ -122.3997471, 37.7866435 ] } },
{ "type": "Feature", "properties": { "name": "Pink Elephant", "barclass": "Bar", "barcode": 1 }, "geometry": { "type": "Point", "coordinates": [ -122.4004371, 37.7867615 ] } },
{ "type": "Feature", "properties": { "name": "Novela", "barclass": "Bar", "barcode": 1 }, "geometry": { "type": "Point", "coordinates": [ -122.4013107, 37.787049 ] } },
{ "type": "Feature", "properties": { "name": "Kona’s Street Market", "barclass": "Bar", "barcode": 1 }, "geometry": { "type": "Point", "coordinates": [ -122.4032843, 37.7870835 ] } },
{ "type": "Feature", "properties": { "name": "Southside Spirit House", "barclass": "Pub", "barcode": 2 }, "geometry": { "type": "Point", "coordinates": [ -122.397439053757296, 37.78711125 ] } },
{ "type": "Feature", "properties": { "name": "111 Minna Gallery", "barclass": "Bar", "barcode": 1 }, "geometry": { "type": "Point", "coordinates": [ -122.3993218, 37.7874657 ] } },
{ "type": "Feature", "properties": { "name": "Yerba Buena Bar", "barclass": "Pub", "barcode": 2 }, "geometry": { "type": "Point", "coordinates": [ -122.3989958, 37.787564 ] } },
{ "type": "Feature", "properties": { "name": "Natoma Cabana", "barclass": "Bar", "barcode": 1 }, "geometry": { "type": "Point", "coordinates": [ -122.3985473, 37.7875676 ] } },
{ "type": "Feature", "properties": { "name": "Local Edition", "barclass": "Bar", "barcode": 1 }, "geometry": { "type": "Point", "coordinates": [ -122.4032007, 37.7875747 ] } },
{ "type": "Feature", "properties": { "name": "Dawn Club", "barclass": "Nightclub", "barcode": 3 }, "geometry": { "type": "Point", "coordinates": [ -122.4026826, 37.7877967 ] } },
{ "type": "Feature", "properties": { "name": "Temple Night Club", "barclass": "Nightclub", "barcode": 3 }, "geometry": { "type": "Point", "coordinates": [ -122.3971767, 37.7878534 ] } },
{ "type": "Feature", "properties": { "name": "Atlas Tap Room", "barclass": "Pub", "barcode": 2 }, "geometry": { "type": "Point", "coordinates": [ -122.4001637, 37.7878983 ] } },
{ "type": "Feature", "properties": { "name": "The Lark Bar", "barclass": "Bar", "barcode": 1 }, "geometry": { "type": "Point", "coordinates": [ -122.4027988, 37.7879097 ] } },
{ "type": "Feature", "properties": { "name": "Hawthorn", "barclass": "Nightclub", "barcode": 3 }, "geometry": { "type": "Point", "coordinates": [ -122.404302124140486, 37.7880551 ] } },
{ "type": "Feature", "properties": { "name": "DaDa Bar", "barclass": "Bar", "barcode": 1 }, "geometry": { "type": "Point", "coordinates": [ -122.4002205, 37.7881751 ] } },
{ "type": "Feature", "properties": { "name": "Local Tap", "barclass": "Pub", "barcode": 2 }, "geometry": { "type": "Point", "coordinates": [ -122.394321, 37.779906 ] } },
{ "type": "Feature", "properties": { "name": "21st Amendment Brewery", "barclass": "Pub", "barcode": 2 }, "geometry": { "type": "Point", "coordinates": [ -122.3925769, 37.782448 ] } },
{ "type": "Feature", "properties": { "name": "Hi Dive", "barclass": "Pub", "barcode": 2 }, "geometry": { "type": "Point", "coordinates": [ -122.387472428705792, 37.78763045 ] } },
{ "type": "Feature", "properties": { "name": "Barebottle Brew Co.", "barclass": "Bar", "barcode": 1 }, "geometry": { "type": "Point", "coordinates": [ -122.3963606, 37.7893431 ] } },
{ "type": "Feature", "properties": { "name": "Fort Point Beer Co.", "barclass": "Bar", "barcode": 1 }, "geometry": { "type": "Point", "coordinates": [ -122.3939649, 37.7957855 ] } },
{ "type": "Feature", "properties": { "name": "House of Shields", "barclass": "Bar", "barcode": 1 }, "geometry": { "type": "Point", "coordinates": [ -122.4012873, 37.7882367 ] } },
{ "type": "Feature", "properties": { "name": "Pied Piper", "barclass": "Bar", "barcode": 1 }, "geometry": { "type": "Point", "coordinates": [ -122.4020921, 37.7883976 ] } },
{ "type": "Feature", "properties": { "name": "Madarae", "barclass": "Bar", "barcode": 1 }, "geometry": { "type": "Point", "coordinates": [ -122.398145, 37.7885478 ] } },
{ "type": "Feature", "properties": { "name": "Louie's Bar", "barclass": "Bar", "barcode": 1 }, "geometry": { "type": "Point", "coordinates": [ -122.3996758, 37.7895975 ] } },
{ "type": "Feature", "properties": { "name": "Variety Club Preview Room", "barclass": "Bar", "barcode": 1 }, "geometry": { "type": "Point", "coordinates": [ -122.4015992, 37.7896193 ] } },
{ "type": "Feature", "properties": { "name": "Sutter Station Tavern", "barclass": "Bar", "barcode": 1 }, "geometry": { "type": "Point", "coordinates": [ -122.4009729, 37.7898697 ] } },
{ "type": "Feature", "properties": { "name": "Sool Bar and Lounge", "barclass": "Bar", "barcode": 1 }, "geometry": { "type": "Point", "coordinates": [ -122.4056559, 37.7900206 ] } },
{ "type": "Feature", "properties": { "name": "Murphy's", "barclass": "Pub", "barcode": 2 }, "geometry": { "type": "Point", "coordinates": [ -122.4040639, 37.7900928 ] } },
{ "type": "Feature", "properties": { "name": "Bar Fluxus", "barclass": "Bar", "barcode": 1 }, "geometry": { "type": "Point", "coordinates": [ -122.4049416, 37.7902514 ] } },
{ "type": "Feature", "properties": { "name": "Nightingale", "barclass": "Bar", "barcode": 1 }, "geometry": { "type": "Point", "coordinates": [ -122.4041287, 37.7903654 ] } },
{ "type": "Feature", "properties": { "name": "Blackbird", "barclass": "Pub", "barcode": 2 }, "geometry": { "type": "Point", "coordinates": [ -122.429672407871664, 37.7673297 ] } },
{ "type": "Feature", "properties": { "name": "Millay", "barclass": "Bar", "barcode": 1 }, "geometry": { "type": "Point", "coordinates": [ -122.4282827, 37.7676721 ] } },
{ "type": "Feature", "properties": { "name": "Last Rites", "barclass": "Bar", "barcode": 1 }, "geometry": { "type": "Point", "coordinates": [ -122.429452, 37.7678129 ] } },
{ "type": "Feature", "properties": { "name": "Churchill", "barclass": "Pub", "barcode": 2 }, "geometry": { "type": "Point", "coordinates": [ -122.4291843, 37.7678473 ] } },
{ "type": "Feature", "properties": { "name": "Bar Part Time", "barclass": "Bar", "barcode": 1 }, "geometry": { "type": "Point", "coordinates": [ -122.424176, 37.7681534 ] } },
{ "type": "Feature", "properties": { "name": "Zeitgeist", "barclass": "Pub", "barcode": 2 }, "geometry": { "type": "Point", "coordinates": [ -122.422120118951611, 37.7700366 ] } },
{ "type": "Feature", "properties": { "name": "The Orbit Room", "barclass": "Bar", "barcode": 1 }, "geometry": { "type": "Point", "coordinates": [ -122.4252744, 37.7706731 ] } },
{ "type": "Feature", "properties": { "name": "Martuni's", "barclass": "Bar", "barcode": 1 }, "geometry": { "type": "Point", "coordinates": [ -122.4227728, 37.7721282 ] } },
{ "type": "Feature", "properties": { "name": "Underground SF", "barclass": "Nightclub", "barcode": 3 }, "geometry": { "type": "Point", "coordinates": [ -122.4293176, 37.7723529 ] } },
{ "type": "Feature", "properties": { "name": "Hôtel Biron", "barclass": "Bar", "barcode": 1 }, "geometry": { "type": "Point", "coordinates": [ -122.4218682, 37.7736071 ] } },
{ "type": "Feature", "properties": { "name": "Sunshine Coast: Hookah Fusion Bar", "barclass": "Bar", "barcode": 1 }, "geometry": { "type": "Point", "coordinates": [ -122.443983, 37.7704969 ] } },
{ "type": "Feature", "properties": { "name": "Stoa Bar", "barclass": "Pub", "barcode": 2 }, "geometry": { "type": "Point", "coordinates": [ -122.433863, 37.7715719 ] } },
{ "type": "Feature", "properties": { "name": "Danny Coyle's", "barclass": "Pub", "barcode": 2 }, "geometry": { "type": "Point", "coordinates": [ -122.4332636, 37.7718647 ] } },
{ "type": "Feature", "properties": { "name": "Noc Noc", "barclass": "Pub", "barcode": 2 }, "geometry": { "type": "Point", "coordinates": [ -122.4314192, 37.7718891 ] } },
{ "type": "Feature", "properties": { "name": "Toronado", "barclass": "Pub", "barcode": 2 }, "geometry": { "type": "Point", "coordinates": [ -122.4312219, 37.77191 ] } },
{ "type": "Feature", "properties": { "name": "Molotov's", "barclass": "Pub", "barcode": 2 }, "geometry": { "type": "Point", "coordinates": [ -122.4317624, 37.7720543 ] } },
{ "type": "Feature", "properties": { "name": "Peacock Lounge", "barclass": "Nightclub", "barcode": 3 }, "geometry": { "type": "Point", "coordinates": [ -122.4313888, 37.7721064 ] } },
{ "type": "Feature", "properties": { "name": "The Page", "barclass": "Pub", "barcode": 2 }, "geometry": { "type": "Point", "coordinates": [ -122.4370577, 37.7721197 ] } },
{ "type": "Feature", "properties": { "name": "Woods Lowside", "barclass": "Pub", "barcode": 2 }, "geometry": { "type": "Point", "coordinates": [ -122.4310153, 37.7721448 ] } },
{ "type": "Feature", "properties": { "name": "Madrone Art Bar", "barclass": "Bar", "barcode": 1 }, "geometry": { "type": "Point", "coordinates": [ -122.4374971, 37.7741994 ] } },
{ "type": "Feature", "properties": { "name": "The Kezar Pub", "barclass": "Pub", "barcode": 2 }, "geometry": { "type": "Point", "coordinates": [ -122.452964768040545, 37.7678824 ] } },
{ "type": "Feature", "properties": { "name": "Murio's Trophy Room", "barclass": "Bar", "barcode": 1 }, "geometry": { "type": "Point", "coordinates": [ -122.4522109, 37.7692181 ] } },
{ "type": "Feature", "properties": { "name": "The Alembic", "barclass": "Bar", "barcode": 1 }, "geometry": { "type": "Point", "coordinates": [ -122.451127168749991, 37.7692556 ] } },
{ "type": "Feature", "properties": { "name": "O'Reillys Pub", "barclass": "Pub", "barcode": 2 }, "geometry": { "type": "Point", "coordinates": [ -122.452615940054415, 37.7695111 ] } },
{ "type": "Feature", "properties": { "name": "Hockey Haven", "barclass": "Bar", "barcode": 1 }, "geometry": { "type": "Point", "coordinates": [ -122.497800076027005, 37.77551615 ] } },
{ "type": "Feature", "properties": { "name": "O'Keeffe's", "barclass": "Bar", "barcode": 1 }, "geometry": { "type": "Point", "coordinates": [ -122.462826, 37.7773986 ] } },
{ "type": "Feature", "properties": { "name": "The Blarney Stone", "barclass": "Bar", "barcode": 1 }, "geometry": { "type": "Point", "coordinates": [ -122.4799505, 37.7801295 ] } },
{ "type": "Feature", "properties": { "name": "Trad'r Sam", "barclass": "Bar", "barcode": 1 }, "geometry": { "type": "Point", "coordinates": [ -122.485657, 37.7802406 ] } },
{ "type": "Feature", "properties": { "name": "The Hearth", "barclass": "Bar", "barcode": 1 }, "geometry": { "type": "Point", "coordinates": [ -122.4697821, 37.780611 ] } },
{ "type": "Feature", "properties": { "name": "The Nag's Head", "barclass": "Pub", "barcode": 2 }, "geometry": { "type": "Point", "coordinates": [ -122.477013, 37.7806294 ] } },
{ "type": "Feature", "properties": { "name": "Scarlet Fox Wine Bar", "barclass": "Bar", "barcode": 1 }, "geometry": { "type": "Point", "coordinates": [ -122.4441734, 37.7742877 ] } },
{ "type": "Feature", "properties": { "name": "Fool's Errand", "barclass": "Bar", "barcode": 1 }, "geometry": { "type": "Point", "coordinates": [ -122.4380591, 37.7755565 ] } },
{ "type": "Feature", "properties": { "name": "Bistro Gambrinus", "barclass": "Pub", "barcode": 2 }, "geometry": { "type": "Point", "coordinates": [ -122.446947, 37.7756308 ] } },
{ "type": "Feature", "properties": { "name": "The Laughing Monk", "barclass": "Pub", "barcode": 2 }, "geometry": { "type": "Point", "coordinates": [ -122.4460528, 37.77574 ] } },
{ "type": "Feature", "properties": { "name": "Fly Bar & Restaurant", "barclass": "Bar", "barcode": 1 }, "geometry": { "type": "Point", "coordinates": [ -122.4379485, 37.7767623 ] } },
{ "type": "Feature", "properties": { "name": "Bar 821", "barclass": "Bar", "barcode": 1 }, "geometry": { "type": "Point", "coordinates": [ -122.4384162, 37.7771532 ] } },
{ "type": "Feature", "properties": { "name": "mini bar", "barclass": "Bar", "barcode": 1 }, "geometry": { "type": "Point", "coordinates": [ -122.4384608, 37.7773892 ] } },
{ "type": "Feature", "properties": { "name": "Family", "barclass": "Bar", "barcode": 1 }, "geometry": { "type": "Point", "coordinates": [ -122.4492858, 37.7820272 ] } },
{ "type": "Feature", "properties": { "name": "The Pig & Whistle", "barclass": "Pub", "barcode": 2 }, "geometry": { "type": "Point", "coordinates": [ -122.4491653, 37.782045 ] } },
{ "type": "Feature", "properties": { "name": "Fillmore Billiards", "barclass": "Pub", "barcode": 2 }, "geometry": { "type": "Point", "coordinates": [ -122.4326455, 37.7837256 ] } },
{ "type": "Feature", "properties": { "name": "Would You Believe? Cocktails", "barclass": "Bar", "barcode": 1 }, "geometry": { "type": "Point", "coordinates": [ -122.4695178, 37.7809733 ] } },
{ "type": "Feature", "properties": { "name": "Happy Lounge", "barclass": "Bar", "barcode": 1 }, "geometry": { "type": "Point", "coordinates": [ -122.4597222, 37.7810461 ] } },
{ "type": "Feature", "properties": { "name": "Overtime", "barclass": "Bar", "barcode": 1 }, "geometry": { "type": "Point", "coordinates": [ -122.4638605, 37.7812248 ] } },
{ "type": "Feature", "properties": { "name": "Fizzees", "barclass": "Pub", "barcode": 2 }, "geometry": { "type": "Point", "coordinates": [ -122.4620298, 37.7813147 ] } },
{ "type": "Feature", "properties": { "name": "Ireland's 32", "barclass": "Pub", "barcode": 2 }, "geometry": { "type": "Point", "coordinates": [ -122.4614374, 37.7813471 ] } },
{ "type": "Feature", "properties": { "name": "Buckshot", "barclass": "Pub", "barcode": 2 }, "geometry": { "type": "Point", "coordinates": [ -122.4607762, 37.7813625 ] } },
{ "type": "Feature", "properties": { "name": "Goemon Izakaya", "barclass": "Bar", "barcode": 1 }, "geometry": { "type": "Point", "coordinates": [ -122.4929563, 37.7815231 ] } },
{ "type": "Feature", "properties": { "name": "Lincoln Park Bar & Grill", "barclass": "Bar", "barcode": 1 }, "geometry": { "type": "Point", "coordinates": [ -122.4943464, 37.7823521 ] } },
{ "type": "Feature", "properties": { "name": "Lost Marbles", "barclass": "Bar", "barcode": 1 }, "geometry": { "type": "Point", "coordinates": [ -122.4680842, 37.7826521 ] } },
{ "type": "Feature", "properties": { "name": "The Bitter End", "barclass": "Pub", "barcode": 2 }, "geometry": { "type": "Point", "coordinates": [ -122.4640435, 37.7828409 ] } },
{ "type": "Feature", "properties": { "name": "Nari", "barclass": "Bar", "barcode": 1 }, "geometry": { "type": "Point", "coordinates": [ -122.4286408, 37.7855979 ] } },
{ "type": "Feature", "properties": { "name": "Dimples", "barclass": "Bar", "barcode": 1 }, "geometry": { "type": "Point", "coordinates": [ -122.4302408, 37.7856379 ] } },
{ "type": "Feature", "properties": { "name": "Fermentation Lab", "barclass": "Bar", "barcode": 1 }, "geometry": { "type": "Point", "coordinates": [ -122.4300336, 37.7857024 ] } },
{ "type": "Feature", "properties": { "name": "Pagoda", "barclass": "Bar", "barcode": 1 }, "geometry": { "type": "Point", "coordinates": [ -122.4299995, 37.7857142 ] } },
{ "type": "Feature", "properties": { "name": "The Regency Ballroom", "barclass": "Nightclub", "barcode": 3 }, "geometry": { "type": "Point", "coordinates": [ -122.4215762, 37.7878176 ] } },
{ "type": "Feature", "properties": { "name": "Route 101", "barclass": "Bar", "barcode": 1 }, "geometry": { "type": "Point", "coordinates": [ -122.421632, 37.7881229 ] } },
{ "type": "Feature", "properties": { "name": "Hi-Lo Club", "barclass": "Bar", "barcode": 1 }, "geometry": { "type": "Point", "coordinates": [ -122.4206855, 37.7899499 ] } },
{ "type": "Feature", "properties": { "name": "Ora Wine Bar", "barclass": "Bar", "barcode": 1 }, "geometry": { "type": "Point", "coordinates": [ -122.4209223, 37.7909836 ] } },
{ "type": "Feature", "properties": { "name": "Kozy Kar", "barclass": "Bar", "barcode": 1 }, "geometry": { "type": "Point", "coordinates": [ -122.4207198, 37.791365 ] } },
{ "type": "Feature", "properties": { "name": "Harper & Rye", "barclass": "Pub", "barcode": 2 }, "geometry": { "type": "Point", "coordinates": [ -122.421214, 37.7922403 ] } },
{ "type": "Feature", "properties": { "name": "The Social Study", "barclass": "Bar", "barcode": 1 }, "geometry": { "type": "Point", "coordinates": [ -122.4325036, 37.7841757 ] } },
{ "type": "Feature", "properties": { "name": "Club Mari's / Mogura", "barclass": "Bar", "barcode": 1 }, "geometry": { "type": "Point", "coordinates": [ -122.4321864, 37.7851137 ] } },
{ "type": "Feature", "properties": { "name": "Festa Wine & Cocktail Lounge", "barclass": "Bar", "barcode": 1 }, "geometry": { "type": "Point", "coordinates": [ -122.4316091, 37.7851784 ] } },
{ "type": "Feature", "properties": { "name": "TimeOut Tavern", "barclass": "Bar", "barcode": 1 }, "geometry": { "type": "Point", "coordinates": [ -122.4398627, 37.7860803 ] } },
{ "type": "Feature", "properties": { "name": "Harry's Bar", "barclass": "Bar", "barcode": 1 }, "geometry": { "type": "Point", "coordinates": [ -122.4335814, 37.7883367 ] } },
{ "type": "Feature", "properties": { "name": "Palmer's", "barclass": "Bar", "barcode": 1 }, "geometry": { "type": "Point", "coordinates": [ -122.4340533, 37.7906111 ] } },
{ "type": "Feature", "properties": { "name": "The Brixton", "barclass": "Bar", "barcode": 1 }, "geometry": { "type": "Point", "coordinates": [ -122.4345787, 37.7973068 ] } },
{ "type": "Feature", "properties": { "name": "Mauna Loa Cocktails", "barclass": "Bar", "barcode": 1 }, "geometry": { "type": "Point", "coordinates": [ -122.4356968, 37.7973699 ] } },
{ "type": "Feature", "properties": { "name": "Left Door", "barclass": "Bar", "barcode": 1 }, "geometry": { "type": "Point", "coordinates": [ -122.4307445, 37.7975942 ] } },
{ "type": "Feature", "properties": { "name": "Bus Stop", "barclass": "Bar", "barcode": 1 }, "geometry": { "type": "Point", "coordinates": [ -122.4307094, 37.7976041 ] } },
{ "type": "Feature", "properties": { "name": "Bar None", "barclass": "Bar", "barcode": 1 }, "geometry": { "type": "Point", "coordinates": [ -122.4319104, 37.797663 ] } },
{ "type": "Feature", "properties": { "name": "Liverpool Lil's", "barclass": "Pub", "barcode": 2 }, "geometry": { "type": "Point", "coordinates": [ -122.447037700261205, 37.79820265 ] } },
{ "type": "Feature", "properties": { "name": "The Comet Club", "barclass": "Bar", "barcode": 1 }, "geometry": { "type": "Point", "coordinates": [ -122.4358728, 37.7982107 ] } },
{ "type": "Feature", "properties": { "name": "Cellar Door", "barclass": "Pub", "barcode": 2 }, "geometry": { "type": "Point", "coordinates": [ -122.435945, 37.79842 ] } },
{ "type": "Feature", "properties": { "name": "Final final", "barclass": "Bar", "barcode": 1 }, "geometry": { "type": "Point", "coordinates": [ -122.44584, 37.7985479 ] } },
{ "type": "Feature", "properties": { "name": "Stock in Trade", "barclass": "Bar", "barcode": 1 }, "geometry": { "type": "Point", "coordinates": [ -122.4356751, 37.8000847 ] } },
{ "type": "Feature", "properties": { "name": "Nectar Wine Lounge", "barclass": "Bar", "barcode": 1 }, "geometry": { "type": "Point", "coordinates": [ -122.437654, 37.8001664 ] } },
{ "type": "Feature", "properties": { "name": "Campus - San Francisco", "barclass": "Bar", "barcode": 1 }, "geometry": { "type": "Point", "coordinates": [ -122.4402624, 37.8002095 ] } },
{ "type": "Feature", "properties": { "name": null, "barclass": "Bar", "barcode": 1 }, "geometry": { "type": "Point", "coordinates": [ -122.4413801, 37.8002782 ] } },
{ "type": "Feature", "properties": { "name": "delarosa", "barclass": "Bar", "barcode": 1 }, "geometry": { "type": "Point", "coordinates": [ -122.4390753, 37.8003603 ] } },
{ "type": "Feature", "properties": { "name": "Woods Polk Station", "barclass": "Pub", "barcode": 2 }, "geometry": { "type": "Point", "coordinates": [ -122.4222726, 37.7976947 ] } },
{ "type": "Feature", "properties": { "name": "The Brick Yard", "barclass": "Bar", "barcode": 1 }, "geometry": { "type": "Point", "coordinates": [ -122.428616274532715, 37.79781205 ] } },
{ "type": "Feature", "properties": { "name": "Tonic", "barclass": "Pub", "barcode": 2 }, "geometry": { "type": "Point", "coordinates": [ -122.4221753, 37.7986951 ] } },
{ "type": "Feature", "properties": { "name": "Black Magic Voodoo Lounge", "barclass": "Bar", "barcode": 1 }, "geometry": { "type": "Point", "coordinates": [ -122.4248369, 37.8014288 ] } },
{ "type": "Feature", "properties": { "name": "San Francisco Brewing Co.", "barclass": "Pub", "barcode": 2 }, "geometry": { "type": "Point", "coordinates": [ -122.4232131, 37.80564 ] } },
{ "type": "Feature", "properties": { "name": "Buena Vista", "barclass": "Pub", "barcode": 2 }, "geometry": { "type": "Point", "coordinates": [ -122.4207744, 37.8065169 ] } },
{ "type": "Feature", "properties": { "name": "California Wine Merchant", "barclass": "Bar", "barcode": 1 }, "geometry": { "type": "Point", "coordinates": [ -122.4382664, 37.8004562 ] } },
{ "type": "Feature", "properties": { "name": "Marina Lounge", "barclass": "Bar", "barcode": 1 }, "geometry": { "type": "Point", "coordinates": [ -122.438695693440536, 37.80072625 ] } },
{ "type": "Feature", "properties": { "name": "The Horseshoe", "barclass": "Bar", "barcode": 1 }, "geometry": { "type": "Point", "coordinates": [ -122.4369311, 37.8008439 ] } },
{ "type": "Feature", "properties": { "name": "The Interval", "barclass": "Bar", "barcode": 1 }, "geometry": { "type": "Point", "coordinates": [ -122.4321258, 37.8067715 ] } },
{ "type": "Feature", "properties": { "name": "St. Francis Yacht Club", "barclass": "Bar", "barcode": 1 }, "geometry": { "type": "Point", "coordinates": [ -122.446947, 37.8072388 ] } },
{ "type": "Feature", "properties": { "name": "Golden Gate Yacht Club", "barclass": "Bar", "barcode": 1 }, "geometry": { "type": "Point", "coordinates": [ -122.4426038, 37.8077247 ] } },
{ "type": "Feature", "properties": { "name": "Indie Darling", "barclass": "Bar", "barcode": 1 }, "geometry": { "type": "Point", "coordinates": [ -122.4105181, 37.780965 ] } },
{ "type": "Feature", "properties": { "name": "Charmaine's rooftop bar", "barclass": "Bar", "barcode": 1 }, "geometry": { "type": "Point", "coordinates": [ -122.4122888, 37.780993 ] } },
{ "type": "Feature", "properties": { "name": "The Rumpus Room", "barclass": "Bar", "barcode": 1 }, "geometry": { "type": "Point", "coordinates": [ -122.4100401, 37.7818459 ] } },
{ "type": "Feature", "properties": { "name": "Aunt Charlies Lounge", "barclass": "Bar", "barcode": 1 }, "geometry": { "type": "Point", "coordinates": [ -122.4113803, 37.7830303 ] } },
{ "type": "Feature", "properties": { "name": "Black cat", "barclass": "Bar", "barcode": 1 }, "geometry": { "type": "Point", "coordinates": [ -122.4144505, 37.7839108 ] } },
{ "type": "Feature", "properties": { "name": "Pandora Karaoke Bar", "barclass": "Bar", "barcode": 1 }, "geometry": { "type": "Point", "coordinates": [ -122.4105077, 37.7841206 ] } },
{ "type": "Feature", "properties": { "name": "SF Citadel", "barclass": "Nightclub", "barcode": 3 }, "geometry": { "type": "Point", "coordinates": [ -122.4104304, 37.7841303 ] } },
{ "type": "Feature", "properties": { "name": "Jonell's", "barclass": "Bar", "barcode": 1 }, "geometry": { "type": "Point", "coordinates": [ -122.4129205, 37.7847489 ] } },
{ "type": "Feature", "properties": { "name": "Cinnabar", "barclass": "Bar", "barcode": 1 }, "geometry": { "type": "Point", "coordinates": [ -122.4126504, 37.7847871 ] } },
{ "type": "Feature", "properties": { "name": "Cityscape Lounge", "barclass": "Bar", "barcode": 1 }, "geometry": { "type": "Point", "coordinates": [ -122.4109326, 37.7853003 ] } },
{ "type": "Feature", "properties": { "name": "Zombie Village", "barclass": "Bar", "barcode": 1 }, "geometry": { "type": "Point", "coordinates": [ -122.413076, 37.785513 ] } },
{ "type": "Feature", "properties": { "name": "The Library", "barclass": "Bar", "barcode": 1 }, "geometry": { "type": "Point", "coordinates": [ -122.4132729, 37.7858838 ] } },
{ "type": "Feature", "properties": { "name": "Bourbon and Branch", "barclass": "Bar", "barcode": 1 }, "geometry": { "type": "Point", "coordinates": [ -122.4131628, 37.785912 ] } },
{ "type": "Feature", "properties": { "name": "Jasper's", "barclass": "Bar", "barcode": 1 }, "geometry": { "type": "Point", "coordinates": [ -122.4115193, 37.786117 ] } },
{ "type": "Feature", "properties": { "name": "Pasha", "barclass": "Bar", "barcode": 1 }, "geometry": { "type": "Point", "coordinates": [ -122.414355331382438, 37.7864345 ] } },
{ "type": "Feature", "properties": { "name": "Rye", "barclass": "Bar", "barcode": 1 }, "geometry": { "type": "Point", "coordinates": [ -122.4145242, 37.7866698 ] } },
{ "type": "Feature", "properties": { "name": "Resolute", "barclass": "Bar", "barcode": 1 }, "geometry": { "type": "Point", "coordinates": [ -122.4144477, 37.7866893 ] } },
{ "type": "Feature", "properties": { "name": "Swig", "barclass": "Bar", "barcode": 1 }, "geometry": { "type": "Point", "coordinates": [ -122.4125033, 37.7867153 ] } },
{ "type": "Feature", "properties": { "name": "Bottle Club Pub", "barclass": "Pub", "barcode": 2 }, "geometry": { "type": "Point", "coordinates": [ -122.4124048, 37.7867295 ] } },
{ "type": "Feature", "properties": { "name": "The Mortimer", "barclass": "Bar", "barcode": 1 }, "geometry": { "type": "Point", "coordinates": [ -122.4124456, 37.7869597 ] } },
{ "type": "Feature", "properties": { "name": "Club Kristi", "barclass": "Bar", "barcode": 1 }, "geometry": { "type": "Point", "coordinates": [ -122.4175548, 37.7853308 ] } },
{ "type": "Feature", "properties": { "name": "Young's Kung Fu Action Theatre & Laundry", "barclass": "Bar", "barcode": 1 }, "geometry": { "type": "Point", "coordinates": [ -122.4181987, 37.7858747 ] } },
{ "type": "Feature", "properties": { "name": "Hanaro", "barclass": "Pub", "barcode": 2 }, "geometry": { "type": "Point", "coordinates": [ -122.4189262, 37.7859078 ] } },
{ "type": "Feature", "properties": { "name": "Ha-Ra", "barclass": "Pub", "barcode": 2 }, "geometry": { "type": "Point", "coordinates": [ -122.4176448, 37.7860732 ] } },
{ "type": "Feature", "properties": { "name": "The Outsider", "barclass": "Pub", "barcode": 2 }, "geometry": { "type": "Point", "coordinates": [ -122.4179928, 37.78623 ] } },
{ "type": "Feature", "properties": { "name": "Geary Club", "barclass": "Pub", "barcode": 2 }, "geometry": { "type": "Point", "coordinates": [ -122.4159328, 37.7865056 ] } },
{ "type": "Feature", "properties": { "name": "Jackalope", "barclass": "Bar", "barcode": 1 }, "geometry": { "type": "Point", "coordinates": [ -122.4197889, 37.7869651 ] } },
{ "type": "Feature", "properties": { "name": "Propagation", "barclass": "Bar", "barcode": 1 }, "geometry": { "type": "Point", "coordinates": [ -122.4164929, 37.7871545 ] } },
{ "type": "Feature", "properties": { "name": "Members Only", "barclass": "Bar", "barcode": 1 }, "geometry": { "type": "Point", "coordinates": [ -122.4181867, 37.7871752 ] } },
{ "type": "Feature", "properties": { "name": "DecoDance Bar", "barclass": "Nightclub", "barcode": 3 }, "geometry": { "type": "Point", "coordinates": [ -122.4199558, 37.7875516 ] } },
{ "type": "Feature", "properties": { "name": "Bartlett Hall", "barclass": "Bar", "barcode": 1 }, "geometry": { "type": "Point", "coordinates": [ -122.408778, 37.7864629 ] } },
{ "type": "Feature", "properties": { "name": "Clock Bar", "barclass": "Bar", "barcode": 1 }, "geometry": { "type": "Point", "coordinates": [ -122.4087185, 37.787738 ] } },
{ "type": "Feature", "properties": { "name": "ENO Wine Bar", "barclass": "Bar", "barcode": 1 }, "geometry": { "type": "Point", "coordinates": [ -122.4087576, 37.7879166 ] } },
{ "type": "Feature", "properties": { "name": "Golden Gate Tap Room", "barclass": "Pub", "barcode": 2 }, "geometry": { "type": "Point", "coordinates": [ -122.408703, 37.78893 ] } },
{ "type": "Feature", "properties": { "name": "Love + Propaganda", "barclass": "Nightclub", "barcode": 3 }, "geometry": { "type": "Point", "coordinates": [ -122.4066607, 37.788933 ] } },
{ "type": "Feature", "properties": { "name": "Starlite Room", "barclass": "Nightclub", "barcode": 3 }, "geometry": { "type": "Point", "coordinates": [ -122.4083142, 37.7889604 ] } },
{ "type": "Feature", "properties": { "name": "Obscenity Bar & Lounge", "barclass": "Bar", "barcode": 1 }, "geometry": { "type": "Point", "coordinates": [ -122.4097357, 37.789209 ] } },
{ "type": "Feature", "properties": { "name": "OneUP Lounge", "barclass": "Bar", "barcode": 1 }, "geometry": { "type": "Point", "coordinates": [ -122.4072866, 37.7892704 ] } },
{ "type": "Feature", "properties": { "name": "Pacific Cocktail Haven", "barclass": "Bar", "barcode": 1 }, "geometry": { "type": "Point", "coordinates": [ -122.4095272, 37.7893351 ] } },
{ "type": "Feature", "properties": { "name": "Last Drop Tavern", "barclass": "Pub", "barcode": 2 }, "geometry": { "type": "Point", "coordinates": [ -122.4086344, 37.7899317 ] } },
{ "type": "Feature", "properties": { "name": "The European", "barclass": "Bar", "barcode": 1 }, "geometry": { "type": "Point", "coordinates": [ -122.4114078, 37.7870831 ] } },
{ "type": "Feature", "properties": { "name": "620 Jones", "barclass": "Bar", "barcode": 1 }, "geometry": { "type": "Point", "coordinates": [ -122.4128807, 37.7870952 ] } },
{ "type": "Feature", "properties": { "name": "The Royale", "barclass": "Bar", "barcode": 1 }, "geometry": { "type": "Point", "coordinates": [ -122.415188, 37.7875509 ] } },
{ "type": "Feature", "properties": { "name": "Owl Tree", "barclass": "Bar", "barcode": 1 }, "geometry": { "type": "Point", "coordinates": [ -122.4118412, 37.7877507 ] } },
{ "type": "Feature", "properties": { "name": "Lost Cat", "barclass": "Bar", "barcode": 1 }, "geometry": { "type": "Point", "coordinates": [ -122.4113142, 37.7878201 ] } },
{ "type": "Feature", "properties": { "name": "Level III", "barclass": "Bar", "barcode": 1 }, "geometry": { "type": "Point", "coordinates": [ -122.4103007, 37.7881935 ] } },
{ "type": "Feature", "properties": { "name": "Persona", "barclass": "Bar", "barcode": 1 }, "geometry": { "type": "Point", "coordinates": [ -122.4115659, 37.7887317 ] } },
{ "type": "Feature", "properties": { "name": "Sutter Pub & Restaurant", "barclass": "Pub", "barcode": 2 }, "geometry": { "type": "Point", "coordinates": [ -122.4120659, 37.7889112 ] } },
{ "type": "Feature", "properties": { "name": "Peacekeeper", "barclass": "Bar", "barcode": 1 }, "geometry": { "type": "Point", "coordinates": [ -122.41253584845596, 37.78951015 ] } },
{ "type": "Feature", "properties": { "name": "Stookey's Club Moderne", "barclass": "Bar", "barcode": 1 }, "geometry": { "type": "Point", "coordinates": [ -122.4119492, 37.7896441 ] } },
{ "type": "Feature", "properties": { "name": "upcider", "barclass": "Pub", "barcode": 2 }, "geometry": { "type": "Point", "coordinates": [ -122.4199677, 37.7876712 ] } },
{ "type": "Feature", "properties": { "name": "R Bar", "barclass": "Bar", "barcode": 1 }, "geometry": { "type": "Point", "coordinates": [ -122.4198211, 37.7879068 ] } },
{ "type": "Feature", "properties": { "name": "Lush Lounge", "barclass": "Pub", "barcode": 2 }, "geometry": { "type": "Point", "coordinates": [ -122.420349, 37.7881395 ] } },
{ "type": "Feature", "properties": { "name": "Aces", "barclass": "Pub", "barcode": 2 }, "geometry": { "type": "Point", "coordinates": [ -122.416671, 37.7883091 ] } },
{ "type": "Feature", "properties": { "name": "McTeague's Saloon", "barclass": "Pub", "barcode": 2 }, "geometry": { "type": "Point", "coordinates": [ -122.4203937, 37.788382 ] } },
{ "type": "Feature", "properties": { "name": "El Lopo", "barclass": "Bar", "barcode": 1 }, "geometry": { "type": "Point", "coordinates": [ -122.4205448, 37.7890756 ] } },
{ "type": "Feature", "properties": { "name": "Providence", "barclass": "Nightclub", "barcode": 3 }, "geometry": { "type": "Point", "coordinates": [ -122.4206167, 37.7895078 ] } },
{ "type": "Feature", "properties": { "name": "Liquid Gold", "barclass": "Bar", "barcode": 1 }, "geometry": { "type": "Point", "coordinates": [ -122.417187, 37.7905812 ] } },
{ "type": "Feature", "properties": { "name": "ZHUZH", "barclass": "Bar", "barcode": 1 }, "geometry": { "type": "Point", "coordinates": [ -122.4198906, 37.7908156 ] } },
{ "type": "Feature", "properties": { "name": "Encore Karaoke", "barclass": "Nightclub", "barcode": 3 }, "geometry": { "type": "Point", "coordinates": [ -122.4200374, 37.7908554 ] } },
{ "type": "Feature", "properties": { "name": "The Cinch Saloon", "barclass": "Bar", "barcode": 1 }, "geometry": { "type": "Point", "coordinates": [ -122.4212524, 37.7927364 ] } },
{ "type": "Feature", "properties": { "name": "Amélie", "barclass": "Bar", "barcode": 1 }, "geometry": { "type": "Point", "coordinates": [ -122.421082, 37.7931005 ] } },
{ "type": "Feature", "properties": { "name": "Bell Tower", "barclass": "Bar", "barcode": 1 }, "geometry": { "type": "Point", "coordinates": [ -122.4212799, 37.7943038 ] } },
{ "type": "Feature", "properties": { "name": "Shanghai Kelly's", "barclass": "Pub", "barcode": 2 }, "geometry": { "type": "Point", "coordinates": [ -122.4216053, 37.7958344 ] } },
{ "type": "Feature", "properties": { "name": "Rouge Night Club", "barclass": "Nightclub", "barcode": 3 }, "geometry": { "type": "Point", "coordinates": [ -122.422028, 37.796061 ] } },
{ "type": "Feature", "properties": { "name": "The Buccaneer", "barclass": "Pub", "barcode": 2 }, "geometry": { "type": "Point", "coordinates": [ -122.422051, 37.7966476 ] } },
{ "type": "Feature", "properties": { "name": "The Royal Oak", "barclass": "Pub", "barcode": 2 }, "geometry": { "type": "Point", "coordinates": [ -122.4221958, 37.7970245 ] } },
{ "type": "Feature", "properties": { "name": "Bullitt", "barclass": "Bar", "barcode": 1 }, "geometry": { "type": "Point", "coordinates": [ -122.4221642, 37.7970951 ] } },
{ "type": "Feature", "properties": { "name": "Cresta's", "barclass": "Pub", "barcode": 2 }, "geometry": { "type": "Point", "coordinates": [ -122.4221708, 37.7971395 ] } },
{ "type": "Feature", "properties": { "name": "Green Sports Bar", "barclass": "Bar", "barcode": 1 }, "geometry": { "type": "Point", "coordinates": [ -122.4222394, 37.7975872 ] } },
{ "type": "Feature", "properties": { "name": "The Blue Room", "barclass": "Bar", "barcode": 1 }, "geometry": { "type": "Point", "coordinates": [ -122.4118742, 37.7896538 ] } },
{ "type": "Feature", "properties": { "name": "The Summer Place", "barclass": "Bar", "barcode": 1 }, "geometry": { "type": "Point", "coordinates": [ -122.4105921, 37.7898391 ] } },
{ "type": "Feature", "properties": { "name": "Key Klub", "barclass": "Bar", "barcode": 1 }, "geometry": { "type": "Point", "coordinates": [ -122.4113323, 37.7899577 ] } },
{ "type": "Feature", "properties": { "name": "Top of the Mark", "barclass": "Bar", "barcode": 1 }, "geometry": { "type": "Point", "coordinates": [ -122.4104078, 37.7916237 ] } },
{ "type": "Feature", "properties": { "name": "Kissakeko", "barclass": "Bar", "barcode": 1 }, "geometry": { "type": "Point", "coordinates": [ -122.4115205, 37.795748 ] } },
{ "type": "Feature", "properties": { "name": "Northstar Cafe", "barclass": "Pub", "barcode": 2 }, "geometry": { "type": "Point", "coordinates": [ -122.410420514071035, 37.79921925 ] } },
{ "type": "Feature", "properties": { "name": "The Boardroom", "barclass": "Pub", "barcode": 2 }, "geometry": { "type": "Point", "coordinates": [ -122.4105373, 37.7994533 ] } },
{ "type": "Feature", "properties": { "name": "Noren Izakaya", "barclass": "Pub", "barcode": 2 }, "geometry": { "type": "Point", "coordinates": [ -122.4110142, 37.800358 ] } },
{ "type": "Feature", "properties": { "name": "Bodega Wine Bar", "barclass": "Bar", "barcode": 1 }, "geometry": { "type": "Point", "coordinates": [ -122.411387, 37.8012883 ] } },
{ "type": "Feature", "properties": { "name": "La Rocca's Corner", "barclass": "Bar", "barcode": 1 }, "geometry": { "type": "Point", "coordinates": [ -122.4146113, 37.8032002 ] } },
{ "type": "Feature", "properties": { "name": "15 Romolo", "barclass": "Pub", "barcode": 2 }, "geometry": { "type": "Point", "coordinates": [ -122.4063692, 37.7982178 ] } },
{ "type": "Feature", "properties": { "name": "The Saloon", "barclass": "Bar", "barcode": 1 }, "geometry": { "type": "Point", "coordinates": [ -122.4070947, 37.7985549 ] } },
{ "type": "Feature", "properties": { "name": "Duster's", "barclass": "Pub", "barcode": 2 }, "geometry": { "type": "Point", "coordinates": [ -122.4075152, 37.7986289 ] } },
{ "type": "Feature", "properties": { "name": "Boardroom", "barclass": "Bar", "barcode": 1 }, "geometry": { "type": "Point", "coordinates": [ -122.4086539, 37.7988897 ] } },
{ "type": "Feature", "properties": { "name": "Vieni Vieni", "barclass": "Bar", "barcode": 1 }, "geometry": { "type": "Point", "coordinates": [ -122.4090381, 37.7989822 ] } },
{ "type": "Feature", "properties": { "name": "Maggie McGarrys", "barclass": "Bar", "barcode": 1 }, "geometry": { "type": "Point", "coordinates": [ -122.4074577, 37.7994205 ] } },
{ "type": "Feature", "properties": { "name": "Chief Sullivan's", "barclass": "Pub", "barcode": 2 }, "geometry": { "type": "Point", "coordinates": [ -122.4097428, 37.7995354 ] } },
{ "type": "Feature", "properties": { "name": "Grant and Green", "barclass": "Pub", "barcode": 2 }, "geometry": { "type": "Point", "coordinates": [ -122.4074738, 37.7995962 ] } },
{ "type": "Feature", "properties": { "name": "Columbus Cafe", "barclass": "Bar", "barcode": 1 }, "geometry": { "type": "Point", "coordinates": [ -122.4084174, 37.7997072 ] } },
{ "type": "Feature", "properties": { "name": "Gino and Carlo", "barclass": "Pub", "barcode": 2 }, "geometry": { "type": "Point", "coordinates": [ -122.4081417, 37.799719 ] } },
{ "type": "Feature", "properties": { "name": "The Hyde Out", "barclass": "Pub", "barcode": 2 }, "geometry": { "type": "Point", "coordinates": [ -122.4172479, 37.7908937 ] } },
{ "type": "Feature", "properties": { "name": "Zeki's Bar", "barclass": "Bar", "barcode": 1 }, "geometry": { "type": "Point", "coordinates": [ -122.4161898, 37.7910182 ] } },
{ "type": "Feature", "properties": { "name": "Wreck Room", "barclass": "Bar", "barcode": 1 }, "geometry": { "type": "Point", "coordinates": [ -122.4171865, 37.7911616 ] } },
{ "type": "Feature", "properties": { "name": "Cafe Muse", "barclass": "Bar", "barcode": 1 }, "geometry": { "type": "Point", "coordinates": [ -122.4184582, 37.7955278 ] } },
{ "type": "Feature", "properties": { "name": "Brick & Beam", "barclass": "Bar", "barcode": 1 }, "geometry": { "type": "Point", "coordinates": [ -122.416428137142873, 37.8060764 ] } },
{ "type": "Feature", "properties": { "name": "Winery Collective", "barclass": "Bar", "barcode": 1 }, "geometry": { "type": "Point", "coordinates": [ -122.4203304, 37.8075245 ] } },
{ "type": "Feature", "properties": { "name": "Convivium Enoteca", "barclass": "Bar", "barcode": 1 }, "geometry": { "type": "Point", "coordinates": [ -122.4077954, 37.7997661 ] } },
{ "type": "Feature", "properties": { "name": "Otherwise Brewing", "barclass": "Pub", "barcode": 2 }, "geometry": { "type": "Point", "coordinates": [ -122.4073409, 37.7998739 ] } },
{ "type": "Feature", "properties": { "name": "Tony Nik's Cafe", "barclass": "Bar", "barcode": 1 }, "geometry": { "type": "Point", "coordinates": [ -122.408984, 37.8000247 ] } },
{ "type": "Feature", "properties": { "name": "Tope", "barclass": "Bar", "barcode": 1 }, "geometry": { "type": "Point", "coordinates": [ -122.4073582, 37.8001651 ] } },
{ "type": "Feature", "properties": { "name": "Savoy Tivoli", "barclass": "Bar", "barcode": 1 }, "geometry": { "type": "Point", "coordinates": [ -122.4074183, 37.8002745 ] } },
{ "type": "Feature", "properties": { "name": "Red Jack Saloon", "barclass": "Bar", "barcode": 1 }, "geometry": { "type": "Point", "coordinates": [ -122.409847, 37.8059987 ] } },
{ "type": "Feature", "properties": { "name": "Bimbo's 365 Club", "barclass": "Nightclub", "barcode": 3 }, "geometry": { "type": "Point", "coordinates": [ -122.415645795062858, 37.80373065 ] } },
{ "type": "Feature", "properties": { "name": "International Sports Club", "barclass": "Bar", "barcode": 1 }, "geometry": { "type": "Point", "coordinates": [ -122.4151415, 37.8038977 ] } },
{ "type": "Feature", "properties": { "name": "Kennedy's Irish Pub & Curry House", "barclass": "Pub", "barcode": 2 }, "geometry": { "type": "Point", "coordinates": [ -122.4153272, 37.8041003 ] } },
{ "type": "Feature", "properties": { "name": null, "barclass": "Bar", "barcode": 1 }, "geometry": { "type": "Point", "coordinates": [ -122.4139934, 37.8083416 ] } },
{ "type": "Feature", "properties": { "name": "The Socialite", "barclass": "Bar", "barcode": 1 }, "geometry": { "type": "Point", "coordinates": [ -122.4135411, 37.8083677 ] } },
{ "type": "Feature", "properties": { "name": "Luau Lounge Tiki Bar", "barclass": "Bar", "barcode": 1 }, "geometry": { "type": "Point", "coordinates": [ -122.4103446, 37.8112453 ] } },
{ "type": "Feature", "properties": { "name": "High Treason", "barclass": "Bar", "barcode": 1 }, "geometry": { "type": "Point", "coordinates": [ -122.4641076, 37.7828417 ] } },
{ "type": "Feature", "properties": { "name": "Richmond Republic Draught House", "barclass": "Bar", "barcode": 1 }, "geometry": { "type": "Point", "coordinates": [ -122.4662352, 37.7830174 ] } },
{ "type": "Feature", "properties": { "name": "540 Club", "barclass": "Bar", "barcode": 1 }, "geometry": { "type": "Point", "coordinates": [ -122.4651657, 37.7830596 ] } },
{ "type": "Feature", "properties": { "name": "Scarlet Lounge", "barclass": "Bar", "barcode": 1 }, "geometry": { "type": "Point", "coordinates": [ -122.4638239, 37.7831179 ] } },
{ "type": "Feature", "properties": { "name": "Neck of the Woods", "barclass": "Bar", "barcode": 1 }, "geometry": { "type": "Point", "coordinates": [ -122.4637116, 37.7831255 ] } },
{ "type": "Feature", "properties": { "name": "The Plough and the Stars", "barclass": "Pub", "barcode": 2 }, "geometry": { "type": "Point", "coordinates": [ -122.4605138, 37.7832553 ] } },
{ "type": "Feature", "properties": { "name": "Irish Bank", "barclass": "Pub", "barcode": 2 }, "geometry": { "type": "Point", "coordinates": [ -122.404722, 37.7904363 ] } },
{ "type": "Feature", "properties": { "name": "Rickhouse", "barclass": "Bar", "barcode": 1 }, "geometry": { "type": "Point", "coordinates": [ -122.403818, 37.7904964 ] } },
{ "type": "Feature", "properties": { "name": "Pagan Idol", "barclass": "Bar", "barcode": 1 }, "geometry": { "type": "Point", "coordinates": [ -122.403638, 37.7907035 ] } },
{ "type": "Feature", "properties": { "name": "Sam's Tavern", "barclass": "Pub", "barcode": 2 }, "geometry": { "type": "Point", "coordinates": [ -122.4035751, 37.7909636 ] } },
{ "type": "Feature", "properties": { "name": "The Treasury", "barclass": "Bar", "barcode": 1 }, "geometry": { "type": "Point", "coordinates": [ -122.4010896, 37.7912711 ] } },
{ "type": "Feature", "properties": { "name": "The Occidental Cigar Club", "barclass": "Bar", "barcode": 1 }, "geometry": { "type": "Point", "coordinates": [ -122.4036534, 37.7916682 ] } },
{ "type": "Feature", "properties": { "name": "The Vault Garden", "barclass": "Bar", "barcode": 1 }, "geometry": { "type": "Point", "coordinates": [ -122.403564, 37.7922622 ] } },
{ "type": "Feature", "properties": { "name": "Terminus", "barclass": "Bar", "barcode": 1 }, "geometry": { "type": "Point", "coordinates": [ -122.3967216, 37.7937667 ] } },
{ "type": "Feature", "properties": { "name": "Harrington's Bar & Grill", "barclass": "Pub", "barcode": 2 }, "geometry": { "type": "Point", "coordinates": [ -122.3990871, 37.7940242 ] } },
{ "type": "Feature", "properties": { "name": "Irish Times", "barclass": "Pub", "barcode": 2 }, "geometry": { "type": "Point", "coordinates": [ -122.4015526, 37.7940403 ] } },
{ "type": "Feature", "properties": { "name": "Chelsea Place", "barclass": "Pub", "barcode": 2 }, "geometry": { "type": "Point", "coordinates": [ -122.4079122, 37.7901588 ] } },
{ "type": "Feature", "properties": { "name": "Tunnel Top", "barclass": "Pub", "barcode": 2 }, "geometry": { "type": "Point", "coordinates": [ -122.4072909, 37.7902413 ] } },
{ "type": "Feature", "properties": { "name": "Tonga Room & Hurricane Bar", "barclass": "Bar", "barcode": 1 }, "geometry": { "type": "Point", "coordinates": [ -122.410008, 37.792141 ] } },
{ "type": "Feature", "properties": { "name": "Blind Pig", "barclass": "Bar", "barcode": 1 }, "geometry": { "type": "Point", "coordinates": [ -122.4062138, 37.7925492 ] } },
{ "type": "Feature", "properties": { "name": "Moongate Lounge", "barclass": "Bar", "barcode": 1 }, "geometry": { "type": "Point", "coordinates": [ -122.4065757, 37.7936719 ] } },
{ "type": "Feature", "properties": { "name": "Buddha", "barclass": "Bar", "barcode": 1 }, "geometry": { "type": "Point", "coordinates": [ -122.4065929, 37.7952077 ] } },
{ "type": "Feature", "properties": { "name": "Li Po Cocktail Lounge", "barclass": "Bar", "barcode": 1 }, "geometry": { "type": "Point", "coordinates": [ -122.4064547, 37.7954225 ] } },
{ "type": "Feature", "properties": { "name": "Lion's Den Bar & Lounge", "barclass": "Bar", "barcode": 1 }, "geometry": { "type": "Point", "coordinates": [ -122.4062528, 37.7957379 ] } },
{ "type": "Feature", "properties": { "name": "Red's Place", "barclass": "Bar", "barcode": 1 }, "geometry": { "type": "Point", "coordinates": [ -122.4064364, 37.7961449 ] } },
{ "type": "Feature", "properties": { "name": "Mr. Bing's", "barclass": "Pub", "barcode": 2 }, "geometry": { "type": "Point", "coordinates": [ -122.4058551, 37.7971431 ] } },
{ "type": "Feature", "properties": { "name": "EZ5 Cocktails", "barclass": "Bar", "barcode": 1 }, "geometry": { "type": "Point", "coordinates": [ -122.404378, 37.794122 ] } },
{ "type": "Feature", "properties": { "name": "Royal Exchange", "barclass": "Pub", "barcode": 2 }, "geometry": { "type": "Point", "coordinates": [ -122.3991541, 37.7941594 ] } },
{ "type": "Feature", "properties": { "name": "The Barrel Room", "barclass": "Bar", "barcode": 1 }, "geometry": { "type": "Point", "coordinates": [ -122.4015076, 37.7941595 ] } },
{ "type": "Feature", "properties": { "name": "Heartwood", "barclass": "Pub", "barcode": 2 }, "geometry": { "type": "Point", "coordinates": [ -122.4020082, 37.7942741 ] } },
{ "type": "Feature", "properties": { "name": "Patriot House", "barclass": "Pub", "barcode": 2 }, "geometry": { "type": "Point", "coordinates": [ -122.3987013, 37.7950723 ] } },
{ "type": "Feature", "properties": { "name": "Sky Bar", "barclass": "Bar", "barcode": 1 }, "geometry": { "type": "Point", "coordinates": [ -122.4025399, 37.7951943 ] } },
{ "type": "Feature", "properties": { "name": "Café Prague", "barclass": "Pub", "barcode": 2 }, "geometry": { "type": "Point", "coordinates": [ -122.4009685, 37.7955107 ] } },
{ "type": "Feature", "properties": { "name": "Grasslands Bar & Lounge", "barclass": "Bar", "barcode": 1 }, "geometry": { "type": "Point", "coordinates": [ -122.4053256, 37.7963509 ] } },
{ "type": "Feature", "properties": { "name": "Kell’s", "barclass": "Bar", "barcode": 1 }, "geometry": { "type": "Point", "coordinates": [ -122.4040582, 37.7964373 ] } },
{ "type": "Feature", "properties": { "name": "Happy Billiard", "barclass": "Bar", "barcode": 1 }, "geometry": { "type": "Point", "coordinates": [ -122.4053859, 37.7966358 ] } },
{ "type": "Feature", "properties": { "name": "Comstock Saloon", "barclass": "Bar", "barcode": 1 }, "geometry": { "type": "Point", "coordinates": [ -122.4056426, 37.7969638 ] } },
{ "type": "Feature", "properties": { "name": "Cigar Bar", "barclass": "Pub", "barcode": 2 }, "geometry": { "type": "Point", "coordinates": [ -122.4034628, 37.7970564 ] } },
{ "type": "Feature", "properties": { "name": "Old Ship Saloon", "barclass": "Pub", "barcode": 2 }, "geometry": { "type": "Point", "coordinates": [ -122.4007139, 37.7977871 ] } },
{ "type": "Feature", "properties": { "name": "Bamboo Hut", "barclass": "Bar", "barcode": 1 }, "geometry": { "type": "Point", "coordinates": [ -122.405093, 37.7979485 ] } },
{ "type": "Feature", "properties": { "name": "Monroe San Francisco", "barclass": "Bar", "barcode": 1 }, "geometry": { "type": "Point", "coordinates": [ -122.4049362, 37.7979623 ] } },
{ "type": "Feature", "properties": { "name": "Score", "barclass": "Pub", "barcode": 2 }, "geometry": { "type": "Point", "coordinates": [ -122.405187, 37.798171 ] } },
{ "type": "Feature", "properties": { "name": "HolyCraft Brewery", "barclass": "Bar", "barcode": 1 }, "geometry": { "type": "Point", "coordinates": [ -122.4099995, 37.7973254 ] } },
{ "type": "Feature", "properties": { "name": "Vesuvio", "barclass": "Pub", "barcode": 2 }, "geometry": { "type": "Point", "coordinates": [ -122.406449041437639, 37.7974945 ] } },
{ "type": "Feature", "properties": { "name": "Cafe Tosca", "barclass": "Pub", "barcode": 2 }, "geometry": { "type": "Point", "coordinates": [ -122.4059615, 37.7975454 ] } },
{ "type": "Feature", "properties": { "name": "Bow Bow Cocktails", "barclass": "Bar", "barcode": 1 }, "geometry": { "type": "Point", "coordinates": [ -122.4070757, 37.7975853 ] } },
{ "type": "Feature", "properties": { "name": "Specs Bar", "barclass": "Pub", "barcode": 2 }, "geometry": { "type": "Point", "coordinates": [ -122.40599, 37.7976427 ] } },
{ "type": "Feature", "properties": { "name": "The Devil's Acre", "barclass": "Pub", "barcode": 2 }, "geometry": { "type": "Point", "coordinates": [ -122.4061685, 37.7976771 ] } },
{ "type": "Feature", "properties": { "name": "Long Weekend Havana", "barclass": "Bar", "barcode": 1 }, "geometry": { "type": "Point", "coordinates": [ -122.4062868, 37.7977824 ] } },
{ "type": "Feature", "properties": { "name": "Paname", "barclass": "Nightclub", "barcode": 3 }, "geometry": { "type": "Point", "coordinates": [ -122.4059423, 37.7978277 ] } },
{ "type": "Feature", "properties": { "name": "Paris 75", "barclass": "Bar", "barcode": 1 }, "geometry": { "type": "Point", "coordinates": [ -122.4058578, 37.7978376 ] } },
{ "type": "Feature", "properties": { "name": "Cold Drinks Bar", "barclass": "Bar", "barcode": 1 }, "geometry": { "type": "Point", "coordinates": [ -122.407759, 37.7978985 ] } },
{ "type": "Feature", "properties": { "name": "Gold Bar Distillery", "barclass": "Bar", "barcode": 1 }, "geometry": { "type": "Point", "coordinates": [ -122.3710281, 37.8168273 ] } },
{ "type": "Feature", "properties": { "name": "Woods Island Club", "barclass": "Bar", "barcode": 1 }, "geometry": { "type": "Point", "coordinates": [ -122.3708292, 37.8170938 ] } }
]
}
