{
"type": "FeatureCollection",
"name": "OPP_bars_philadelphia",
"crs": { "type": "name", "properties": { "name": "urn:ogc:def:crs:OGC:1.3:CRS84" } },
"features": [
{ "type": "Feature", "properties": { "name": "Baba Bar", "barclass": "Bar", "barcode": 1 }, "geometry": { "type": "Point", "coordinates": [ -75.243868, 39.873825 ] } },
{ "type": "Feature", "properties": { "name": "Germantown Biergarten", "barclass": "Pub", "barcode": 2 }, "geometry": { "type": "Point", "coordinates": [ -75.2434827, 39.8740193 ] } },
{ "type": "Feature", "properties": { "name": "Independence", "barclass": "Pub", "barcode": 2 }, "geometry": { "type": "Point", "coordinates": [ -75.2437422, 39.8745142 ] } },
{ "type": "Feature", "properties": { "name": "Bar Symon", "barclass": "Bar", "barcode": 1 }, "geometry": { "type": "Point", "coordinates": [ -75.23817, 39.875495 ] } },
{ "type": "Feature", "properties": { "name": "Vino Volo", "barclass": "Bar", "barcode": 1 }, "geometry": { "type": "Point", "coordinates": [ -75.239728, 39.877599 ] } },
{ "type": "Feature", "properties": { "name": "Local", "barclass": "Pub", "barcode": 2 }, "geometry": { "type": "Point", "coordinates": [ -75.2370899, 39.8805887 ] } },
{ "type": "Feature", "properties": { "name": "Oasis Gentlemen's Club", "barclass": "Nightclub", "barcode": 3 }, "geometry": { "type": "Point", "coordinates": [ -75.2229391, 39.9069459 ] } },
{ "type": "Feature", "properties": { "name": "Victory Beer Hall", "barclass": "Pub", "barcode": 2 }, "geometry": { "type": "Point", "coordinates": [ -75.169616, 39.904272 ] } },
{ "type": "Feature", "properties": { "name": "Broad Street Bullies Pub", "barclass": "Pub", "barcode": 2 }, "geometry": { "type": "Point", "coordinates": [ -75.169466, 39.904436 ] } },
{ "type": "Feature", "properties": { "name": "Chickie's and Pete's", "barclass": "Bar", "barcode": 1 }, "geometry": { "type": "Point", "coordinates": [ -75.1747709, 39.9115895 ] } },
{ "type": "Feature", "properties": { "name": "Philadium Tavern", "barclass": "Bar", "barcode": 1 }, "geometry": { "type": "Point", "coordinates": [ -75.1763937, 39.9125123 ] } },
{ "type": "Feature", "properties": { "name": "Bender City", "barclass": "Bar", "barcode": 1 }, "geometry": { "type": "Point", "coordinates": [ -75.1757793, 39.915237 ] } },
{ "type": "Feature", "properties": { "name": "The Station Bar & Grill", "barclass": "Pub", "barcode": 2 }, "geometry": { "type": "Point", "coordinates": [ -75.172582567383415, 39.92585035 ] } },
{ "type": "Feature", "properties": { "name": "Second District Brewing Company", "barclass": "Pub", "barcode": 2 }, "geometry": { "type": "Point", "coordinates": [ -75.173111, 39.9262596 ] } },
{ "type": "Feature", "properties": { "name": "Lucky 13 Pub", "barclass": "Pub", "barcode": 2 }, "geometry": { "type": "Point", "coordinates": [ -75.1670282, 39.9271482 ] } },
{ "type": "Feature", "properties": { "name": "South Philadelphia Tap Room", "barclass": "Bar", "barcode": 1 }, "geometry": { "type": "Point", "coordinates": [ -75.17145624865762, 39.92726065 ] } },
{ "type": "Feature", "properties": { "name": "Dolphin Tavern", "barclass": "Nightclub", "barcode": 3 }, "geometry": { "type": "Point", "coordinates": [ -75.167931342025298, 39.9305803 ] } },
{ "type": "Feature", "properties": { "name": "Shotz Bar & Grill", "barclass": "Bar", "barcode": 1 }, "geometry": { "type": "Point", "coordinates": [ -75.2432988, 39.9110312 ] } },
{ "type": "Feature", "properties": { "name": "Bottom's Up 215", "barclass": "Bar", "barcode": 1 }, "geometry": { "type": "Point", "coordinates": [ -75.242770468577234, 39.9124512 ] } },
{ "type": "Feature", "properties": { "name": "Rose's Tavern", "barclass": "Bar", "barcode": 1 }, "geometry": { "type": "Point", "coordinates": [ -75.243858, 39.9129958 ] } },
{ "type": "Feature", "properties": { "name": "A&K Beer Store", "barclass": "Bar", "barcode": 1 }, "geometry": { "type": "Point", "coordinates": [ -75.2361898, 39.913576 ] } },
{ "type": "Feature", "properties": { "name": "Golden Kingdom II", "barclass": "Bar", "barcode": 1 }, "geometry": { "type": "Point", "coordinates": [ -75.23893726008319, 39.9159074 ] } },
{ "type": "Feature", "properties": { "name": "Lucky Beer Deli", "barclass": "Bar", "barcode": 1 }, "geometry": { "type": "Point", "coordinates": [ -75.2331053, 39.9243723 ] } },
{ "type": "Feature", "properties": { "name": "The Hut", "barclass": "Bar", "barcode": 1 }, "geometry": { "type": "Point", "coordinates": [ -75.2385365, 39.9243932 ] } },
{ "type": "Feature", "properties": { "name": "Ford's Sports Bar", "barclass": "Bar", "barcode": 1 }, "geometry": { "type": "Point", "coordinates": [ -75.2355851, 39.9268372 ] } },
{ "type": "Feature", "properties": { "name": "Lounge 62", "barclass": "Bar", "barcode": 1 }, "geometry": { "type": "Point", "coordinates": [ -75.2307342, 39.9279196 ] } },
{ "type": "Feature", "properties": { "name": "Vanity Grand", "barclass": "Nightclub", "barcode": 3 }, "geometry": { "type": "Point", "coordinates": [ -75.2119531, 39.9170875 ] } },
{ "type": "Feature", "properties": { "name": "Purple Orchid", "barclass": "Nightclub", "barcode": 3 }, "geometry": { "type": "Point", "coordinates": [ -75.2086422, 39.91865825 ] } },
{ "type": "Feature", "properties": { "name": "Tap Room on 19th", "barclass": "Bar", "barcode": 1 }, "geometry": { "type": "Point", "coordinates": [ -75.178666853758955, 39.92160595 ] } },
{ "type": "Feature", "properties": { "name": "Brewery ARS", "barclass": "Bar", "barcode": 1 }, "geometry": { "type": "Point", "coordinates": [ -75.178889783915935, 39.92400745 ] } },
{ "type": "Feature", "properties": { "name": "Sit on It Bar", "barclass": "Bar", "barcode": 1 }, "geometry": { "type": "Point", "coordinates": [ -75.176965301359758, 39.9277396 ] } },
{ "type": "Feature", "properties": { "name": null, "barclass": "Pub", "barcode": 2 }, "geometry": { "type": "Point", "coordinates": [ -75.1906612, 39.9358034 ] } },
{ "type": "Feature", "properties": { "name": "Point Breeze Brewing", "barclass": "Bar", "barcode": 1 }, "geometry": { "type": "Point", "coordinates": [ -75.1900707, 39.9383368 ] } },
{ "type": "Feature", "properties": { "name": "Dock Street Brewery South", "barclass": "Pub", "barcode": 2 }, "geometry": { "type": "Point", "coordinates": [ -75.1783853, 39.9391563 ] } },
{ "type": "Feature", "properties": { "name": "The SideCar Bar & Grille", "barclass": "Bar", "barcode": 1 }, "geometry": { "type": "Point", "coordinates": [ -75.1794507, 39.9417727 ] } },
{ "type": "Feature", "properties": { "name": "Prime Fusion Afro Grill and Lounge", "barclass": "Pub", "barcode": 2 }, "geometry": { "type": "Point", "coordinates": [ -75.183311287620569, 39.94282615 ] } },
{ "type": "Feature", "properties": { "name": "Emily's", "barclass": "Bar", "barcode": 1 }, "geometry": { "type": "Point", "coordinates": [ -75.171807, 39.9308512 ] } },
{ "type": "Feature", "properties": { "name": "Bonnie's Capistrano Bar", "barclass": "Bar", "barcode": 1 }, "geometry": { "type": "Point", "coordinates": [ -75.165735784743319, 39.93127295 ] } },
{ "type": "Feature", "properties": { "name": "Señor Baynard's Bar & Grill", "barclass": "Bar", "barcode": 1 }, "geometry": { "type": "Point", "coordinates": [ -75.1722224, 39.9359905 ] } },
{ "type": "Feature", "properties": { "name": "American Sardine Bar", "barclass": "Pub", "barcode": 2 }, "geometry": { "type": "Point", "coordinates": [ -75.17372460090192, 39.9366279 ] } },
{ "type": "Feature", "properties": { "name": "Solar Myth", "barclass": "Bar", "barcode": 1 }, "geometry": { "type": "Point", "coordinates": [ -75.166579999150315, 39.93684185 ] } },
{ "type": "Feature", "properties": { "name": "PHS Pop Up Garden", "barclass": "Biergarten", "barcode": 4 }, "geometry": { "type": "Point", "coordinates": [ -75.166983138461546, 39.9435827 ] } },
{ "type": "Feature", "properties": { "name": "Bob and Barbara's", "barclass": "Bar", "barcode": 1 }, "geometry": { "type": "Point", "coordinates": [ -75.1674777, 39.9439702 ] } },
{ "type": "Feature", "properties": { "name": "Ten Stone", "barclass": "Pub", "barcode": 2 }, "geometry": { "type": "Point", "coordinates": [ -75.1768598, 39.9451439 ] } },
{ "type": "Feature", "properties": { "name": "Superfolie", "barclass": "Bar", "barcode": 1 }, "geometry": { "type": "Point", "coordinates": [ -75.1682565, 39.9473179 ] } },
{ "type": "Feature", "properties": { "name": "ASCII Cup XLI", "barclass": "Bar", "barcode": 1 }, "geometry": { "type": "Point", "coordinates": [ -75.166654, 39.9473201 ] } },
{ "type": "Feature", "properties": { "name": "Monk's Cafe", "barclass": "Bar", "barcode": 1 }, "geometry": { "type": "Point", "coordinates": [ -75.1680792, 39.9476934 ] } },
{ "type": "Feature", "properties": { "name": "Howl at the Moon", "barclass": "Bar", "barcode": 1 }, "geometry": { "type": "Point", "coordinates": [ -75.166533, 39.947698 ] } },
{ "type": "Feature", "properties": { "name": "Fado", "barclass": "Pub", "barcode": 2 }, "geometry": { "type": "Point", "coordinates": [ -75.1663588, 39.9483288 ] } },
{ "type": "Feature", "properties": { "name": "Misconduct Tavern", "barclass": "Bar", "barcode": 1 }, "geometry": { "type": "Point", "coordinates": [ -75.166567545838888, 39.94867835 ] } },
{ "type": "Feature", "properties": { "name": "Good Dog Bar", "barclass": "Pub", "barcode": 2 }, "geometry": { "type": "Point", "coordinates": [ -75.166320352747974, 39.94878835 ] } },
{ "type": "Feature", "properties": { "name": "Stir Lounge", "barclass": "Bar", "barcode": 1 }, "geometry": { "type": "Point", "coordinates": [ -75.16957, 39.9494658 ] } },
{ "type": "Feature", "properties": { "name": "Walnut Garden", "barclass": "Biergarten", "barcode": 4 }, "geometry": { "type": "Point", "coordinates": [ -75.16965875, 39.9497057 ] } },
{ "type": "Feature", "properties": { "name": "The Library Bar", "barclass": "Bar", "barcode": 1 }, "geometry": { "type": "Point", "coordinates": [ -75.17305, 39.949996 ] } },
{ "type": "Feature", "properties": { "name": "Bar210", "barclass": "Bar", "barcode": 1 }, "geometry": { "type": "Point", "coordinates": [ -75.1732073, 39.9500338 ] } },
{ "type": "Feature", "properties": { "name": "Oscar's Tavern", "barclass": "Bar", "barcode": 1 }, "geometry": { "type": "Point", "coordinates": [ -75.166797, 39.950351 ] } },
{ "type": "Feature", "properties": { "name": "Grace Tavern", "barclass": "Pub", "barcode": 2 }, "geometry": { "type": "Point", "coordinates": [ -75.1796802, 39.945091 ] } },
{ "type": "Feature", "properties": { "name": "Millcreek Tavern", "barclass": "Pub", "barcode": 2 }, "geometry": { "type": "Point", "coordinates": [ -75.2072941, 39.9483079 ] } },
{ "type": "Feature", "properties": { "name": "Dahlak", "barclass": "Bar", "barcode": 1 }, "geometry": { "type": "Point", "coordinates": [ -75.217301, 39.948363 ] } },
{ "type": "Feature", "properties": { "name": "Human Robot", "barclass": "Bar", "barcode": 1 }, "geometry": { "type": "Point", "coordinates": [ -75.1800806, 39.9515478 ] } },
{ "type": "Feature", "properties": { "name": "Bonner's Irish Pub", "barclass": "Bar", "barcode": 1 }, "geometry": { "type": "Point", "coordinates": [ -75.178495579363712, 39.9519827 ] } },
{ "type": "Feature", "properties": { "name": "The Post", "barclass": "Pub", "barcode": 2 }, "geometry": { "type": "Point", "coordinates": [ -75.183713, 39.952754 ] } },
{ "type": "Feature", "properties": { "name": "Local 44", "barclass": "Pub", "barcode": 2 }, "geometry": { "type": "Point", "coordinates": [ -75.2103812, 39.9528081 ] } },
{ "type": "Feature", "properties": { "name": "Smokey Joe's", "barclass": "Bar", "barcode": 1 }, "geometry": { "type": "Point", "coordinates": [ -75.202834, 39.953739 ] } },
{ "type": "Feature", "properties": { "name": "The Living Room Lounge", "barclass": "Bar", "barcode": 1 }, "geometry": { "type": "Point", "coordinates": [ -75.195791, 39.953749 ] } },
{ "type": "Feature", "properties": { "name": "Bulletin Bar", "barclass": "Bar", "barcode": 1 }, "geometry": { "type": "Point", "coordinates": [ -75.1842139, 39.9551706 ] } },
{ "type": "Feature", "properties": { "name": "Tapster", "barclass": "Pub", "barcode": 2 }, "geometry": { "type": "Point", "coordinates": [ -75.1674831, 39.9506082 ] } },
{ "type": "Feature", "properties": { "name": "The Irish Pub", "barclass": "Pub", "barcode": 2 }, "geometry": { "type": "Point", "coordinates": [ -75.1740181, 39.9506651 ] } },
{ "type": "Feature", "properties": { "name": "Raven Lounge", "barclass": "Nightclub", "barcode": 3 }, "geometry": { "type": "Point", "coordinates": [ -75.169588303916669, 39.95069955 ] } },
{ "type": "Feature", "properties": { "name": "Rec & Royal", "barclass": "Nightclub", "barcode": 3 }, "geometry": { "type": "Point", "coordinates": [ -75.1688676, 39.9507795 ] } },
{ "type": "Feature", "properties": { "name": "The Dandelion", "barclass": "Pub", "barcode": 2 }, "geometry": { "type": "Point", "coordinates": [ -75.170741368025944, 39.95101485 ] } },
{ "type": "Feature", "properties": { "name": "Cleavers", "barclass": "Bar", "barcode": 1 }, "geometry": { "type": "Point", "coordinates": [ -75.1705328, 39.9513876 ] } },
{ "type": "Feature", "properties": { "name": "Devil's Alley Bar & Grill", "barclass": "Bar", "barcode": 1 }, "geometry": { "type": "Point", "coordinates": [ -75.172231, 39.952015 ] } },
{ "type": "Feature", "properties": { "name": "Butcher Bar", "barclass": "Bar", "barcode": 1 }, "geometry": { "type": "Point", "coordinates": [ -75.174893, 39.9521242 ] } },
{ "type": "Feature", "properties": { "name": "Blue Bird Distilling - Center City Tasting Room", "barclass": "Bar", "barcode": 1 }, "geometry": { "type": "Point", "coordinates": [ -75.1682872, 39.9522461 ] } },
{ "type": "Feature", "properties": { "name": "Mix Bar & Grill", "barclass": "Bar", "barcode": 1 }, "geometry": { "type": "Point", "coordinates": [ -75.175525, 39.95242 ] } },
{ "type": "Feature", "properties": { "name": "Good Good Things", "barclass": "Bar", "barcode": 1 }, "geometry": { "type": "Point", "coordinates": [ -75.1751524, 39.953127 ] } },
{ "type": "Feature", "properties": { "name": "Good Good Things Bar", "barclass": "Bar", "barcode": 1 }, "geometry": { "type": "Point", "coordinates": [ -75.1756461, 39.9537392 ] } },
{ "type": "Feature", "properties": { "name": "Tir na nOg", "barclass": "Pub", "barcode": 2 }, "geometry": { "type": "Point", "coordinates": [ -75.1667563, 39.9544332 ] } },
{ "type": "Feature", "properties": { "name": "Con Murphy's", "barclass": "Pub", "barcode": 2 }, "geometry": { "type": "Point", "coordinates": [ -75.1680332, 39.9557024 ] } },
{ "type": "Feature", "properties": { "name": "Cherry Street Tavern", "barclass": "Pub", "barcode": 2 }, "geometry": { "type": "Point", "coordinates": [ -75.1757428261987, 39.9570171 ] } },
{ "type": "Feature", "properties": { "name": "Kite and Key", "barclass": "Pub", "barcode": 2 }, "geometry": { "type": "Point", "coordinates": [ -75.169629, 39.960396 ] } },
{ "type": "Feature", "properties": { "name": "Rodin Garden Bar", "barclass": "Bar", "barcode": 1 }, "geometry": { "type": "Point", "coordinates": [ -75.1739907, 39.9618324 ] } },
{ "type": "Feature", "properties": { "name": "St. Stephen's Green", "barclass": "Pub", "barcode": 2 }, "geometry": { "type": "Point", "coordinates": [ -75.166043800090222, 39.96468135 ] } },
{ "type": "Feature", "properties": { "name": "Green Room", "barclass": "Pub", "barcode": 2 }, "geometry": { "type": "Point", "coordinates": [ -75.170609414635635, 39.9647562 ] } },
{ "type": "Feature", "properties": { "name": "The Fairview Philly", "barclass": "Pub", "barcode": 2 }, "geometry": { "type": "Point", "coordinates": [ -75.1723916, 39.9653337 ] } },
{ "type": "Feature", "properties": { "name": "Urban Saloon", "barclass": "Bar", "barcode": 1 }, "geometry": { "type": "Point", "coordinates": [ -75.172938216382079, 39.9670625 ] } },
{ "type": "Feature", "properties": { "name": "Hilltown Tavern Fairmount", "barclass": "Pub", "barcode": 2 }, "geometry": { "type": "Point", "coordinates": [ -75.176283496818854, 39.9698013 ] } },
{ "type": "Feature", "properties": { "name": "Bok Bar", "barclass": "Bar", "barcode": 1 }, "geometry": { "type": "Point", "coordinates": [ -75.159874, 39.9254197 ] } },
{ "type": "Feature", "properties": { "name": "Vikings High School Club", "barclass": "Bar", "barcode": 1 }, "geometry": { "type": "Point", "coordinates": [ -75.1636296, 39.9268474 ] } },
{ "type": "Feature", "properties": { "name": "Watkins Drinkery", "barclass": "Bar", "barcode": 1 }, "geometry": { "type": "Point", "coordinates": [ -75.1620353, 39.9279585 ] } },
{ "type": "Feature", "properties": { "name": null, "barclass": "Bar", "barcode": 1 }, "geometry": { "type": "Point", "coordinates": [ -75.1651095, 39.9284829 ] } },
{ "type": "Feature", "properties": { "name": "The Fountain Porter", "barclass": "Bar", "barcode": 1 }, "geometry": { "type": "Point", "coordinates": [ -75.1614403, 39.9295012 ] } },
{ "type": "Feature", "properties": { "name": "Grumpy's Tavern", "barclass": "Bar", "barcode": 1 }, "geometry": { "type": "Point", "coordinates": [ -75.159643240345986, 39.92986075 ] } },
{ "type": "Feature", "properties": { "name": "Supérette", "barclass": "Bar", "barcode": 1 }, "geometry": { "type": "Point", "coordinates": [ -75.1633296, 39.9301104 ] } },
{ "type": "Feature", "properties": { "name": "Pub On Passyunk East", "barclass": "Bar", "barcode": 1 }, "geometry": { "type": "Point", "coordinates": [ -75.162065013711, 39.9307959 ] } },
{ "type": "Feature", "properties": { "name": "Triangle Tavern", "barclass": "Pub", "barcode": 2 }, "geometry": { "type": "Point", "coordinates": [ -75.1610642, 39.9322652 ] } },
{ "type": "Feature", "properties": { "name": "The Garage", "barclass": "Bar", "barcode": 1 }, "geometry": { "type": "Point", "coordinates": [ -75.158741880812414, 39.9334683 ] } },
{ "type": "Feature", "properties": { "name": "McKennas", "barclass": "Pub", "barcode": 2 }, "geometry": { "type": "Point", "coordinates": [ -75.149729, 39.9219221 ] } },
{ "type": "Feature", "properties": { "name": "Mcdaniels", "barclass": "Pub", "barcode": 2 }, "geometry": { "type": "Point", "coordinates": [ -75.1500347, 39.9219571 ] } },
{ "type": "Feature", "properties": { "name": "Lucky's Last Chance", "barclass": "Pub", "barcode": 2 }, "geometry": { "type": "Point", "coordinates": [ -75.1468188, 39.936309 ] } },
{ "type": "Feature", "properties": { "name": "Oneal's Pub", "barclass": "Pub", "barcode": 2 }, "geometry": { "type": "Point", "coordinates": [ -75.1475854, 39.9410621 ] } },
{ "type": "Feature", "properties": { "name": "Paddy Whacks", "barclass": "Pub", "barcode": 2 }, "geometry": { "type": "Point", "coordinates": [ -75.1455347, 39.9410646 ] } },
{ "type": "Feature", "properties": { "name": "Fluid Nightclub", "barclass": "Nightclub", "barcode": 3 }, "geometry": { "type": "Point", "coordinates": [ -75.1491472, 39.9411266 ] } },
{ "type": "Feature", "properties": { "name": "Val's Lesbian Bar", "barclass": "Bar", "barcode": 1 }, "geometry": { "type": "Point", "coordinates": [ -75.1475438, 39.9411836 ] } },
{ "type": "Feature", "properties": { "name": "Copabanana", "barclass": "Bar", "barcode": 1 }, "geometry": { "type": "Point", "coordinates": [ -75.1490932, 39.9415203 ] } },
{ "type": "Feature", "properties": { "name": "Marsha's South Street", "barclass": "Bar", "barcode": 1 }, "geometry": { "type": "Point", "coordinates": [ -75.1503534, 39.9416796 ] } },
{ "type": "Feature", "properties": { "name": "MilkBoy South Street", "barclass": "Bar", "barcode": 1 }, "geometry": { "type": "Point", "coordinates": [ -75.1492453, 39.9417025 ] } },
{ "type": "Feature", "properties": { "name": "Ray's Happy Birthday Bar", "barclass": "Bar", "barcode": 1 }, "geometry": { "type": "Point", "coordinates": [ -75.1584926, 39.9341118 ] } },
{ "type": "Feature", "properties": { "name": "Devil's Den", "barclass": "Bar", "barcode": 1 }, "geometry": { "type": "Point", "coordinates": [ -75.1619902, 39.9358102 ] } },
{ "type": "Feature", "properties": { "name": null, "barclass": "Bar", "barcode": 1 }, "geometry": { "type": "Point", "coordinates": [ -75.1586145, 39.9362524 ] } },
{ "type": "Feature", "properties": { "name": "Red Lounge", "barclass": "Bar", "barcode": 1 }, "geometry": { "type": "Point", "coordinates": [ -75.162188024566717, 39.9362739 ] } },
{ "type": "Feature", "properties": { "name": "The Dive Bar", "barclass": "Bar", "barcode": 1 }, "geometry": { "type": "Point", "coordinates": [ -75.154784, 39.9368866 ] } },
{ "type": "Feature", "properties": { "name": "Royal Tavern", "barclass": "Bar", "barcode": 1 }, "geometry": { "type": "Point", "coordinates": [ -75.1545533, 39.9370373 ] } },
{ "type": "Feature", "properties": { "name": "12 Steps Down", "barclass": "Bar", "barcode": 1 }, "geometry": { "type": "Point", "coordinates": [ -75.1576839, 39.9390528 ] } },
{ "type": "Feature", "properties": { "name": "The Wishing Well", "barclass": "Pub", "barcode": 2 }, "geometry": { "type": "Point", "coordinates": [ -75.1575625, 39.9398247 ] } },
{ "type": "Feature", "properties": { "name": "Dirty Franks", "barclass": "Bar", "barcode": 1 }, "geometry": { "type": "Point", "coordinates": [ -75.1627756, 39.9454134 ] } },
{ "type": "Feature", "properties": { "name": "Varga", "barclass": "Pub", "barcode": 2 }, "geometry": { "type": "Point", "coordinates": [ -75.1577445, 39.9462088 ] } },
{ "type": "Feature", "properties": { "name": "Tattooed Mom", "barclass": "Pub", "barcode": 2 }, "geometry": { "type": "Point", "coordinates": [ -75.1518877, 39.9418748 ] } },
{ "type": "Feature", "properties": { "name": null, "barclass": "Bar", "barcode": 1 }, "geometry": { "type": "Point", "coordinates": [ -75.141087092589771, 39.9444458 ] } },
{ "type": "Feature", "properties": { "name": "A Man Full of Trouble", "barclass": "Pub", "barcode": 2 }, "geometry": { "type": "Point", "coordinates": [ -75.1446058, 39.9445406 ] } },
{ "type": "Feature", "properties": { "name": "Society Commons", "barclass": "Bar", "barcode": 1 }, "geometry": { "type": "Point", "coordinates": [ -75.143478, 39.946348 ] } },
{ "type": "Feature", "properties": { "name": "The Olde Bar", "barclass": "Bar", "barcode": 1 }, "geometry": { "type": "Point", "coordinates": [ -75.1441362, 39.9468964 ] } },
{ "type": "Feature", "properties": { "name": "Buffalo Billiards", "barclass": "Bar", "barcode": 1 }, "geometry": { "type": "Point", "coordinates": [ -75.1432848, 39.9481263 ] } },
{ "type": "Feature", "properties": { "name": "Brasil's Nightclub", "barclass": "Bar", "barcode": 1 }, "geometry": { "type": "Point", "coordinates": [ -75.1430737, 39.9481789 ] } },
{ "type": "Feature", "properties": { "name": "Rotten Ralph's Pub & Eatery", "barclass": "Pub", "barcode": 2 }, "geometry": { "type": "Point", "coordinates": [ -75.1441761, 39.9484891 ] } },
{ "type": "Feature", "properties": { "name": "Khyber Pass Pub", "barclass": "Pub", "barcode": 2 }, "geometry": { "type": "Point", "coordinates": [ -75.1441547, 39.9485979 ] } },
{ "type": "Feature", "properties": { "name": "The Plough & the Stars", "barclass": "Pub", "barcode": 2 }, "geometry": { "type": "Point", "coordinates": [ -75.1438899, 39.9487307 ] } },
{ "type": "Feature", "properties": { "name": "Writer's Block Rehab", "barclass": "Bar", "barcode": 1 }, "geometry": { "type": "Point", "coordinates": [ -75.163538, 39.946328 ] } },
{ "type": "Feature", "properties": { "name": "Ubar", "barclass": "Bar", "barcode": 1 }, "geometry": { "type": "Point", "coordinates": [ -75.161535, 39.947752 ] } },
{ "type": "Feature", "properties": { "name": "Strangelove's", "barclass": "Bar", "barcode": 1 }, "geometry": { "type": "Point", "coordinates": [ -75.159232, 39.948083 ] } },
{ "type": "Feature", "properties": { "name": "Voyeur Nightclub Mayfield Social Club", "barclass": "Nightclub", "barcode": 3 }, "geometry": { "type": "Point", "coordinates": [ -75.1616858, 39.9484014 ] } },
{ "type": "Feature", "properties": { "name": "Woody's Bar", "barclass": "Bar", "barcode": 1 }, "geometry": { "type": "Point", "coordinates": [ -75.1622899, 39.9488398 ] } },
{ "type": "Feature", "properties": { "name": "Little Big Planet", "barclass": "Bar", "barcode": 1 }, "geometry": { "type": "Point", "coordinates": [ -75.1600789, 39.9489611 ] } },
{ "type": "Feature", "properties": { "name": "Fergie's Pub", "barclass": "Pub", "barcode": 2 }, "geometry": { "type": "Point", "coordinates": [ -75.161156840104923, 39.94961265 ] } },
{ "type": "Feature", "properties": { "name": "Finn McCools Ale House", "barclass": "Pub", "barcode": 2 }, "geometry": { "type": "Point", "coordinates": [ -75.16049, 39.949736 ] } },
{ "type": "Feature", "properties": { "name": "McGillin's Olde Ale House", "barclass": "Pub", "barcode": 2 }, "geometry": { "type": "Point", "coordinates": [ -75.162575435324001, 39.9502014 ] } },
{ "type": "Feature", "properties": { "name": "Brü Craft & Wurst", "barclass": "Bar", "barcode": 1 }, "geometry": { "type": "Point", "coordinates": [ -75.162522, 39.950594 ] } },
{ "type": "Feature", "properties": { "name": "U-Bahn", "barclass": "Bar", "barcode": 1 }, "geometry": { "type": "Point", "coordinates": [ -75.1625931, 39.950609 ] } },
{ "type": "Feature", "properties": { "name": "Tradesman's", "barclass": "Bar", "barcode": 1 }, "geometry": { "type": "Point", "coordinates": [ -75.1627406, 39.9506137 ] } },
{ "type": "Feature", "properties": { "name": "Barcade", "barclass": "Bar", "barcode": 1 }, "geometry": { "type": "Point", "coordinates": [ -75.162934, 39.950634 ] } },
{ "type": "Feature", "properties": { "name": "Lucky Strike", "barclass": "Bar", "barcode": 1 }, "geometry": { "type": "Point", "coordinates": [ -75.1632811, 39.9506774 ] } },
{ "type": "Feature", "properties": { "name": "Iron Hill Brewery", "barclass": "Pub", "barcode": 2 }, "geometry": { "type": "Point", "coordinates": [ -75.1595773, 39.9517161 ] } },
{ "type": "Feature", "properties": { "name": "Fieldhouse Philadelphia", "barclass": "Bar", "barcode": 1 }, "geometry": { "type": "Point", "coordinates": [ -75.1592391, 39.9529963 ] } },
{ "type": "Feature", "properties": { "name": "Tango", "barclass": "Bar", "barcode": 1 }, "geometry": { "type": "Point", "coordinates": [ -75.157219, 39.953855 ] } },
{ "type": "Feature", "properties": { "name": "KTV", "barclass": "Bar", "barcode": 1 }, "geometry": { "type": "Point", "coordinates": [ -75.1574417, 39.9538831 ] } },
{ "type": "Feature", "properties": { "name": "Bar Ly", "barclass": "Pub", "barcode": 2 }, "geometry": { "type": "Point", "coordinates": [ -75.1576212, 39.9541459 ] } },
{ "type": "Feature", "properties": { "name": "NOTO Philadelphia", "barclass": "Nightclub", "barcode": 3 }, "geometry": { "type": "Point", "coordinates": [ -75.159014571966537, 39.9580107 ] } },
{ "type": "Feature", "properties": { "name": "Brownie's Pub", "barclass": "Pub", "barcode": 2 }, "geometry": { "type": "Point", "coordinates": [ -75.1441085, 39.9488335 ] } },
{ "type": "Feature", "properties": { "name": "National Mechanics", "barclass": "Bar", "barcode": 1 }, "geometry": { "type": "Point", "coordinates": [ -75.145966, 39.9495483 ] } },
{ "type": "Feature", "properties": { "name": "Old City Beer Garden", "barclass": "Biergarten", "barcode": 4 }, "geometry": { "type": "Point", "coordinates": [ -75.14536855, 39.94973675 ] } },
{ "type": "Feature", "properties": { "name": "The Monto", "barclass": "Pub", "barcode": 2 }, "geometry": { "type": "Point", "coordinates": [ -75.144738, 39.949889 ] } },
{ "type": "Feature", "properties": { "name": "Paddy’s", "barclass": "Pub", "barcode": 2 }, "geometry": { "type": "Point", "coordinates": [ -75.1439591, 39.9537811 ] } },
{ "type": "Feature", "properties": { "name": "Cavanaugh's Riverdeck", "barclass": "Nightclub", "barcode": 3 }, "geometry": { "type": "Point", "coordinates": [ -75.13736420373148, 39.95780765 ] } },
{ "type": "Feature", "properties": { "name": "JD McGillicuddy's", "barclass": "Pub", "barcode": 2 }, "geometry": { "type": "Point", "coordinates": [ -75.150111, 39.959206 ] } },
{ "type": "Feature", "properties": { "name": "Yards Brewing Company", "barclass": "Bar", "barcode": 1 }, "geometry": { "type": "Point", "coordinates": [ -75.1472275, 39.9606439 ] } },
{ "type": "Feature", "properties": { "name": "Finnigan's Wake", "barclass": "Bar", "barcode": 1 }, "geometry": { "type": "Point", "coordinates": [ -75.1432118, 39.9610231 ] } },
{ "type": "Feature", "properties": { "name": "The 700", "barclass": "Bar", "barcode": 1 }, "geometry": { "type": "Point", "coordinates": [ -75.1413513, 39.9620485 ] } },
{ "type": "Feature", "properties": { "name": "Bourbon & Branch", "barclass": "Bar", "barcode": 1 }, "geometry": { "type": "Point", "coordinates": [ -75.1409421, 39.9620596 ] } },
{ "type": "Feature", "properties": { "name": "Craft Hall", "barclass": "Pub", "barcode": 2 }, "geometry": { "type": "Point", "coordinates": [ -75.13579, 39.9625623 ] } },
{ "type": "Feature", "properties": { "name": "The Druid's Keep", "barclass": "Bar", "barcode": 1 }, "geometry": { "type": "Point", "coordinates": [ -75.1399534, 39.9628076 ] } },
{ "type": "Feature", "properties": { "name": "North Bowl", "barclass": "Bar", "barcode": 1 }, "geometry": { "type": "Point", "coordinates": [ -75.1403339, 39.9644678 ] } },
{ "type": "Feature", "properties": { "name": "Ortlieb's Lounge", "barclass": "Bar", "barcode": 1 }, "geometry": { "type": "Point", "coordinates": [ -75.142333275610781, 39.9645128 ] } },
{ "type": "Feature", "properties": { "name": "Other Half Brewing", "barclass": "Pub", "barcode": 2 }, "geometry": { "type": "Point", "coordinates": [ -75.1356963, 39.9649456 ] } },
{ "type": "Feature", "properties": { "name": "Crabby Cafe & Sports Bar", "barclass": "Bar", "barcode": 1 }, "geometry": { "type": "Point", "coordinates": [ -75.1393076, 39.9660968 ] } },
{ "type": "Feature", "properties": { "name": "Gunner's Run", "barclass": "Bar", "barcode": 1 }, "geometry": { "type": "Point", "coordinates": [ -75.1400237, 39.9662701 ] } },
{ "type": "Feature", "properties": { "name": "Bardot", "barclass": "Bar", "barcode": 1 }, "geometry": { "type": "Point", "coordinates": [ -75.145465, 39.966431 ] } },
{ "type": "Feature", "properties": { "name": "JJ Mallons", "barclass": "Bar", "barcode": 1 }, "geometry": { "type": "Point", "coordinates": [ -75.136143078484849, 39.9686964 ] } },
{ "type": "Feature", "properties": { "name": "Ajax Hall", "barclass": "Bar", "barcode": 1 }, "geometry": { "type": "Point", "coordinates": [ -75.1349698, 39.9655211 ] } },
{ "type": "Feature", "properties": { "name": "Philadelphia Distilling", "barclass": "Bar", "barcode": 1 }, "geometry": { "type": "Point", "coordinates": [ -75.1353856, 39.9656362 ] } },
{ "type": "Feature", "properties": { "name": "Garage Fishtown", "barclass": "Bar", "barcode": 1 }, "geometry": { "type": "Point", "coordinates": [ -75.134177184320009, 39.9686442 ] } },
{ "type": "Feature", "properties": { "name": "Murph's Bar", "barclass": "Bar", "barcode": 1 }, "geometry": { "type": "Point", "coordinates": [ -75.133409764768317, 39.968945 ] } },
{ "type": "Feature", "properties": { "name": "Johnny Brenda's Tavern", "barclass": "Bar", "barcode": 1 }, "geometry": { "type": "Point", "coordinates": [ -75.1342608, 39.9690716 ] } },
{ "type": "Feature", "properties": { "name": "R&D Cocktail Bar", "barclass": "Bar", "barcode": 1 }, "geometry": { "type": "Point", "coordinates": [ -75.1345606, 39.9692397 ] } },
{ "type": "Feature", "properties": { "name": "Frankford Hall", "barclass": "Pub", "barcode": 2 }, "geometry": { "type": "Point", "coordinates": [ -75.134683, 39.969485 ] } },
{ "type": "Feature", "properties": { "name": "Green Tree Tavern", "barclass": "Bar", "barcode": 1 }, "geometry": { "type": "Point", "coordinates": [ -75.1318217, 39.9695431 ] } },
{ "type": "Feature", "properties": { "name": "Fishtown Tavern", "barclass": "Bar", "barcode": 1 }, "geometry": { "type": "Point", "coordinates": [ -75.1343011, 39.9705219 ] } },
{ "type": "Feature", "properties": { "name": "Kraftwork", "barclass": "Bar", "barcode": 1 }, "geometry": { "type": "Point", "coordinates": [ -75.127335110770218, 39.9715104 ] } },
{ "type": "Feature", "properties": { "name": "Interstate Drafthouse", "barclass": "Bar", "barcode": 1 }, "geometry": { "type": "Point", "coordinates": [ -75.128662574073715, 39.9718411 ] } },
{ "type": "Feature", "properties": { "name": "Les n Doreen's Happy Tap", "barclass": "Pub", "barcode": 2 }, "geometry": { "type": "Point", "coordinates": [ -75.1255764, 39.9737271 ] } },
{ "type": "Feature", "properties": { "name": "Evil Genius Beer Company", "barclass": "Bar", "barcode": 1 }, "geometry": { "type": "Point", "coordinates": [ -75.133873313172217, 39.9757484 ] } },
{ "type": "Feature", "properties": { "name": "Nut Hut Saloon", "barclass": "Bar", "barcode": 1 }, "geometry": { "type": "Point", "coordinates": [ -75.1304159, 39.9784621 ] } },
{ "type": "Feature", "properties": { "name": "Meetinghouse", "barclass": "Bar", "barcode": 1 }, "geometry": { "type": "Point", "coordinates": [ -75.123096, 39.980333 ] } },
{ "type": "Feature", "properties": { "name": "Bait & Switch", "barclass": "Pub", "barcode": 2 }, "geometry": { "type": "Point", "coordinates": [ -75.11359215, 39.98157205 ] } },
{ "type": "Feature", "properties": { "name": "Monkey Club", "barclass": "Bar", "barcode": 1 }, "geometry": { "type": "Point", "coordinates": [ -75.128305764510117, 39.98249995 ] } },
{ "type": "Feature", "properties": { "name": "Philadelphia Brewing Company Peacock Room Bar & Garden", "barclass": "Bar", "barcode": 1 }, "geometry": { "type": "Point", "coordinates": [ -75.127089970855437, 39.98250555 ] } },
{ "type": "Feature", "properties": { "name": "The Lost Bar", "barclass": "Bar", "barcode": 1 }, "geometry": { "type": "Point", "coordinates": [ -75.126774, 39.982512 ] } },
{ "type": "Feature", "properties": { "name": "Ponder", "barclass": "Bar", "barcode": 1 }, "geometry": { "type": "Point", "coordinates": [ -75.1260176, 39.9852353 ] } },
{ "type": "Feature", "properties": { "name": "Upland Beer & Deli", "barclass": "Bar", "barcode": 1 }, "geometry": { "type": "Point", "coordinates": [ -75.2295993, 39.9318539 ] } },
{ "type": "Feature", "properties": { "name": "60th St Pizza & Beer", "barclass": "Bar", "barcode": 1 }, "geometry": { "type": "Point", "coordinates": [ -75.2312898, 39.9336149 ] } },
{ "type": "Feature", "properties": { "name": "Pentridge Station", "barclass": "Biergarten", "barcode": 4 }, "geometry": { "type": "Point", "coordinates": [ -75.2241717, 39.9456457 ] } },
{ "type": "Feature", "properties": { "name": "Carbon Copy", "barclass": "Bar", "barcode": 1 }, "geometry": { "type": "Point", "coordinates": [ -75.222826, 39.947762 ] } },
{ "type": "Feature", "properties": { "name": "Sammy's Sports Bar", "barclass": "Pub", "barcode": 2 }, "geometry": { "type": "Point", "coordinates": [ -75.22109, 39.959261 ] } },
{ "type": "Feature", "properties": { "name": "Kitchen at Bala", "barclass": "Pub", "barcode": 2 }, "geometry": { "type": "Point", "coordinates": [ -75.228535, 40.000087 ] } },
{ "type": "Feature", "properties": { "name": "Watusi Pub", "barclass": "Pub", "barcode": 2 }, "geometry": { "type": "Point", "coordinates": [ -75.213860419517971, 39.9552909 ] } },
{ "type": "Feature", "properties": { "name": "Tempo", "barclass": "Bar", "barcode": 1 }, "geometry": { "type": "Point", "coordinates": [ -75.1942546, 39.9563923 ] } },
{ "type": "Feature", "properties": { "name": "Flynn's Bar", "barclass": "Bar", "barcode": 1 }, "geometry": { "type": "Point", "coordinates": [ -75.2024993, 39.9570682 ] } },
{ "type": "Feature", "properties": { "name": "The Black Taxi", "barclass": "Pub", "barcode": 2 }, "geometry": { "type": "Point", "coordinates": [ -75.178170415352099, 39.96878375 ] } },
{ "type": "Feature", "properties": { "name": "Rybrew", "barclass": "Pub", "barcode": 2 }, "geometry": { "type": "Point", "coordinates": [ -75.179022, 39.9738439 ] } },
{ "type": "Feature", "properties": { "name": "2637brew", "barclass": "Pub", "barcode": 2 }, "geometry": { "type": "Point", "coordinates": [ -75.1801781, 39.9742756 ] } },
{ "type": "Feature", "properties": { "name": "Human Robot Girard", "barclass": "Pub", "barcode": 2 }, "geometry": { "type": "Point", "coordinates": [ -75.1808486, 39.974352 ] } },
{ "type": "Feature", "properties": { "name": "Five Points Cocktails", "barclass": "Bar", "barcode": 1 }, "geometry": { "type": "Point", "coordinates": [ -75.215068, 40.001169 ] } },
{ "type": "Feature", "properties": { "name": "Black Squirrel", "barclass": "Bar", "barcode": 1 }, "geometry": { "type": "Point", "coordinates": [ -75.1938361, 40.0092431 ] } },
{ "type": "Feature", "properties": { "name": "The Fallser Club", "barclass": "Nightclub", "barcode": 3 }, "geometry": { "type": "Point", "coordinates": [ -75.1934065, 40.0097756 ] } },
{ "type": "Feature", "properties": { "name": "Manayunk Brewing Company", "barclass": "Pub", "barcode": 2 }, "geometry": { "type": "Point", "coordinates": [ -75.218985, 40.022561 ] } },
{ "type": "Feature", "properties": { "name": "Canalside", "barclass": "Biergarten", "barcode": 4 }, "geometry": { "type": "Point", "coordinates": [ -75.2201633, 40.0232696 ] } },
{ "type": "Feature", "properties": { "name": "PHS Pop Up Garden at Manayunk", "barclass": "Biergarten", "barcode": 4 }, "geometry": { "type": "Point", "coordinates": [ -75.219350048137443, 40.02356265 ] } },
{ "type": "Feature", "properties": { "name": "The Goat's Beard", "barclass": "Bar", "barcode": 1 }, "geometry": { "type": "Point", "coordinates": [ -75.2201655, 40.0237853 ] } },
{ "type": "Feature", "properties": { "name": "Vira Vookah Lounge", "barclass": "Bar", "barcode": 1 }, "geometry": { "type": "Point", "coordinates": [ -75.2205884, 40.0241077 ] } },
{ "type": "Feature", "properties": { "name": "The Bayou Bar and Grill", "barclass": "Bar", "barcode": 1 }, "geometry": { "type": "Point", "coordinates": [ -75.2211217, 40.0245358 ] } },
{ "type": "Feature", "properties": { "name": "Bar Jawn", "barclass": "Pub", "barcode": 2 }, "geometry": { "type": "Point", "coordinates": [ -75.2211942, 40.0245869 ] } },
{ "type": "Feature", "properties": { "name": "Best Kept Secret Lounge", "barclass": "Bar", "barcode": 1 }, "geometry": { "type": "Point", "coordinates": [ -75.2215814, 40.02475 ] } },
{ "type": "Feature", "properties": { "name": "Ryan's Pub", "barclass": "Pub", "barcode": 2 }, "geometry": { "type": "Point", "coordinates": [ -75.2219208, 40.024904 ] } },
{ "type": "Feature", "properties": { "name": "Franklin's Pub", "barclass": "Pub", "barcode": 2 }, "geometry": { "type": "Point", "coordinates": [ -75.1894219, 40.0109075 ] } },
{ "type": "Feature", "properties": { "name": "Wissahickon Brewing Company", "barclass": "Bar", "barcode": 1 }, "geometry": { "type": "Point", "coordinates": [ -75.2008481, 40.0136822 ] } },
{ "type": "Feature", "properties": { "name": "Wissahickon Bar & Bistro", "barclass": "Pub", "barcode": 2 }, "geometry": { "type": "Point", "coordinates": [ -75.2105849, 40.0170771 ] } },
{ "type": "Feature", "properties": { "name": "Dawson Street Pub", "barclass": "Pub", "barcode": 2 }, "geometry": { "type": "Point", "coordinates": [ -75.2128729, 40.018639 ] } },
{ "type": "Feature", "properties": { "name": "Loft Lounge", "barclass": "Pub", "barcode": 2 }, "geometry": { "type": "Point", "coordinates": [ -75.212444, 40.0204203 ] } },
{ "type": "Feature", "properties": { "name": "The Rook Manayunk", "barclass": "Pub", "barcode": 2 }, "geometry": { "type": "Point", "coordinates": [ -75.2159463, 40.0215874 ] } },
{ "type": "Feature", "properties": { "name": "The Brass Tap", "barclass": "Bar", "barcode": 1 }, "geometry": { "type": "Point", "coordinates": [ -75.2144618, 40.0227373 ] } },
{ "type": "Feature", "properties": { "name": "CJ & Ecks", "barclass": "Pub", "barcode": 2 }, "geometry": { "type": "Point", "coordinates": [ -75.212949, 40.025402 ] } },
{ "type": "Feature", "properties": { "name": "Scanlon's Saloon", "barclass": "Bar", "barcode": 1 }, "geometry": { "type": "Point", "coordinates": [ -75.2155316, 40.0263208 ] } },
{ "type": "Feature", "properties": { "name": "Twisted Gingers", "barclass": "Pub", "barcode": 2 }, "geometry": { "type": "Point", "coordinates": [ -75.218582, 40.0274663 ] } },
{ "type": "Feature", "properties": { "name": "Somo Lounge", "barclass": "Bar", "barcode": 1 }, "geometry": { "type": "Point", "coordinates": [ -75.2222149, 40.0250093 ] } },
{ "type": "Feature", "properties": { "name": "Pitchers Pub", "barclass": "Pub", "barcode": 2 }, "geometry": { "type": "Point", "coordinates": [ -75.223015, 40.025116 ] } },
{ "type": "Feature", "properties": { "name": "Love City Brewing", "barclass": "Bar", "barcode": 1 }, "geometry": { "type": "Point", "coordinates": [ -75.222801, 40.0252438 ] } },
{ "type": "Feature", "properties": { "name": "JD McGillicuddy's", "barclass": "Pub", "barcode": 2 }, "geometry": { "type": "Point", "coordinates": [ -75.2222128, 40.0255672 ] } },
{ "type": "Feature", "properties": { "name": "The Grape Room", "barclass": "Bar", "barcode": 1 }, "geometry": { "type": "Point", "coordinates": [ -75.2231548, 40.02569 ] } },
{ "type": "Feature", "properties": { "name": "Lucky's Last Chance", "barclass": "Pub", "barcode": 2 }, "geometry": { "type": "Point", "coordinates": [ -75.2255346, 40.0263252 ] } },
{ "type": "Feature", "properties": { "name": "United States Hotel Bar & Grill", "barclass": "Pub", "barcode": 2 }, "geometry": { "type": "Point", "coordinates": [ -75.226127, 40.026584 ] } },
{ "type": "Feature", "properties": { "name": "Cresson Inn", "barclass": "Pub", "barcode": 2 }, "geometry": { "type": "Point", "coordinates": [ -75.2249639, 40.0266594 ] } },
{ "type": "Feature", "properties": { "name": "Pop Pops 2", "barclass": "Bar", "barcode": 1 }, "geometry": { "type": "Point", "coordinates": [ -75.226332435491173, 40.04221715 ] } },
{ "type": "Feature", "properties": { "name": "Throwbaxx Bar and Grille", "barclass": "Pub", "barcode": 2 }, "geometry": { "type": "Point", "coordinates": [ -75.2264829, 40.042387 ] } },
{ "type": "Feature", "properties": { "name": "Hilltown Tavern", "barclass": "Pub", "barcode": 2 }, "geometry": { "type": "Point", "coordinates": [ -75.215824340573732, 40.0281751 ] } },
{ "type": "Feature", "properties": { "name": "Henry James Saloon", "barclass": "Bar", "barcode": 1 }, "geometry": { "type": "Point", "coordinates": [ -75.2067285, 40.0292953 ] } },
{ "type": "Feature", "properties": { "name": "Murphy's Tavern", "barclass": "Bar", "barcode": 1 }, "geometry": { "type": "Point", "coordinates": [ -75.207866, 40.0313905 ] } },
{ "type": "Feature", "properties": { "name": "Peck Miller's Bar", "barclass": "Bar", "barcode": 1 }, "geometry": { "type": "Point", "coordinates": [ -75.2157644, 40.0341133 ] } },
{ "type": "Feature", "properties": { "name": "Mt Airy Taproom", "barclass": "Pub", "barcode": 2 }, "geometry": { "type": "Point", "coordinates": [ -75.194205, 40.0539349 ] } },
{ "type": "Feature", "properties": { "name": "Bar Lizette", "barclass": "Bar", "barcode": 1 }, "geometry": { "type": "Point", "coordinates": [ -75.1907265, 40.0596137 ] } },
{ "type": "Feature", "properties": { "name": "McMenamin's Tavern", "barclass": "Pub", "barcode": 2 }, "geometry": { "type": "Point", "coordinates": [ -75.1908198, 40.0597372 ] } },
{ "type": "Feature", "properties": { "name": "Reuben's Marc", "barclass": "Pub", "barcode": 2 }, "geometry": { "type": "Point", "coordinates": [ -75.179075302870615, 40.0675723 ] } },
{ "type": "Feature", "properties": { "name": "Mermaid Inn", "barclass": "Pub", "barcode": 2 }, "geometry": { "type": "Point", "coordinates": [ -75.1967878, 40.0679481 ] } },
{ "type": "Feature", "properties": { "name": "Cider Belly", "barclass": "Bar", "barcode": 1 }, "geometry": { "type": "Point", "coordinates": [ -75.2008376, 40.0709805 ] } },
{ "type": "Feature", "properties": { "name": "Graham's Pub", "barclass": "Bar", "barcode": 1 }, "geometry": { "type": "Point", "coordinates": [ -75.2402442, 40.0692984 ] } },
{ "type": "Feature", "properties": { "name": "Chestnut Hill Brewing Company", "barclass": "Bar", "barcode": 1 }, "geometry": { "type": "Point", "coordinates": [ -75.202693, 40.074159 ] } },
{ "type": "Feature", "properties": { "name": "The Fire", "barclass": "Bar", "barcode": 1 }, "geometry": { "type": "Point", "coordinates": [ -75.1435298, 39.9698591 ] } },
{ "type": "Feature", "properties": { "name": "Kung Fu Necktie", "barclass": "Nightclub", "barcode": 3 }, "geometry": { "type": "Point", "coordinates": [ -75.1359278, 39.9702775 ] } },
{ "type": "Feature", "properties": { "name": "The El Bar", "barclass": "Bar", "barcode": 1 }, "geometry": { "type": "Point", "coordinates": [ -75.1355208582996, 39.9718117 ] } },
{ "type": "Feature", "properties": { "name": "Punch Buggy Brewing Company", "barclass": "Bar", "barcode": 1 }, "geometry": { "type": "Point", "coordinates": [ -75.139738, 39.973657 ] } },
{ "type": "Feature", "properties": { "name": "Wissahickon Brewing Co", "barclass": "Pub", "barcode": 2 }, "geometry": { "type": "Point", "coordinates": [ -75.1400343, 39.9745786 ] } },
{ "type": "Feature", "properties": { "name": "Libertad Lounge", "barclass": "Bar", "barcode": 1 }, "geometry": { "type": "Point", "coordinates": [ -75.143679, 39.9755034 ] } },
{ "type": "Feature", "properties": { "name": "Stateside Urbancraft Vodka Tasting Room", "barclass": "Bar", "barcode": 1 }, "geometry": { "type": "Point", "coordinates": [ -75.1371413, 39.9762831 ] } },
{ "type": "Feature", "properties": { "name": "Human Robot", "barclass": "Pub", "barcode": 2 }, "geometry": { "type": "Point", "coordinates": [ -75.1435522, 39.9773016 ] } },
{ "type": "Feature", "properties": { "name": "Arecibo Lounge", "barclass": "Bar", "barcode": 1 }, "geometry": { "type": "Point", "coordinates": [ -75.138797206347135, 39.9949893 ] } },
{ "type": "Feature", "properties": { "name": "Camuy's Bar", "barclass": "Bar", "barcode": 1 }, "geometry": { "type": "Point", "coordinates": [ -75.136229, 39.996201 ] } },
{ "type": "Feature", "properties": { "name": "Gaul & Co. Malt House", "barclass": "Pub", "barcode": 2 }, "geometry": { "type": "Point", "coordinates": [ -75.106545602555599, 39.9861226 ] } },
{ "type": "Feature", "properties": { "name": "The Shipyard", "barclass": "Bar", "barcode": 1 }, "geometry": { "type": "Point", "coordinates": [ -75.099441, 39.98877 ] } },
{ "type": "Feature", "properties": { "name": "La Familia", "barclass": "Bar", "barcode": 1 }, "geometry": { "type": "Point", "coordinates": [ -75.130326882352946, 39.99235615 ] } },
{ "type": "Feature", "properties": { "name": "Sacred Vice Brewing Company", "barclass": "Bar", "barcode": 1 }, "geometry": { "type": "Point", "coordinates": [ -75.1085964, 39.9928387 ] } },
{ "type": "Feature", "properties": { "name": "Marv Love's Too", "barclass": "Bar", "barcode": 1 }, "geometry": { "type": "Point", "coordinates": [ -75.134767757533595, 39.992936 ] } },
{ "type": "Feature", "properties": { "name": "El Paso Fino", "barclass": "Bar", "barcode": 1 }, "geometry": { "type": "Point", "coordinates": [ -75.121196045198673, 39.9944494 ] } },
{ "type": "Feature", "properties": { "name": "L&G Cold Beer", "barclass": "Bar", "barcode": 1 }, "geometry": { "type": "Point", "coordinates": [ -75.129765347389821, 39.9953566 ] } },
{ "type": "Feature", "properties": { "name": "Mostaza Sports Bar & Grill", "barclass": "Bar", "barcode": 1 }, "geometry": { "type": "Point", "coordinates": [ -75.1296283, 39.9975716 ] } },
{ "type": "Feature", "properties": { "name": null, "barclass": "Pub", "barcode": 2 }, "geometry": { "type": "Point", "coordinates": [ -75.1074603, 40.0056758 ] } },
{ "type": "Feature", "properties": { "name": null, "barclass": "Bar", "barcode": 1 }, "geometry": { "type": "Point", "coordinates": [ -75.1074442, 40.0057179 ] } },
{ "type": "Feature", "properties": { "name": "The Trestle Inn", "barclass": "Bar", "barcode": 1 }, "geometry": { "type": "Point", "coordinates": [ -75.15655071588057, 39.9587529 ] } },
{ "type": "Feature", "properties": { "name": "Love City Brewing", "barclass": "Bar", "barcode": 1 }, "geometry": { "type": "Point", "coordinates": [ -75.155549, 39.960296 ] } },
{ "type": "Feature", "properties": { "name": "Prohibition Taproom", "barclass": "Pub", "barcode": 2 }, "geometry": { "type": "Point", "coordinates": [ -75.1594566, 39.9607305 ] } },
{ "type": "Feature", "properties": { "name": "Triple Bottom Brewing", "barclass": "Bar", "barcode": 1 }, "geometry": { "type": "Point", "coordinates": [ -75.153393519167906, 39.9621393 ] } },
{ "type": "Feature", "properties": { "name": "Kelliann's Bar & Grill", "barclass": "Pub", "barcode": 2 }, "geometry": { "type": "Point", "coordinates": [ -75.1645107, 39.9630257 ] } },
{ "type": "Feature", "properties": { "name": "The Fairmount Tavern", "barclass": "Bar", "barcode": 1 }, "geometry": { "type": "Point", "coordinates": [ -75.165518816610728, 39.966939 ] } },
{ "type": "Feature", "properties": { "name": "Pub Webb", "barclass": "Pub", "barcode": 2 }, "geometry": { "type": "Point", "coordinates": [ -75.1605142, 39.9791463 ] } },
{ "type": "Feature", "properties": { "name": "B Bar", "barclass": "Bar", "barcode": 1 }, "geometry": { "type": "Point", "coordinates": [ -75.156406, 40.009181 ] } },
{ "type": "Feature", "properties": { "name": "Attic Brewing Company", "barclass": "Bar", "barcode": 1 }, "geometry": { "type": "Point", "coordinates": [ -75.1617102, 40.0230366 ] } },
{ "type": "Feature", "properties": { "name": "Coopers Super Bar", "barclass": "Bar", "barcode": 1 }, "geometry": { "type": "Point", "coordinates": [ -75.124535827559541, 40.02133975 ] } },
{ "type": "Feature", "properties": { "name": "JD's Lounge", "barclass": "Pub", "barcode": 2 }, "geometry": { "type": "Point", "coordinates": [ -75.1302908, 40.0363652 ] } },
{ "type": "Feature", "properties": { "name": "Leneghans Pub", "barclass": "Pub", "barcode": 2 }, "geometry": { "type": "Point", "coordinates": [ -75.0375693, 40.0381691 ] } },
{ "type": "Feature", "properties": { "name": "5th Street Lounge", "barclass": "Nightclub", "barcode": 3 }, "geometry": { "type": "Point", "coordinates": [ -75.1291004, 40.0418317 ] } },
{ "type": "Feature", "properties": { "name": "McDuff's Tavern", "barclass": "Pub", "barcode": 2 }, "geometry": { "type": "Point", "coordinates": [ -75.02889596455708, 40.04190035 ] } },
{ "type": "Feature", "properties": { "name": "Dimension Sports Bar", "barclass": "Bar", "barcode": 1 }, "geometry": { "type": "Point", "coordinates": [ -75.0649777, 40.052696 ] } },
{ "type": "Feature", "properties": { "name": "Smegy's Pub", "barclass": "Bar", "barcode": 1 }, "geometry": { "type": "Point", "coordinates": [ -75.0779838, 40.057879 ] } },
{ "type": "Feature", "properties": { "name": "The New Princeton Tavern", "barclass": "Bar", "barcode": 1 }, "geometry": { "type": "Point", "coordinates": [ -75.086954, 40.058223 ] } },
{ "type": "Feature", "properties": { "name": "Red Rooster", "barclass": "Bar", "barcode": 1 }, "geometry": { "type": "Point", "coordinates": [ -75.068734, 40.068083 ] } },
{ "type": "Feature", "properties": { "name": "Sweeney's Veree Tavern", "barclass": "Bar", "barcode": 1 }, "geometry": { "type": "Point", "coordinates": [ -75.07661425, 40.07256805 ] } },
{ "type": "Feature", "properties": { "name": "Xanadu", "barclass": "Bar", "barcode": 1 }, "geometry": { "type": "Point", "coordinates": [ -75.141043013495491, 39.99852985 ] } },
{ "type": "Feature", "properties": { "name": "Fox Chase Tavern", "barclass": "Bar", "barcode": 1 }, "geometry": { "type": "Point", "coordinates": [ -75.084048497243415, 40.07708845 ] } },
{ "type": "Feature", "properties": { "name": "The Union Tap", "barclass": "Bar", "barcode": 1 }, "geometry": { "type": "Point", "coordinates": [ -75.000492743725403, 40.10440135 ] } },
{ "type": "Feature", "properties": { "name": "O'Mare's", "barclass": "Pub", "barcode": 2 }, "geometry": { "type": "Point", "coordinates": [ -75.025506014016003, 40.10904695 ] } }
]
}
