{
"type": "FeatureCollection",
"name": "OPP_bars_denver",
"crs": { "type": "name", "properties": { "name": "urn:ogc:def:crs:OGC:1.3:CRS84" } },
"features": [
{ "type": "Feature", "properties": { "name": "Darcy's Bistro & Pub", "barclass": "Pub", "barcode": 2 }, "geometry": { "type": "Point", "coordinates": [ -104.895296, 39.6270112 ] } },
{ "type": "Feature", "properties": { "name": "The Dam Grille", "barclass": "Bar", "barcode": 1 }, "geometry": { "type": "Point", "coordinates": [ -104.8978, 39.6374217 ] } },
{ "type": "Feature", "properties": { "name": "The Hound Sports Pub + Burger", "barclass": "Pub", "barcode": 2 }, "geometry": { "type": "Point", "coordinates": [ -104.8857169, 39.6511943 ] } },
{ "type": "Feature", "properties": { "name": "Devon's Pub & Cigars", "barclass": "Pub", "barcode": 2 }, "geometry": { "type": "Point", "coordinates": [ -104.929193, 39.6522205 ] } },
{ "type": "Feature", "properties": { "name": "PT's Centerfold Show Club", "barclass": "Nightclub", "barcode": 3 }, "geometry": { "type": "Point", "coordinates": [ -104.8685007, 39.6541107 ] } },
{ "type": "Feature", "properties": { "name": "Flaming 777", "barclass": "Bar", "barcode": 1 }, "geometry": { "type": "Point", "coordinates": [ -104.8610762, 39.659772 ] } },
{ "type": "Feature", "properties": { "name": "Cheers Tiki bar & Lounge", "barclass": "Pub", "barcode": 2 }, "geometry": { "type": "Point", "coordinates": [ -104.913287, 39.6542756 ] } },
{ "type": "Feature", "properties": { "name": "Extra Innings", "barclass": "Bar", "barcode": 1 }, "geometry": { "type": "Point", "coordinates": [ -104.900934, 39.6560901 ] } },
{ "type": "Feature", "properties": { "name": "Wellshire Inn Golfer's Pub & Grill", "barclass": "Pub", "barcode": 2 }, "geometry": { "type": "Point", "coordinates": [ -104.9413533, 39.6584843 ] } },
{ "type": "Feature", "properties": { "name": "The Dirty Duck Bar", "barclass": "Bar", "barcode": 1 }, "geometry": { "type": "Point", "coordinates": [ -104.931901, 39.6782375 ] } },
{ "type": "Feature", "properties": { "name": "Milo's Sports Tavern", "barclass": "Pub", "barcode": 2 }, "geometry": { "type": "Point", "coordinates": [ -104.913204, 39.6787718 ] } },
{ "type": "Feature", "properties": { "name": "Junction Bar", "barclass": "Bar", "barcode": 1 }, "geometry": { "type": "Point", "coordinates": [ -104.9386325, 39.6805602 ] } },
{ "type": "Feature", "properties": { "name": "Stadium Inn", "barclass": "Pub", "barcode": 2 }, "geometry": { "type": "Point", "coordinates": [ -104.9674111, 39.6786497 ] } },
{ "type": "Feature", "properties": { "name": "Crimson and Gold Tavern", "barclass": "Bar", "barcode": 1 }, "geometry": { "type": "Point", "coordinates": [ -104.959697, 39.6797611 ] } },
{ "type": "Feature", "properties": { "name": "Hazel", "barclass": "Bar", "barcode": 1 }, "geometry": { "type": "Point", "coordinates": [ -104.9805978, 39.6879397 ] } },
{ "type": "Feature", "properties": { "name": "Lincoln's Road House", "barclass": "Pub", "barcode": 2 }, "geometry": { "type": "Point", "coordinates": [ -104.9807948, 39.6946298 ] } },
{ "type": "Feature", "properties": { "name": "Pub on Pearl", "barclass": "Pub", "barcode": 2 }, "geometry": { "type": "Point", "coordinates": [ -104.9805874, 39.6964823 ] } },
{ "type": "Feature", "properties": { "name": "Wash Park Grille", "barclass": "Pub", "barcode": 2 }, "geometry": { "type": "Point", "coordinates": [ -104.961572, 39.6966942 ] } },
{ "type": "Feature", "properties": { "name": "Reiver's", "barclass": "Pub", "barcode": 2 }, "geometry": { "type": "Point", "coordinates": [ -104.9619435, 39.6968258 ] } },
{ "type": "Feature", "properties": { "name": "Kentucky Inn", "barclass": "Bar", "barcode": 1 }, "geometry": { "type": "Point", "coordinates": [ -104.980135, 39.7004741 ] } },
{ "type": "Feature", "properties": { "name": "Candlelight Tavern", "barclass": "Bar", "barcode": 1 }, "geometry": { "type": "Point", "coordinates": [ -104.9806286, 39.7096378 ] } },
{ "type": "Feature", "properties": { "name": "Mr.Oso", "barclass": "Bar", "barcode": 1 }, "geometry": { "type": "Point", "coordinates": [ -104.9759929, 39.7145303 ] } },
{ "type": "Feature", "properties": { "name": "Inga's Alpine Tavern", "barclass": "Pub", "barcode": 2 }, "geometry": { "type": "Point", "coordinates": [ -104.9273774, 39.7085185 ] } },
{ "type": "Feature", "properties": { "name": "Elway's", "barclass": "Bar", "barcode": 1 }, "geometry": { "type": "Point", "coordinates": [ -104.957346, 39.7173967 ] } },
{ "type": "Feature", "properties": { "name": "Milwaukee Street Tavern", "barclass": "Pub", "barcode": 2 }, "geometry": { "type": "Point", "coordinates": [ -104.9524028, 39.7195482 ] } },
{ "type": "Feature", "properties": { "name": "Brandon's Pub", "barclass": "Pub", "barcode": 2 }, "geometry": { "type": "Point", "coordinates": [ -104.9513873, 39.7195504 ] } },
{ "type": "Feature", "properties": { "name": "Forget Me Not", "barclass": "Bar", "barcode": 1 }, "geometry": { "type": "Point", "coordinates": [ -104.9560646, 39.7199912 ] } },
{ "type": "Feature", "properties": { "name": "Lowry Beer Garden", "barclass": "Pub", "barcode": 2 }, "geometry": { "type": "Point", "coordinates": [ -104.896253, 39.7202652 ] } },
{ "type": "Feature", "properties": { "name": "B&GC", "barclass": "Bar", "barcode": 1 }, "geometry": { "type": "Point", "coordinates": [ -104.9576139, 39.7204414 ] } },
{ "type": "Feature", "properties": { "name": "College Inn", "barclass": "Bar", "barcode": 1 }, "geometry": { "type": "Point", "coordinates": [ -104.935823, 39.7291076 ] } },
{ "type": "Feature", "properties": { "name": "The Bar Car", "barclass": "Bar", "barcode": 1 }, "geometry": { "type": "Point", "coordinates": [ -104.940973, 39.7294636 ] } },
{ "type": "Feature", "properties": { "name": "Congress Park Taproom", "barclass": "Bar", "barcode": 1 }, "geometry": { "type": "Point", "coordinates": [ -104.9410015, 39.7297978 ] } },
{ "type": "Feature", "properties": { "name": "Sienna Wine Bar", "barclass": "Bar", "barcode": 1 }, "geometry": { "type": "Point", "coordinates": [ -104.946497, 39.7349968 ] } },
{ "type": "Feature", "properties": { "name": "Billy's Inn Congress Park", "barclass": "Bar", "barcode": 1 }, "geometry": { "type": "Point", "coordinates": [ -104.945796, 39.7355945 ] } },
{ "type": "Feature", "properties": { "name": "Cerebral Brewing", "barclass": "Pub", "barcode": 2 }, "geometry": { "type": "Point", "coordinates": [ -104.9454836, 39.7397518 ] } },
{ "type": "Feature", "properties": { "name": "Lost Lake Lounge", "barclass": "Bar", "barcode": 1 }, "geometry": { "type": "Point", "coordinates": [ -104.944626, 39.739911 ] } },
{ "type": "Feature", "properties": { "name": "Don's Club Tavern", "barclass": "Bar", "barcode": 1 }, "geometry": { "type": "Point", "coordinates": [ -104.9782201, 39.7257363 ] } },
{ "type": "Feature", "properties": { "name": "Your Mom's House", "barclass": "Nightclub", "barcode": 3 }, "geometry": { "type": "Point", "coordinates": [ -104.979553, 39.7367877 ] } },
{ "type": "Feature", "properties": { "name": "Wyman's No. 5", "barclass": "Bar", "barcode": 1 }, "geometry": { "type": "Point", "coordinates": [ -104.962573, 39.7369415 ] } },
{ "type": "Feature", "properties": { "name": "Hudson Hill", "barclass": "Bar", "barcode": 1 }, "geometry": { "type": "Point", "coordinates": [ -104.9793809, 39.73697 ] } },
{ "type": "Feature", "properties": { "name": "Wild Corgi Pub", "barclass": "Pub", "barcode": 2 }, "geometry": { "type": "Point", "coordinates": [ -104.9722997, 39.7370177 ] } },
{ "type": "Feature", "properties": { "name": "Bang Up To The Elephant", "barclass": "Bar", "barcode": 1 }, "geometry": { "type": "Point", "coordinates": [ -104.979739, 39.7372321 ] } },
{ "type": "Feature", "properties": { "name": "Charlie’s Denver", "barclass": "Bar", "barcode": 1 }, "geometry": { "type": "Point", "coordinates": [ -104.9761866, 39.7397731 ] } },
{ "type": "Feature", "properties": { "name": "Satire Lounge", "barclass": "Bar", "barcode": 1 }, "geometry": { "type": "Point", "coordinates": [ -104.9640025, 39.7398177 ] } },
{ "type": "Feature", "properties": { "name": "Squire Lounge", "barclass": "Bar", "barcode": 1 }, "geometry": { "type": "Point", "coordinates": [ -104.9658204, 39.7398258 ] } },
{ "type": "Feature", "properties": { "name": "Bar Max", "barclass": "Bar", "barcode": 1 }, "geometry": { "type": "Point", "coordinates": [ -104.9586437, 39.7398442 ] } },
{ "type": "Feature", "properties": { "name": "Declaration Brewing Co", "barclass": "Pub", "barcode": 2 }, "geometry": { "type": "Point", "coordinates": [ -104.9907479, 39.6790714 ] } },
{ "type": "Feature", "properties": { "name": "Bear Creak Distillery", "barclass": "Pub", "barcode": 2 }, "geometry": { "type": "Point", "coordinates": [ -104.989073, 39.6826214 ] } },
{ "type": "Feature", "properties": { "name": "The Delorean", "barclass": "Bar", "barcode": 1 }, "geometry": { "type": "Point", "coordinates": [ -104.9877708, 39.6848213 ] } },
{ "type": "Feature", "properties": { "name": "Public Offering Brewing Company", "barclass": "Pub", "barcode": 2 }, "geometry": { "type": "Point", "coordinates": [ -104.987342, 39.6850288 ] } },
{ "type": "Feature", "properties": { "name": "Grandma's House", "barclass": "Pub", "barcode": 2 }, "geometry": { "type": "Point", "coordinates": [ -104.9873391, 39.6854533 ] } },
{ "type": "Feature", "properties": { "name": "Laws Whiskey House", "barclass": "Pub", "barcode": 2 }, "geometry": { "type": "Point", "coordinates": [ -104.9883804, 39.690655 ] } },
{ "type": "Feature", "properties": { "name": "Little Pub Company", "barclass": "Pub", "barcode": 2 }, "geometry": { "type": "Point", "coordinates": [ -104.9874253, 39.7076634 ] } },
{ "type": "Feature", "properties": { "name": "Platt Park Brewing Co", "barclass": "Pub", "barcode": 2 }, "geometry": { "type": "Point", "coordinates": [ -104.9808375, 39.6824669 ] } },
{ "type": "Feature", "properties": { "name": "Dive Inn", "barclass": "Bar", "barcode": 1 }, "geometry": { "type": "Point", "coordinates": [ -104.9870987, 39.6913843 ] } },
{ "type": "Feature", "properties": { "name": "Desert Social", "barclass": "Bar", "barcode": 1 }, "geometry": { "type": "Point", "coordinates": [ -104.9872008, 39.6926734 ] } },
{ "type": "Feature", "properties": { "name": "Bowman’s Vinyl & Lounge", "barclass": "Bar", "barcode": 1 }, "geometry": { "type": "Point", "coordinates": [ -104.9871713, 39.6927624 ] } },
{ "type": "Feature", "properties": { "name": "La Doña Mezcaleria", "barclass": "Bar", "barcode": 1 }, "geometry": { "type": "Point", "coordinates": [ -104.986969, 39.6931997 ] } },
{ "type": "Feature", "properties": { "name": "Adrift", "barclass": "Bar", "barcode": 1 }, "geometry": { "type": "Point", "coordinates": [ -104.9873002, 39.712614 ] } },
{ "type": "Feature", "properties": { "name": "Skylark Lounge", "barclass": "Bar", "barcode": 1 }, "geometry": { "type": "Point", "coordinates": [ -104.987283, 39.7137292 ] } },
{ "type": "Feature", "properties": { "name": "Twisted Root", "barclass": "Bar", "barcode": 1 }, "geometry": { "type": "Point", "coordinates": [ -104.9873341, 39.7144211 ] } },
{ "type": "Feature", "properties": { "name": "Badgers Pub", "barclass": "Pub", "barcode": 2 }, "geometry": { "type": "Point", "coordinates": [ -104.9872989, 39.7151518 ] } },
{ "type": "Feature", "properties": { "name": "The Irish Rover", "barclass": "Bar", "barcode": 1 }, "geometry": { "type": "Point", "coordinates": [ -104.9872122, 39.7155621 ] } },
{ "type": "Feature", "properties": { "name": "Players Pub", "barclass": "Bar", "barcode": 1 }, "geometry": { "type": "Point", "coordinates": [ -104.9872356, 39.7163603 ] } },
{ "type": "Feature", "properties": { "name": "Canopy", "barclass": "Bar", "barcode": 1 }, "geometry": { "type": "Point", "coordinates": [ -104.9873051, 39.7167898 ] } },
{ "type": "Feature", "properties": { "name": "Graphic", "barclass": "Bar", "barcode": 1 }, "geometry": { "type": "Point", "coordinates": [ -104.9873098, 39.7169092 ] } },
{ "type": "Feature", "properties": { "name": "Blue Ice", "barclass": "Nightclub", "barcode": 3 }, "geometry": { "type": "Point", "coordinates": [ -104.987297, 39.7170537 ] } },
{ "type": "Feature", "properties": { "name": "Historians Ale House", "barclass": "Bar", "barcode": 1 }, "geometry": { "type": "Point", "coordinates": [ -104.9873081, 39.7171546 ] } },
{ "type": "Feature", "properties": { "name": "the L", "barclass": "Bar", "barcode": 1 }, "geometry": { "type": "Point", "coordinates": [ -104.9872459, 39.7174988 ] } },
{ "type": "Feature", "properties": { "name": "The Saint Mary Bar", "barclass": "Bar", "barcode": 1 }, "geometry": { "type": "Point", "coordinates": [ -104.9872183, 39.7176915 ] } },
{ "type": "Feature", "properties": { "name": "Baere Brewing Co", "barclass": "Pub", "barcode": 2 }, "geometry": { "type": "Point", "coordinates": [ -104.9870172, 39.7214324 ] } },
{ "type": "Feature", "properties": { "name": "Li'l Devils", "barclass": "Bar", "barcode": 1 }, "geometry": { "type": "Point", "coordinates": [ -104.987803786601518, 39.71189925 ] } },
{ "type": "Feature", "properties": { "name": "Li'l Devils", "barclass": "Bar", "barcode": 1 }, "geometry": { "type": "Point", "coordinates": [ -104.9878075, 39.7119338 ] } },
{ "type": "Feature", "properties": { "name": "Denver Distillery", "barclass": "Pub", "barcode": 2 }, "geometry": { "type": "Point", "coordinates": [ -104.9873542, 39.7121759 ] } },
{ "type": "Feature", "properties": { "name": "Hi-Dive", "barclass": "Bar", "barcode": 1 }, "geometry": { "type": "Point", "coordinates": [ -104.987726, 39.7163164 ] } },
{ "type": "Feature", "properties": { "name": "Sputnik", "barclass": "Bar", "barcode": 1 }, "geometry": { "type": "Point", "coordinates": [ -104.9877211, 39.7163887 ] } },
{ "type": "Feature", "properties": { "name": "Novel Strand Brewing Company", "barclass": "Bar", "barcode": 1 }, "geometry": { "type": "Point", "coordinates": [ -104.9923145, 39.7185376 ] } },
{ "type": "Feature", "properties": { "name": "La Rumba", "barclass": "Nightclub", "barcode": 3 }, "geometry": { "type": "Point", "coordinates": [ -104.988564, 39.7307086 ] } },
{ "type": "Feature", "properties": { "name": "Bannock Street Garage", "barclass": "Bar", "barcode": 1 }, "geometry": { "type": "Point", "coordinates": [ -104.9905772, 39.7324054 ] } },
{ "type": "Feature", "properties": { "name": "#Vybe", "barclass": "Bar", "barcode": 1 }, "geometry": { "type": "Point", "coordinates": [ -104.9878203, 39.7326567 ] } },
{ "type": "Feature", "properties": { "name": "Milk Bar", "barclass": "Nightclub", "barcode": 3 }, "geometry": { "type": "Point", "coordinates": [ -104.9881024, 39.7328258 ] } },
{ "type": "Feature", "properties": { "name": "Bar 404", "barclass": "Bar", "barcode": 1 }, "geometry": { "type": "Point", "coordinates": [ -104.9872768, 39.7227283 ] } },
{ "type": "Feature", "properties": { "name": "Vesper Lounge", "barclass": "Bar", "barcode": 1 }, "geometry": { "type": "Point", "coordinates": [ -104.9839941, 39.727433 ] } },
{ "type": "Feature", "properties": { "name": "Denver Sweet", "barclass": "Bar", "barcode": 1 }, "geometry": { "type": "Point", "coordinates": [ -104.9859018, 39.7286595 ] } },
{ "type": "Feature", "properties": { "name": "12 Spirits Tavern", "barclass": "Bar", "barcode": 1 }, "geometry": { "type": "Point", "coordinates": [ -104.9815413, 39.7334483 ] } },
{ "type": "Feature", "properties": { "name": "Club Vinyl", "barclass": "Nightclub", "barcode": 3 }, "geometry": { "type": "Point", "coordinates": [ -104.98702, 39.7335431 ] } },
{ "type": "Feature", "properties": { "name": "Temple Denver", "barclass": "Nightclub", "barcode": 3 }, "geometry": { "type": "Point", "coordinates": [ -104.9870081, 39.7344552 ] } },
{ "type": "Feature", "properties": { "name": "Sneekeazy", "barclass": "Bar", "barcode": 1 }, "geometry": { "type": "Point", "coordinates": [ -104.9872176, 39.7344978 ] } },
{ "type": "Feature", "properties": { "name": "City Hall Nightclub", "barclass": "Nightclub", "barcode": 3 }, "geometry": { "type": "Point", "coordinates": [ -104.9872137, 39.7345767 ] } },
{ "type": "Feature", "properties": { "name": "The Church", "barclass": "Nightclub", "barcode": 3 }, "geometry": { "type": "Point", "coordinates": [ -104.9857503, 39.7350568 ] } },
{ "type": "Feature", "properties": { "name": "Bar Nun", "barclass": "Pub", "barcode": 2 }, "geometry": { "type": "Point", "coordinates": [ -104.982578, 39.7355759 ] } },
{ "type": "Feature", "properties": { "name": "Bar Standard", "barclass": "Nightclub", "barcode": 3 }, "geometry": { "type": "Point", "coordinates": [ -104.9876382, 39.7328283 ] } },
{ "type": "Feature", "properties": { "name": "Schoolyard Beer Garden", "barclass": "Bar", "barcode": 1 }, "geometry": { "type": "Point", "coordinates": [ -104.9892842, 39.7343099 ] } },
{ "type": "Feature", "properties": { "name": "Pints Pub", "barclass": "Pub", "barcode": 2 }, "geometry": { "type": "Point", "coordinates": [ -104.990853, 39.737018 ] } },
{ "type": "Feature", "properties": { "name": "The Greedy Hamster", "barclass": "Pub", "barcode": 2 }, "geometry": { "type": "Point", "coordinates": [ -104.9916849, 39.7412972 ] } },
{ "type": "Feature", "properties": { "name": "16Mix", "barclass": "Bar", "barcode": 1 }, "geometry": { "type": "Point", "coordinates": [ -104.9892167, 39.7426704 ] } },
{ "type": "Feature", "properties": { "name": "Coyote Ugly", "barclass": "Bar", "barcode": 1 }, "geometry": { "type": "Point", "coordinates": [ -104.991343, 39.7433967 ] } },
{ "type": "Feature", "properties": { "name": "XSO DENVER", "barclass": "Nightclub", "barcode": 3 }, "geometry": { "type": "Point", "coordinates": [ -104.9905162, 39.7435844 ] } },
{ "type": "Feature", "properties": { "name": "Peaks Lounge", "barclass": "Bar", "barcode": 1 }, "geometry": { "type": "Point", "coordinates": [ -104.9933779, 39.7435893 ] } },
{ "type": "Feature", "properties": { "name": "Assembly Hall Bar + Market", "barclass": "Bar", "barcode": 1 }, "geometry": { "type": "Point", "coordinates": [ -104.9934106, 39.7437742 ] } },
{ "type": "Feature", "properties": { "name": "Atrium Cocktails", "barclass": "Bar", "barcode": 1 }, "geometry": { "type": "Point", "coordinates": [ -104.9878126, 39.7441125 ] } },
{ "type": "Feature", "properties": { "name": "The Cake Bar", "barclass": "Bar", "barcode": 1 }, "geometry": { "type": "Point", "coordinates": [ -104.9845413, 39.7366844 ] } },
{ "type": "Feature", "properties": { "name": "The Black Box", "barclass": "Bar", "barcode": 1 }, "geometry": { "type": "Point", "coordinates": [ -104.9830945, 39.7366939 ] } },
{ "type": "Feature", "properties": { "name": "Pub on Penn", "barclass": "Pub", "barcode": 2 }, "geometry": { "type": "Point", "coordinates": [ -104.9808636, 39.7367851 ] } },
{ "type": "Feature", "properties": { "name": "Satellite Bar", "barclass": "Bar", "barcode": 1 }, "geometry": { "type": "Point", "coordinates": [ -104.9832415, 39.739891 ] } },
{ "type": "Feature", "properties": { "name": "Nob Hill Inn", "barclass": "Bar", "barcode": 1 }, "geometry": { "type": "Point", "coordinates": [ -104.9816819, 39.7398964 ] } },
{ "type": "Feature", "properties": { "name": "Prohibition", "barclass": "Pub", "barcode": 2 }, "geometry": { "type": "Point", "coordinates": [ -104.9809436, 39.7399003 ] } },
{ "type": "Feature", "properties": { "name": "Rumours Karaoke Cafe", "barclass": "Bar", "barcode": 1 }, "geometry": { "type": "Point", "coordinates": [ -104.981299, 39.7431193 ] } },
{ "type": "Feature", "properties": { "name": "Williams Tavern", "barclass": "Bar", "barcode": 1 }, "geometry": { "type": "Point", "coordinates": [ -104.9816711, 39.7434103 ] } },
{ "type": "Feature", "properties": { "name": "Horseshoe Lounge", "barclass": "Bar", "barcode": 1 }, "geometry": { "type": "Point", "coordinates": [ -104.9818306, 39.7474177 ] } },
{ "type": "Feature", "properties": { "name": "British Bulldog", "barclass": "Pub", "barcode": 2 }, "geometry": { "type": "Point", "coordinates": [ -104.9871478, 39.7502138 ] } },
{ "type": "Feature", "properties": { "name": "Churchill", "barclass": "Bar", "barcode": 1 }, "geometry": { "type": "Point", "coordinates": [ -104.9876584, 39.7441455 ] } },
{ "type": "Feature", "properties": { "name": "Ship Tavern", "barclass": "Pub", "barcode": 2 }, "geometry": { "type": "Point", "coordinates": [ -104.987686, 39.7443923 ] } },
{ "type": "Feature", "properties": { "name": "Full Frame", "barclass": "Pub", "barcode": 2 }, "geometry": { "type": "Point", "coordinates": [ -104.9914692, 39.7522539 ] } },
{ "type": "Feature", "properties": { "name": "Scruffy Murphy's", "barclass": "Pub", "barcode": 2 }, "geometry": { "type": "Point", "coordinates": [ -104.9919277, 39.7532605 ] } },
{ "type": "Feature", "properties": { "name": "Giggling Grizzly Bar & Grill", "barclass": "Pub", "barcode": 2 }, "geometry": { "type": "Point", "coordinates": [ -104.9932857, 39.7532653 ] } },
{ "type": "Feature", "properties": { "name": "The Retro Room Salon and Lounge", "barclass": "Bar", "barcode": 1 }, "geometry": { "type": "Point", "coordinates": [ -104.9918004, 39.7533521 ] } },
{ "type": "Feature", "properties": { "name": "Sidecar Lounge", "barclass": "Bar", "barcode": 1 }, "geometry": { "type": "Point", "coordinates": [ -104.9915963, 39.7535478 ] } },
{ "type": "Feature", "properties": { "name": "Herb's Hideout", "barclass": "Bar", "barcode": 1 }, "geometry": { "type": "Point", "coordinates": [ -104.9917132, 39.7538225 ] } },
{ "type": "Feature", "properties": { "name": "Viewhouse Eatery, Bar & Rooftop", "barclass": "Pub", "barcode": 2 }, "geometry": { "type": "Point", "coordinates": [ -104.9932567, 39.7540159 ] } },
{ "type": "Feature", "properties": { "name": "Star Bar", "barclass": "Bar", "barcode": 1 }, "geometry": { "type": "Point", "coordinates": [ -104.9908199, 39.7545234 ] } },
{ "type": "Feature", "properties": { "name": "The Crypt", "barclass": "Bar", "barcode": 1 }, "geometry": { "type": "Point", "coordinates": [ -104.9679577, 39.7430235 ] } },
{ "type": "Feature", "properties": { "name": "Reverence Brewing Company", "barclass": "Pub", "barcode": 2 }, "geometry": { "type": "Point", "coordinates": [ -104.9681198, 39.7430239 ] } },
{ "type": "Feature", "properties": { "name": "La Bouche Wine Bar", "barclass": "Bar", "barcode": 1 }, "geometry": { "type": "Point", "coordinates": [ -104.9732033, 39.7430814 ] } },
{ "type": "Feature", "properties": { "name": "The Thin Man", "barclass": "Bar", "barcode": 1 }, "geometry": { "type": "Point", "coordinates": [ -104.9630172, 39.7433947 ] } },
{ "type": "Feature", "properties": { "name": "Vine Street Pub & Brewery", "barclass": "Pub", "barcode": 2 }, "geometry": { "type": "Point", "coordinates": [ -104.9627421, 39.7434087 ] } },
{ "type": "Feature", "properties": { "name": "Vine Street Pub and Brewery", "barclass": "Pub", "barcode": 2 }, "geometry": { "type": "Point", "coordinates": [ -104.961995, 39.7434241 ] } },
{ "type": "Feature", "properties": { "name": "Retrograde", "barclass": "Bar", "barcode": 1 }, "geometry": { "type": "Point", "coordinates": [ -104.9806789, 39.746057 ] } },
{ "type": "Feature", "properties": { "name": "715 Club", "barclass": "Bar", "barcode": 1 }, "geometry": { "type": "Point", "coordinates": [ -104.9776787, 39.7549004 ] } },
{ "type": "Feature", "properties": { "name": "Spangalang Brewery", "barclass": "Pub", "barcode": 2 }, "geometry": { "type": "Point", "coordinates": [ -104.9770361, 39.7552227 ] } },
{ "type": "Feature", "properties": { "name": "Goed Zuur", "barclass": "Bar", "barcode": 1 }, "geometry": { "type": "Point", "coordinates": [ -104.9768403, 39.7559071 ] } },
{ "type": "Feature", "properties": { "name": "Doghouse Tavern", "barclass": "Pub", "barcode": 2 }, "geometry": { "type": "Point", "coordinates": [ -105.047495, 39.6549445 ] } },
{ "type": "Feature", "properties": { "name": "Athmar Lounge", "barclass": "Bar", "barcode": 1 }, "geometry": { "type": "Point", "coordinates": [ -105.0091963, 39.6970997 ] } },
{ "type": "Feature", "properties": { "name": "Chain Reaction Brewing Co", "barclass": "Pub", "barcode": 2 }, "geometry": { "type": "Point", "coordinates": [ -105.0011735, 39.7002454 ] } },
{ "type": "Feature", "properties": { "name": "Colorado Cider Company", "barclass": "Pub", "barcode": 2 }, "geometry": { "type": "Point", "coordinates": [ -105.0194812, 39.7190141 ] } },
{ "type": "Feature", "properties": { "name": "Wit's End Brewing Co", "barclass": "Pub", "barcode": 2 }, "geometry": { "type": "Point", "coordinates": [ -105.0180636, 39.7208411 ] } },
{ "type": "Feature", "properties": { "name": "Sleeping Giant Brewing Co", "barclass": "Pub", "barcode": 2 }, "geometry": { "type": "Point", "coordinates": [ -105.0165535, 39.7234302 ] } },
{ "type": "Feature", "properties": { "name": "The Table", "barclass": "Pub", "barcode": 2 }, "geometry": { "type": "Point", "coordinates": [ -104.9969247, 39.6768205 ] } },
{ "type": "Feature", "properties": { "name": "Board Game Republic", "barclass": "Bar", "barcode": 1 }, "geometry": { "type": "Point", "coordinates": [ -104.998891, 39.7174795 ] } },
{ "type": "Feature", "properties": { "name": "Renegade Brewing Co @ the Yard on Santa Fe", "barclass": "Pub", "barcode": 2 }, "geometry": { "type": "Point", "coordinates": [ -104.9988964, 39.7180188 ] } },
{ "type": "Feature", "properties": { "name": "Trade", "barclass": "Bar", "barcode": 1 }, "geometry": { "type": "Point", "coordinates": [ -104.9987601, 39.7239635 ] } },
{ "type": "Feature", "properties": { "name": "Town Hall Collaborative", "barclass": "Bar", "barcode": 1 }, "geometry": { "type": "Point", "coordinates": [ -104.9987663, 39.7245987 ] } },
{ "type": "Feature", "properties": { "name": "Wah Gwaan Brewing Company", "barclass": "Bar", "barcode": 1 }, "geometry": { "type": "Point", "coordinates": [ -104.9992, 39.7291381 ] } },
{ "type": "Feature", "properties": { "name": "Mystic Lounge", "barclass": "Bar", "barcode": 1 }, "geometry": { "type": "Point", "coordinates": [ -104.9990839, 39.7306385 ] } },
{ "type": "Feature", "properties": { "name": "The Monkey Bar", "barclass": "Bar", "barcode": 1 }, "geometry": { "type": "Point", "coordinates": [ -104.9985342, 39.7339554 ] } },
{ "type": "Feature", "properties": { "name": "Diamond After Dark", "barclass": "Nightclub", "barcode": 3 }, "geometry": { "type": "Point", "coordinates": [ -104.9944718, 39.7403021 ] } },
{ "type": "Feature", "properties": { "name": "54thirty", "barclass": "Bar", "barcode": 1 }, "geometry": { "type": "Point", "coordinates": [ -104.9937508, 39.744247 ] } },
{ "type": "Feature", "properties": { "name": "White Horse Lounge", "barclass": "Bar", "barcode": 1 }, "geometry": { "type": "Point", "coordinates": [ -105.0523427, 39.7109155 ] } },
{ "type": "Feature", "properties": { "name": "Lookin' Good Restaurant & Lounge", "barclass": "Bar", "barcode": 1 }, "geometry": { "type": "Point", "coordinates": [ -105.0528761, 39.7177543 ] } },
{ "type": "Feature", "properties": { "name": "The Viking", "barclass": "Bar", "barcode": 1 }, "geometry": { "type": "Point", "coordinates": [ -105.049629, 39.7401915 ] } },
{ "type": "Feature", "properties": { "name": "Side Pony", "barclass": "Bar", "barcode": 1 }, "geometry": { "type": "Point", "coordinates": [ -105.0465262, 39.7405275 ] } },
{ "type": "Feature", "properties": { "name": "Crazy Mountain Tap Room + BBQ", "barclass": "Pub", "barcode": 2 }, "geometry": { "type": "Point", "coordinates": [ -105.0005487, 39.7234694 ] } },
{ "type": "Feature", "properties": { "name": "Lincoln Park Lounge Sports Bar", "barclass": "Bar", "barcode": 1 }, "geometry": { "type": "Point", "coordinates": [ -105.0026285, 39.7287668 ] } },
{ "type": "Feature", "properties": { "name": "Strange Craft Beer Company", "barclass": "Pub", "barcode": 2 }, "geometry": { "type": "Point", "coordinates": [ -105.014792, 39.7372431 ] } },
{ "type": "Feature", "properties": { "name": "Mile High Station", "barclass": "Bar", "barcode": 1 }, "geometry": { "type": "Point", "coordinates": [ -105.016619, 39.7398758 ] } },
{ "type": "Feature", "properties": { "name": "Tivoli Brewing Co. Tap House", "barclass": "Pub", "barcode": 2 }, "geometry": { "type": "Point", "coordinates": [ -105.005546466249399, 39.74547165 ] } },
{ "type": "Feature", "properties": { "name": "Brooklyn's at Ball Arena", "barclass": "Pub", "barcode": 2 }, "geometry": { "type": "Point", "coordinates": [ -105.007677, 39.7469716 ] } },
{ "type": "Feature", "properties": { "name": "Little Machine Beer", "barclass": "Pub", "barcode": 2 }, "geometry": { "type": "Point", "coordinates": [ -105.0243557, 39.7474051 ] } },
{ "type": "Feature", "properties": { "name": "The Crimson Room", "barclass": "Nightclub", "barcode": 3 }, "geometry": { "type": "Point", "coordinates": [ -104.999749, 39.7475877 ] } },
{ "type": "Feature", "properties": { "name": "Milk & Honey Bar Kitchen", "barclass": "Bar", "barcode": 1 }, "geometry": { "type": "Point", "coordinates": [ -104.9996245, 39.7476828 ] } },
{ "type": "Feature", "properties": { "name": "Villa Denver", "barclass": "Bar", "barcode": 1 }, "geometry": { "type": "Point", "coordinates": [ -105.000264, 39.7481652 ] } },
{ "type": "Feature", "properties": { "name": "Tarantula Billiards", "barclass": "Bar", "barcode": 1 }, "geometry": { "type": "Point", "coordinates": [ -104.99404, 39.7449306 ] } },
{ "type": "Feature", "properties": { "name": "Shag Lounge", "barclass": "Bar", "barcode": 1 }, "geometry": { "type": "Point", "coordinates": [ -104.9950193, 39.7453182 ] } },
{ "type": "Feature", "properties": { "name": "The Nickel", "barclass": "Bar", "barcode": 1 }, "geometry": { "type": "Point", "coordinates": [ -104.9983798, 39.745994 ] } },
{ "type": "Feature", "properties": { "name": "DazzleJazz Restaurant & Lounge", "barclass": "Bar", "barcode": 1 }, "geometry": { "type": "Point", "coordinates": [ -104.9955766, 39.7464052 ] } },
{ "type": "Feature", "properties": { "name": "Lime Denver", "barclass": "Nightclub", "barcode": 3 }, "geometry": { "type": "Point", "coordinates": [ -104.9936352, 39.7465259 ] } },
{ "type": "Feature", "properties": { "name": "Green Russell", "barclass": "Bar", "barcode": 1 }, "geometry": { "type": "Point", "coordinates": [ -104.9991951, 39.7476387 ] } },
{ "type": "Feature", "properties": { "name": "The Polished Tavern", "barclass": "Bar", "barcode": 1 }, "geometry": { "type": "Point", "coordinates": [ -104.9977812, 39.7478412 ] } },
{ "type": "Feature", "properties": { "name": "Crú Wine Bar", "barclass": "Bar", "barcode": 1 }, "geometry": { "type": "Point", "coordinates": [ -104.998884, 39.7478797 ] } },
{ "type": "Feature", "properties": { "name": "The Front Porch", "barclass": "Bar", "barcode": 1 }, "geometry": { "type": "Point", "coordinates": [ -104.9978969, 39.7479241 ] } },
{ "type": "Feature", "properties": { "name": "Roosevelt", "barclass": "Bar", "barcode": 1 }, "geometry": { "type": "Point", "coordinates": [ -104.997981, 39.7479851 ] } },
{ "type": "Feature", "properties": { "name": "Nallen's Irish Pub", "barclass": "Pub", "barcode": 2 }, "geometry": { "type": "Point", "coordinates": [ -105.0002678, 39.7485497 ] } },
{ "type": "Feature", "properties": { "name": "Pour House Pub", "barclass": "Pub", "barcode": 2 }, "geometry": { "type": "Point", "coordinates": [ -105.0002035, 39.7485983 ] } },
{ "type": "Feature", "properties": { "name": "Gaslamp", "barclass": "Pub", "barcode": 2 }, "geometry": { "type": "Point", "coordinates": [ -105.0001545, 39.7486353 ] } },
{ "type": "Feature", "properties": { "name": "The Saloon", "barclass": "Bar", "barcode": 1 }, "geometry": { "type": "Point", "coordinates": [ -105.012901, 39.7490474 ] } },
{ "type": "Feature", "properties": { "name": "Society Sports and Grill", "barclass": "Bar", "barcode": 1 }, "geometry": { "type": "Point", "coordinates": [ -105.0008228, 39.7490717 ] } },
{ "type": "Feature", "properties": { "name": "J.M. Mulvihills Pub", "barclass": "Pub", "barcode": 2 }, "geometry": { "type": "Point", "coordinates": [ -105.0129544, 39.7492159 ] } },
{ "type": "Feature", "properties": { "name": "Freshcraft", "barclass": "Bar", "barcode": 1 }, "geometry": { "type": "Point", "coordinates": [ -104.9996506, 39.7499435 ] } },
{ "type": "Feature", "properties": { "name": "The Wine Loft", "barclass": "Bar", "barcode": 1 }, "geometry": { "type": "Point", "coordinates": [ -105.0008192, 39.7508154 ] } },
{ "type": "Feature", "properties": { "name": "Upstairs Circus", "barclass": "Bar", "barcode": 1 }, "geometry": { "type": "Point", "coordinates": [ -105.0016619, 39.7511156 ] } },
{ "type": "Feature", "properties": { "name": "Dive Lounge", "barclass": "Bar", "barcode": 1 }, "geometry": { "type": "Point", "coordinates": [ -105.0136108, 39.7518216 ] } },
{ "type": "Feature", "properties": { "name": "The Drink", "barclass": "Bar", "barcode": 1 }, "geometry": { "type": "Point", "coordinates": [ -104.9992075, 39.7485555 ] } },
{ "type": "Feature", "properties": { "name": "Tryst Lounge", "barclass": "Bar", "barcode": 1 }, "geometry": { "type": "Point", "coordinates": [ -104.9992712, 39.7486055 ] } },
{ "type": "Feature", "properties": { "name": "Lamark 15", "barclass": "Bar", "barcode": 1 }, "geometry": { "type": "Point", "coordinates": [ -104.9993329, 39.7486483 ] } },
{ "type": "Feature", "properties": { "name": "Privé Social Club", "barclass": "Nightclub", "barcode": 3 }, "geometry": { "type": "Point", "coordinates": [ -104.9994046, 39.7487018 ] } },
{ "type": "Feature", "properties": { "name": "Rewind", "barclass": "Bar", "barcode": 1 }, "geometry": { "type": "Point", "coordinates": [ -104.9992316, 39.7493437 ] } },
{ "type": "Feature", "properties": { "name": "Cruise Room", "barclass": "Bar", "barcode": 1 }, "geometry": { "type": "Point", "coordinates": [ -104.9991199, 39.7521816 ] } },
{ "type": "Feature", "properties": { "name": "Pony Up", "barclass": "Bar", "barcode": 1 }, "geometry": { "type": "Point", "coordinates": [ -104.9962367, 39.7524304 ] } },
{ "type": "Feature", "properties": { "name": "Run For The Roses", "barclass": "Bar", "barcode": 1 }, "geometry": { "type": "Point", "coordinates": [ -104.9966602, 39.7526873 ] } },
{ "type": "Feature", "properties": { "name": "Brothers Bar & Grill", "barclass": "Pub", "barcode": 2 }, "geometry": { "type": "Point", "coordinates": [ -104.9939723, 39.7529278 ] } },
{ "type": "Feature", "properties": { "name": "Moo Bar", "barclass": "Bar", "barcode": 1 }, "geometry": { "type": "Point", "coordinates": [ -104.9972849, 39.7531007 ] } },
{ "type": "Feature", "properties": { "name": "The Stranded Pilgrim", "barclass": "Bar", "barcode": 1 }, "geometry": { "type": "Point", "coordinates": [ -104.9968564, 39.7531431 ] } },
{ "type": "Feature", "properties": { "name": "The Cellar", "barclass": "Bar", "barcode": 1 }, "geometry": { "type": "Point", "coordinates": [ -104.9969166, 39.7531895 ] } },
{ "type": "Feature", "properties": { "name": "Poka Lola Social Club", "barclass": "Bar", "barcode": 1 }, "geometry": { "type": "Point", "coordinates": [ -104.9964936, 39.753399 ] } },
{ "type": "Feature", "properties": { "name": "Seven Grand", "barclass": "Bar", "barcode": 1 }, "geometry": { "type": "Point", "coordinates": [ -104.9960066, 39.7535005 ] } },
{ "type": "Feature", "properties": { "name": "Wynkoop Brewing Company", "barclass": "Pub", "barcode": 2 }, "geometry": { "type": "Point", "coordinates": [ -104.9984831, 39.7535446 ] } },
{ "type": "Feature", "properties": { "name": "Hayter’s & Co.", "barclass": "Bar", "barcode": 1 }, "geometry": { "type": "Point", "coordinates": [ -104.9950107, 39.7535795 ] } },
{ "type": "Feature", "properties": { "name": "Sports Column", "barclass": "Pub", "barcode": 2 }, "geometry": { "type": "Point", "coordinates": [ -104.9949186, 39.7536498 ] } },
{ "type": "Feature", "properties": { "name": "The Refinery", "barclass": "Bar", "barcode": 1 }, "geometry": { "type": "Point", "coordinates": [ -104.9948356, 39.7537115 ] } },
{ "type": "Feature", "properties": { "name": "Swanky's Vittles & Libations", "barclass": "Bar", "barcode": 1 }, "geometry": { "type": "Point", "coordinates": [ -104.9947459, 39.7537791 ] } },
{ "type": "Feature", "properties": { "name": "Falling Rock Tap House", "barclass": "Bar", "barcode": 1 }, "geometry": { "type": "Point", "coordinates": [ -104.9954088, 39.7538791 ] } },
{ "type": "Feature", "properties": { "name": "BarFly", "barclass": "Bar", "barcode": 1 }, "geometry": { "type": "Point", "coordinates": [ -105.042412, 39.7405476 ] } },
{ "type": "Feature", "properties": { "name": null, "barclass": "Bar", "barcode": 1 }, "geometry": { "type": "Point", "coordinates": [ -105.0419259, 39.7416831 ] } },
{ "type": "Feature", "properties": { "name": "Odell Brewing Sloan's Lake Brewhouse", "barclass": "Bar", "barcode": 1 }, "geometry": { "type": "Point", "coordinates": [ -105.039614, 39.7433386 ] } },
{ "type": "Feature", "properties": { "name": "Bout Time Pub & Grub", "barclass": "Pub", "barcode": 2 }, "geometry": { "type": "Point", "coordinates": [ -105.0321474, 39.7693045 ] } },
{ "type": "Feature", "properties": { "name": "The 1Up Arcade Bar - LoDo", "barclass": "Bar", "barcode": 1 }, "geometry": { "type": "Point", "coordinates": [ -104.995111, 39.7539111 ] } },
{ "type": "Feature", "properties": { "name": "Jackson's", "barclass": "Bar", "barcode": 1 }, "geometry": { "type": "Point", "coordinates": [ -104.995178, 39.7544142 ] } },
{ "type": "Feature", "properties": { "name": "The Clocktower", "barclass": "Bar", "barcode": 1 }, "geometry": { "type": "Point", "coordinates": [ -104.9941751, 39.7551493 ] } },
{ "type": "Feature", "properties": { "name": "Colorado Craft Beers", "barclass": "Bar", "barcode": 1 }, "geometry": { "type": "Point", "coordinates": [ -104.9938301, 39.7552358 ] } },
{ "type": "Feature", "properties": { "name": "Clocktower Bar", "barclass": "Bar", "barcode": 1 }, "geometry": { "type": "Point", "coordinates": [ -104.9941929, 39.7552775 ] } },
{ "type": "Feature", "properties": { "name": "Biker Jim’s", "barclass": "Bar", "barcode": 1 }, "geometry": { "type": "Point", "coordinates": [ -104.9942727, 39.7552888 ] } },
{ "type": "Feature", "properties": { "name": "Beers of the World", "barclass": "Bar", "barcode": 1 }, "geometry": { "type": "Point", "coordinates": [ -104.9944751, 39.7554235 ] } },
{ "type": "Feature", "properties": { "name": "Wazee Bar", "barclass": "Bar", "barcode": 1 }, "geometry": { "type": "Point", "coordinates": [ -104.994542, 39.755465 ] } },
{ "type": "Feature", "properties": { "name": "Cocktails", "barclass": "Bar", "barcode": 1 }, "geometry": { "type": "Point", "coordinates": [ -104.9945535, 39.7554745 ] } },
{ "type": "Feature", "properties": { "name": "Margaritas", "barclass": "Bar", "barcode": 1 }, "geometry": { "type": "Point", "coordinates": [ -104.9945685, 39.7554859 ] } },
{ "type": "Feature", "properties": { "name": "Pair-A-Dice", "barclass": "Bar", "barcode": 1 }, "geometry": { "type": "Point", "coordinates": [ -104.9840032, 39.7503496 ] } },
{ "type": "Feature", "properties": { "name": "New Climax Jazz Club", "barclass": "Nightclub", "barcode": 3 }, "geometry": { "type": "Point", "coordinates": [ -104.9838573, 39.7505034 ] } },
{ "type": "Feature", "properties": { "name": "Death & Co Denver", "barclass": "Bar", "barcode": 1 }, "geometry": { "type": "Point", "coordinates": [ -104.9863985, 39.7572799 ] } },
{ "type": "Feature", "properties": { "name": "Dada Art Bar", "barclass": "Bar", "barcode": 1 }, "geometry": { "type": "Point", "coordinates": [ -104.9870204, 39.7577779 ] } },
{ "type": "Feature", "properties": { "name": "Pon Pon Bar", "barclass": "Bar", "barcode": 1 }, "geometry": { "type": "Point", "coordinates": [ -104.9864349, 39.7584918 ] } },
{ "type": "Feature", "properties": { "name": "Matchbox", "barclass": "Bar", "barcode": 1 }, "geometry": { "type": "Point", "coordinates": [ -104.9849843, 39.759064 ] } },
{ "type": "Feature", "properties": { "name": "Curio", "barclass": "Bar", "barcode": 1 }, "geometry": { "type": "Point", "coordinates": [ -104.9846521, 39.7593389 ] } },
{ "type": "Feature", "properties": { "name": "Voicebox Karaoke Lounge", "barclass": "Bar", "barcode": 1 }, "geometry": { "type": "Point", "coordinates": [ -104.9863166, 39.7595544 ] } },
{ "type": "Feature", "properties": { "name": "American Bonded", "barclass": "Bar", "barcode": 1 }, "geometry": { "type": "Point", "coordinates": [ -104.9838435, 39.7595593 ] } },
{ "type": "Feature", "properties": { "name": "Meadowlark Bar", "barclass": "Bar", "barcode": 1 }, "geometry": { "type": "Point", "coordinates": [ -104.9842799, 39.7597907 ] } },
{ "type": "Feature", "properties": { "name": "Brews N Birdies", "barclass": "Bar", "barcode": 1 }, "geometry": { "type": "Point", "coordinates": [ -104.9902855, 39.7545595 ] } },
{ "type": "Feature", "properties": { "name": "Whiskey Bar", "barclass": "Bar", "barcode": 1 }, "geometry": { "type": "Point", "coordinates": [ -104.9901902, 39.7550184 ] } },
{ "type": "Feature", "properties": { "name": "Margaritas", "barclass": "Bar", "barcode": 1 }, "geometry": { "type": "Point", "coordinates": [ -104.9933554, 39.7558416 ] } },
{ "type": "Feature", "properties": { "name": "Beers of the World", "barclass": "Bar", "barcode": 1 }, "geometry": { "type": "Point", "coordinates": [ -104.9930803, 39.7559212 ] } },
{ "type": "Feature", "properties": { "name": "Beers of the World", "barclass": "Bar", "barcode": 1 }, "geometry": { "type": "Point", "coordinates": [ -104.9928109, 39.7560025 ] } },
{ "type": "Feature", "properties": { "name": "Cocktails", "barclass": "Bar", "barcode": 1 }, "geometry": { "type": "Point", "coordinates": [ -104.9928074, 39.7560112 ] } },
{ "type": "Feature", "properties": { "name": "Margaritas", "barclass": "Bar", "barcode": 1 }, "geometry": { "type": "Point", "coordinates": [ -104.9928044, 39.7560197 ] } },
{ "type": "Feature", "properties": { "name": null, "barclass": "Bar", "barcode": 1 }, "geometry": { "type": "Point", "coordinates": [ -104.9930702, 39.7562199 ] } },
{ "type": "Feature", "properties": { "name": "The Cherry Cricket", "barclass": "Pub", "barcode": 2 }, "geometry": { "type": "Point", "coordinates": [ -104.9912881, 39.7563537 ] } },
{ "type": "Feature", "properties": { "name": "Biker Jim’s", "barclass": "Bar", "barcode": 1 }, "geometry": { "type": "Point", "coordinates": [ -104.9933018, 39.7564977 ] } },
{ "type": "Feature", "properties": { "name": "Margaritas", "barclass": "Bar", "barcode": 1 }, "geometry": { "type": "Point", "coordinates": [ -104.9946342, 39.755509 ] } },
{ "type": "Feature", "properties": { "name": "Margaritas", "barclass": "Bar", "barcode": 1 }, "geometry": { "type": "Point", "coordinates": [ -104.9937836, 39.7555168 ] } },
{ "type": "Feature", "properties": { "name": "Cocktails", "barclass": "Bar", "barcode": 1 }, "geometry": { "type": "Point", "coordinates": [ -104.993771, 39.755526 ] } },
{ "type": "Feature", "properties": { "name": "Club Level Bar", "barclass": "Bar", "barcode": 1 }, "geometry": { "type": "Point", "coordinates": [ -104.9946527, 39.7555271 ] } },
{ "type": "Feature", "properties": { "name": "Club Level Bar", "barclass": "Bar", "barcode": 1 }, "geometry": { "type": "Point", "coordinates": [ -104.9935329, 39.755658 ] } },
{ "type": "Feature", "properties": { "name": "Colorado Craft Beers", "barclass": "Bar", "barcode": 1 }, "geometry": { "type": "Point", "coordinates": [ -104.9936029, 39.7556662 ] } },
{ "type": "Feature", "properties": { "name": "Margaritas", "barclass": "Bar", "barcode": 1 }, "geometry": { "type": "Point", "coordinates": [ -104.9934953, 39.7556839 ] } },
{ "type": "Feature", "properties": { "name": "Beers of the World", "barclass": "Bar", "barcode": 1 }, "geometry": { "type": "Point", "coordinates": [ -104.9951006, 39.7561558 ] } },
{ "type": "Feature", "properties": { "name": "Colorado Craft Beers", "barclass": "Bar", "barcode": 1 }, "geometry": { "type": "Point", "coordinates": [ -104.995072, 39.7566287 ] } },
{ "type": "Feature", "properties": { "name": "Cocktails", "barclass": "Bar", "barcode": 1 }, "geometry": { "type": "Point", "coordinates": [ -104.993739, 39.7569014 ] } },
{ "type": "Feature", "properties": { "name": "Treehouse / Ski House", "barclass": "Nightclub", "barcode": 3 }, "geometry": { "type": "Point", "coordinates": [ -104.9839232, 39.759915 ] } },
{ "type": "Feature", "properties": { "name": "Larimer Lounge", "barclass": "Bar", "barcode": 1 }, "geometry": { "type": "Point", "coordinates": [ -104.9839337, 39.7600143 ] } },
{ "type": "Feature", "properties": { "name": "Mockingbird", "barclass": "Nightclub", "barcode": 3 }, "geometry": { "type": "Point", "coordinates": [ -104.983469, 39.7602101 ] } },
{ "type": "Feature", "properties": { "name": "Beacon", "barclass": "Bar", "barcode": 1 }, "geometry": { "type": "Point", "coordinates": [ -104.981886, 39.7610552 ] } },
{ "type": "Feature", "properties": { "name": "Finn's Manor", "barclass": "Bar", "barcode": 1 }, "geometry": { "type": "Point", "coordinates": [ -104.9816036, 39.7619412 ] } },
{ "type": "Feature", "properties": { "name": "Rackhouse Pub", "barclass": "Pub", "barcode": 2 }, "geometry": { "type": "Point", "coordinates": [ -104.9842536, 39.7626733 ] } },
{ "type": "Feature", "properties": { "name": "C Squared Ciders", "barclass": "Pub", "barcode": 2 }, "geometry": { "type": "Point", "coordinates": [ -104.9840235, 39.762847 ] } },
{ "type": "Feature", "properties": { "name": "Bierstadt Lagerhaus", "barclass": "Pub", "barcode": 2 }, "geometry": { "type": "Point", "coordinates": [ -104.9838084, 39.7630094 ] } },
{ "type": "Feature", "properties": { "name": "Great Divide Brewery & Roadhouse", "barclass": "Pub", "barcode": 2 }, "geometry": { "type": "Point", "coordinates": [ -104.981337, 39.7641486 ] } },
{ "type": "Feature", "properties": { "name": "Will Call Tavern", "barclass": "Pub", "barcode": 2 }, "geometry": { "type": "Point", "coordinates": [ -104.9859759, 39.7652328 ] } },
{ "type": "Feature", "properties": { "name": "The Block Distilling Co.", "barclass": "Pub", "barcode": 2 }, "geometry": { "type": "Point", "coordinates": [ -104.9805716, 39.762067 ] } },
{ "type": "Feature", "properties": { "name": "14er Brewing & Beer Garden", "barclass": "Pub", "barcode": 2 }, "geometry": { "type": "Point", "coordinates": [ -104.9801197, 39.7648777 ] } },
{ "type": "Feature", "properties": { "name": "Improper City", "barclass": "Bar", "barcode": 1 }, "geometry": { "type": "Point", "coordinates": [ -104.978912, 39.765259 ] } },
{ "type": "Feature", "properties": { "name": "Embassy Tavern", "barclass": "Bar", "barcode": 1 }, "geometry": { "type": "Point", "coordinates": [ -104.9747719, 39.766954 ] } },
{ "type": "Feature", "properties": { "name": "ReelWorks Denver", "barclass": "Nightclub", "barcode": 3 }, "geometry": { "type": "Point", "coordinates": [ -104.9750652, 39.7675683 ] } },
{ "type": "Feature", "properties": { "name": "Tracks", "barclass": "Nightclub", "barcode": 3 }, "geometry": { "type": "Point", "coordinates": [ -104.9749659, 39.7677614 ] } },
{ "type": "Feature", "properties": { "name": "Millers and Rossi", "barclass": "Bar", "barcode": 1 }, "geometry": { "type": "Point", "coordinates": [ -104.9746342, 39.7679665 ] } },
{ "type": "Feature", "properties": { "name": "Yacht Club", "barclass": "Bar", "barcode": 1 }, "geometry": { "type": "Point", "coordinates": [ -104.9661844, 39.7682967 ] } },
{ "type": "Feature", "properties": { "name": "New Belgium", "barclass": "Pub", "barcode": 2 }, "geometry": { "type": "Point", "coordinates": [ -104.9806441, 39.7686028 ] } },
{ "type": "Feature", "properties": { "name": "RiNo Yacht Club", "barclass": "Bar", "barcode": 1 }, "geometry": { "type": "Point", "coordinates": [ -104.9794594, 39.7687047 ] } },
{ "type": "Feature", "properties": { "name": "Sidewinder", "barclass": "Bar", "barcode": 1 }, "geometry": { "type": "Point", "coordinates": [ -104.982598, 39.778077 ] } },
{ "type": "Feature", "properties": { "name": "Fort Greene", "barclass": "Bar", "barcode": 1 }, "geometry": { "type": "Point", "coordinates": [ -104.9831386, 39.7784422 ] } },
{ "type": "Feature", "properties": { "name": "Beers of the World", "barclass": "Bar", "barcode": 1 }, "geometry": { "type": "Point", "coordinates": [ -104.9933645, 39.7565548 ] } },
{ "type": "Feature", "properties": { "name": "Margaritas", "barclass": "Bar", "barcode": 1 }, "geometry": { "type": "Point", "coordinates": [ -104.9933782, 39.7565671 ] } },
{ "type": "Feature", "properties": { "name": "Blush & Blu", "barclass": "Bar", "barcode": 1 }, "geometry": { "type": "Point", "coordinates": [ -104.9690668, 39.7398739 ] } },
{ "type": "Feature", "properties": { "name": "The 99ers Sports Bar", "barclass": "Bar", "barcode": 1 }, "geometry": { "type": "Point", "coordinates": [ -104.9757702, 39.7401563 ] } },
{ "type": "Feature", "properties": { "name": "1up Colfax Arcade & Bar", "barclass": "Bar", "barcode": 1 }, "geometry": { "type": "Point", "coordinates": [ -104.978147, 39.7401586 ] } },
{ "type": "Feature", "properties": { "name": "X Bar", "barclass": "Bar", "barcode": 1 }, "geometry": { "type": "Point", "coordinates": [ -104.9790603, 39.7401596 ] } },
{ "type": "Feature", "properties": { "name": "Velvet Banjo", "barclass": "Bar", "barcode": 1 }, "geometry": { "type": "Point", "coordinates": [ -104.9777381, 39.740172 ] } },
{ "type": "Feature", "properties": { "name": "The DNVR Bar", "barclass": "Bar", "barcode": 1 }, "geometry": { "type": "Point", "coordinates": [ -104.959954, 39.7401929 ] } },
{ "type": "Feature", "properties": { "name": "Glow Lounge", "barclass": "Bar", "barcode": 1 }, "geometry": { "type": "Point", "coordinates": [ -104.979067, 39.7401986 ] } },
{ "type": "Feature", "properties": { "name": "Tight End Bar", "barclass": "Bar", "barcode": 1 }, "geometry": { "type": "Point", "coordinates": [ -104.9694654, 39.7402215 ] } },
{ "type": "Feature", "properties": { "name": "The Mansion", "barclass": "Bar", "barcode": 1 }, "geometry": { "type": "Point", "coordinates": [ -104.972365, 39.7402372 ] } },
{ "type": "Feature", "properties": { "name": "Las Margs Tavern", "barclass": "Pub", "barcode": 2 }, "geometry": { "type": "Point", "coordinates": [ -104.9724402, 39.7405264 ] } },
{ "type": "Feature", "properties": { "name": "P S Lounge", "barclass": "Bar", "barcode": 1 }, "geometry": { "type": "Point", "coordinates": [ -104.946795, 39.7399408 ] } },
{ "type": "Feature", "properties": { "name": "The Owl Saloon", "barclass": "Pub", "barcode": 2 }, "geometry": { "type": "Point", "coordinates": [ -104.9284043, 39.7399486 ] } },
{ "type": "Feature", "properties": { "name": "Goosetown Tavern", "barclass": "Bar", "barcode": 1 }, "geometry": { "type": "Point", "coordinates": [ -104.9485603, 39.7399861 ] } },
{ "type": "Feature", "properties": { "name": "Middleman", "barclass": "Bar", "barcode": 1 }, "geometry": { "type": "Point", "coordinates": [ -104.9475075, 39.7403306 ] } },
{ "type": "Feature", "properties": { "name": "Atomic Cowboy", "barclass": "Bar", "barcode": 1 }, "geometry": { "type": "Point", "coordinates": [ -104.9490335, 39.7403487 ] } },
{ "type": "Feature", "properties": { "name": "Fiction Beer Company", "barclass": "Pub", "barcode": 2 }, "geometry": { "type": "Point", "coordinates": [ -104.905664, 39.7403553 ] } },
{ "type": "Feature", "properties": { "name": "St. Paul Tavern", "barclass": "Bar", "barcode": 1 }, "geometry": { "type": "Point", "coordinates": [ -104.950832, 39.7403669 ] } },
{ "type": "Feature", "properties": { "name": null, "barclass": "Bar", "barcode": 1 }, "geometry": { "type": "Point", "coordinates": [ -104.8891483, 39.7403924 ] } },
{ "type": "Feature", "properties": { "name": "Bastien's", "barclass": "Bar", "barcode": 1 }, "geometry": { "type": "Point", "coordinates": [ -104.946337, 39.7405032 ] } },
{ "type": "Feature", "properties": { "name": "The Abbey Tavern", "barclass": "Bar", "barcode": 1 }, "geometry": { "type": "Point", "coordinates": [ -104.9277595, 39.7405667 ] } },
{ "type": "Feature", "properties": { "name": "Wildcat Lounge", "barclass": "Bar", "barcode": 1 }, "geometry": { "type": "Point", "coordinates": [ -104.9066009, 39.7460128 ] } },
{ "type": "Feature", "properties": { "name": "Neighbors Wine Bar", "barclass": "Bar", "barcode": 1 }, "geometry": { "type": "Point", "coordinates": [ -104.9172753, 39.7495332 ] } },
{ "type": "Feature", "properties": { "name": "Crystal's", "barclass": "Pub", "barcode": 2 }, "geometry": { "type": "Point", "coordinates": [ -104.9362876, 39.7541847 ] } },
{ "type": "Feature", "properties": { "name": "Long Table Brewhouse", "barclass": "Bar", "barcode": 1 }, "geometry": { "type": "Point", "coordinates": [ -104.9285585, 39.7582459 ] } },
{ "type": "Feature", "properties": { "name": "Station 26 Brewery", "barclass": "Pub", "barcode": 2 }, "geometry": { "type": "Point", "coordinates": [ -104.9059423, 39.7695919 ] } },
{ "type": "Feature", "properties": { "name": "Mr A's", "barclass": "Bar", "barcode": 1 }, "geometry": { "type": "Point", "coordinates": [ -104.9494864, 39.7725914 ] } },
{ "type": "Feature", "properties": { "name": "4 Noses Brewing Park Hill", "barclass": "Pub", "barcode": 2 }, "geometry": { "type": "Point", "coordinates": [ -104.9312269, 39.7739522 ] } },
{ "type": "Feature", "properties": { "name": "Bar Louie", "barclass": "Bar", "barcode": 1 }, "geometry": { "type": "Point", "coordinates": [ -104.8908801, 39.7807104 ] } },
{ "type": "Feature", "properties": { "name": "Stapleton Tap House", "barclass": "Pub", "barcode": 2 }, "geometry": { "type": "Point", "coordinates": [ -104.8923538, 39.7808112 ] } },
{ "type": "Feature", "properties": { "name": "Big Trouble", "barclass": "Bar", "barcode": 1 }, "geometry": { "type": "Point", "coordinates": [ -104.9769703, 39.7693551 ] } },
{ "type": "Feature", "properties": { "name": "Cohesion", "barclass": "Bar", "barcode": 1 }, "geometry": { "type": "Point", "coordinates": [ -104.9577857, 39.7698286 ] } },
{ "type": "Feature", "properties": { "name": "Great Divide Barrel Bar", "barclass": "Bar", "barcode": 1 }, "geometry": { "type": "Point", "coordinates": [ -104.979247, 39.7703322 ] } },
{ "type": "Feature", "properties": { "name": "Number Thirty Eight", "barclass": "Bar", "barcode": 1 }, "geometry": { "type": "Point", "coordinates": [ -104.979531188234517, 39.77207355 ] } },
{ "type": "Feature", "properties": { "name": "Blue Moon Brewing Company", "barclass": "Pub", "barcode": 2 }, "geometry": { "type": "Point", "coordinates": [ -104.9769417, 39.7735561 ] } },
{ "type": "Feature", "properties": { "name": "Welcome Inn", "barclass": "Bar", "barcode": 1 }, "geometry": { "type": "Point", "coordinates": [ -104.9775921, 39.774299 ] } },
{ "type": "Feature", "properties": { "name": "Left Hand Rino", "barclass": "Bar", "barcode": 1 }, "geometry": { "type": "Point", "coordinates": [ -104.9697671, 39.775588 ] } },
{ "type": "Feature", "properties": { "name": "Peak Beverage", "barclass": "Bar", "barcode": 1 }, "geometry": { "type": "Point", "coordinates": [ -104.9692903, 39.7780149 ] } },
{ "type": "Feature", "properties": { "name": "Leopold Brothers", "barclass": "Pub", "barcode": 2 }, "geometry": { "type": "Point", "coordinates": [ -104.8623822, 39.7928171 ] } },
{ "type": "Feature", "properties": { "name": "Sky Lounge", "barclass": "Bar", "barcode": 1 }, "geometry": { "type": "Point", "coordinates": [ -104.6738334, 39.8475605 ] } },
{ "type": "Feature", "properties": { "name": "Denver Chophouse", "barclass": "Pub", "barcode": 2 }, "geometry": { "type": "Point", "coordinates": [ -104.6741109, 39.8535027 ] } },
{ "type": "Feature", "properties": { "name": "Denver Central Market", "barclass": "Pub", "barcode": 2 }, "geometry": { "type": "Point", "coordinates": [ -104.6713932, 39.8536412 ] } },
{ "type": "Feature", "properties": { "name": "Blue Sky Bar", "barclass": "Bar", "barcode": 1 }, "geometry": { "type": "Point", "coordinates": [ -104.6759818, 39.8537045 ] } },
{ "type": "Feature", "properties": { "name": "United Club", "barclass": "Bar", "barcode": 1 }, "geometry": { "type": "Point", "coordinates": [ -104.6779125, 39.8538753 ] } },
{ "type": "Feature", "properties": { "name": "Sweetwater Mountain Taphouse", "barclass": "Pub", "barcode": 2 }, "geometry": { "type": "Point", "coordinates": [ -104.667534, 39.8578429 ] } },
{ "type": "Feature", "properties": { "name": "United Club East", "barclass": "Bar", "barcode": 1 }, "geometry": { "type": "Point", "coordinates": [ -104.6716866, 39.8586799 ] } },
{ "type": "Feature", "properties": { "name": "United Club", "barclass": "Bar", "barcode": 1 }, "geometry": { "type": "Point", "coordinates": [ -104.6757718, 39.8587279 ] } },
{ "type": "Feature", "properties": { "name": "Tapas Sky Bar", "barclass": "Bar", "barcode": 1 }, "geometry": { "type": "Point", "coordinates": [ -104.6773858, 39.8630683 ] } },
{ "type": "Feature", "properties": { "name": "Coors Silver Bullet Bar", "barclass": "Pub", "barcode": 2 }, "geometry": { "type": "Point", "coordinates": [ -104.6765918, 39.8631507 ] } },
{ "type": "Feature", "properties": { "name": "Vino Volo", "barclass": "Bar", "barcode": 1 }, "geometry": { "type": "Point", "coordinates": [ -104.671275, 39.8631704 ] } },
{ "type": "Feature", "properties": { "name": "Terminal Bar", "barclass": "Bar", "barcode": 1 }, "geometry": { "type": "Point", "coordinates": [ -105.0000137, 39.753063 ] } },
{ "type": "Feature", "properties": { "name": "Jefferson Park Pub", "barclass": "Pub", "barcode": 2 }, "geometry": { "type": "Point", "coordinates": [ -105.0237806, 39.7533351 ] } },
{ "type": "Feature", "properties": { "name": "Leo's Sports Bar and Billiards", "barclass": "Bar", "barcode": 1 }, "geometry": { "type": "Point", "coordinates": [ -105.0256036, 39.7540304 ] } },
{ "type": "Feature", "properties": { "name": "Ghost Donkey", "barclass": "Bar", "barcode": 1 }, "geometry": { "type": "Point", "coordinates": [ -105.000638676849633, 39.7541999 ] } },
{ "type": "Feature", "properties": { "name": "Ghost Donkey", "barclass": "Bar", "barcode": 1 }, "geometry": { "type": "Point", "coordinates": [ -105.0006351, 39.7542063 ] } },
{ "type": "Feature", "properties": { "name": "Federal Bar and Grill", "barclass": "Bar", "barcode": 1 }, "geometry": { "type": "Point", "coordinates": [ -105.0250242, 39.7544817 ] } },
{ "type": "Feature", "properties": { "name": "My Brother's Bar", "barclass": "Pub", "barcode": 2 }, "geometry": { "type": "Point", "coordinates": [ -105.0093041, 39.7562288 ] } },
{ "type": "Feature", "properties": { "name": "The Nearby Bar", "barclass": "Bar", "barcode": 1 }, "geometry": { "type": "Point", "coordinates": [ -105.0090092, 39.7568642 ] } },
{ "type": "Feature", "properties": { "name": "Devil's Drink", "barclass": "Bar", "barcode": 1 }, "geometry": { "type": "Point", "coordinates": [ -105.0084166, 39.7574219 ] } },
{ "type": "Feature", "properties": { "name": "Forest Room 5", "barclass": "Pub", "barcode": 2 }, "geometry": { "type": "Point", "coordinates": [ -105.011251, 39.7577893 ] } },
{ "type": "Feature", "properties": { "name": "Room for Milly", "barclass": "Bar", "barcode": 1 }, "geometry": { "type": "Point", "coordinates": [ -105.0077497, 39.7578708 ] } },
{ "type": "Feature", "properties": { "name": "Zuni Street Brewing Company", "barclass": "Pub", "barcode": 2 }, "geometry": { "type": "Point", "coordinates": [ -105.015409, 39.7585929 ] } },
{ "type": "Feature", "properties": { "name": "Prost Brewing", "barclass": "Pub", "barcode": 2 }, "geometry": { "type": "Point", "coordinates": [ -105.0067758, 39.761363 ] } },
{ "type": "Feature", "properties": { "name": "Postino", "barclass": "Bar", "barcode": 1 }, "geometry": { "type": "Point", "coordinates": [ -105.0103627, 39.7615398 ] } },
{ "type": "Feature", "properties": { "name": "Zio Romolo's Alley Bar", "barclass": "Bar", "barcode": 1 }, "geometry": { "type": "Point", "coordinates": [ -105.0161458, 39.761864 ] } },
{ "type": "Feature", "properties": { "name": "Williams and Graham", "barclass": "Bar", "barcode": 1 }, "geometry": { "type": "Point", "coordinates": [ -105.0110112, 39.7619242 ] } },
{ "type": "Feature", "properties": { "name": "Lady Jane", "barclass": "Bar", "barcode": 1 }, "geometry": { "type": "Point", "coordinates": [ -105.0115762, 39.7621531 ] } },
{ "type": "Feature", "properties": { "name": "there...", "barclass": "Pub", "barcode": 2 }, "geometry": { "type": "Point", "coordinates": [ -105.0039771, 39.763083 ] } },
{ "type": "Feature", "properties": { "name": "The Devil’s Drink", "barclass": "Bar", "barcode": 1 }, "geometry": { "type": "Point", "coordinates": [ -105.0028236, 39.7639112 ] } },
{ "type": "Feature", "properties": { "name": "Highland Tavern", "barclass": "Pub", "barcode": 2 }, "geometry": { "type": "Point", "coordinates": [ -105.003906, 39.764623 ] } },
{ "type": "Feature", "properties": { "name": "The Bar at Plaza38", "barclass": "Bar", "barcode": 1 }, "geometry": { "type": "Point", "coordinates": [ -105.0339639, 39.7693564 ] } },
{ "type": "Feature", "properties": { "name": "Ziggies Saloon", "barclass": "Bar", "barcode": 1 }, "geometry": { "type": "Point", "coordinates": [ -105.0504248, 39.7694649 ] } },
{ "type": "Feature", "properties": { "name": "Beer Depot Lounge", "barclass": "Bar", "barcode": 1 }, "geometry": { "type": "Point", "coordinates": [ -105.0425358, 39.7695224 ] } },
{ "type": "Feature", "properties": { "name": "Berkeley Inn", "barclass": "Bar", "barcode": 1 }, "geometry": { "type": "Point", "coordinates": [ -105.043884, 39.7700464 ] } },
{ "type": "Feature", "properties": { "name": "West End Tap House", "barclass": "Bar", "barcode": 1 }, "geometry": { "type": "Point", "coordinates": [ -105.0441562, 39.7719782 ] } },
{ "type": "Feature", "properties": { "name": "The Emporium Brewing Company", "barclass": "Pub", "barcode": 2 }, "geometry": { "type": "Point", "coordinates": [ -105.043675, 39.7741502 ] } },
{ "type": "Feature", "properties": { "name": "Berkeley Untapped", "barclass": "Bar", "barcode": 1 }, "geometry": { "type": "Point", "coordinates": [ -105.044122, 39.774171 ] } },
{ "type": "Feature", "properties": { "name": "De Steeg Brewery", "barclass": "Pub", "barcode": 2 }, "geometry": { "type": "Point", "coordinates": [ -105.0438193, 39.7760619 ] } },
{ "type": "Feature", "properties": { "name": "Crow Bar", "barclass": "Bar", "barcode": 1 }, "geometry": { "type": "Point", "coordinates": [ -105.0511183, 39.7764517 ] } },
{ "type": "Feature", "properties": { "name": "Call to Arms Brewing Company", "barclass": "Pub", "barcode": 2 }, "geometry": { "type": "Point", "coordinates": [ -105.0435373, 39.7788541 ] } },
{ "type": "Feature", "properties": { "name": "Local 46 Bar and Biergarten", "barclass": "Pub", "barcode": 2 }, "geometry": { "type": "Point", "coordinates": [ -105.0437717, 39.7798885 ] } },
{ "type": "Feature", "properties": { "name": "Rocky Top Tavern", "barclass": "Pub", "barcode": 2 }, "geometry": { "type": "Point", "coordinates": [ -105.034868, 39.7858778 ] } },
{ "type": "Feature", "properties": { "name": "Goldspot Brewing Company", "barclass": "Pub", "barcode": 2 }, "geometry": { "type": "Point", "coordinates": [ -105.0343545, 39.7868924 ] } },
{ "type": "Feature", "properties": { "name": "Walker’s Pub", "barclass": "Pub", "barcode": 2 }, "geometry": { "type": "Point", "coordinates": [ -105.0337264, 39.7888369 ] } },
{ "type": "Feature", "properties": { "name": "El Nuevo Time Out", "barclass": "Pub", "barcode": 2 }, "geometry": { "type": "Point", "coordinates": [ -105.0279382, 39.7895848 ] } },
{ "type": "Feature", "properties": { "name": "The Scapegoat", "barclass": "Bar", "barcode": 1 }, "geometry": { "type": "Point", "coordinates": [ -105.0056476, 39.7694321 ] } },
{ "type": "Feature", "properties": { "name": "Marisela's Night Club", "barclass": "Nightclub", "barcode": 3 }, "geometry": { "type": "Point", "coordinates": [ -105.0062377, 39.7707412 ] } },
{ "type": "Feature", "properties": { "name": "Monkey Barrel", "barclass": "Bar", "barcode": 1 }, "geometry": { "type": "Point", "coordinates": [ -105.0116966, 39.7767665 ] } },
{ "type": "Feature", "properties": { "name": "Denver Beer Co-Canworks", "barclass": "Pub", "barcode": 2 }, "geometry": { "type": "Point", "coordinates": [ -105.0008302, 39.7769429 ] } },
{ "type": "Feature", "properties": { "name": "Terreno Macizo Nightclub", "barclass": "Nightclub", "barcode": 3 }, "geometry": { "type": "Point", "coordinates": [ -105.0012712, 39.7822873 ] } },
{ "type": "Feature", "properties": { "name": "J D's Neighborhood Bar", "barclass": "Bar", "barcode": 1 }, "geometry": { "type": "Point", "coordinates": [ -105.011477, 39.7840665 ] } },
{ "type": "Feature", "properties": { "name": "Regis Tavern", "barclass": "Bar", "barcode": 1 }, "geometry": { "type": "Point", "coordinates": [ -105.0249819, 39.7885088 ] } },
{ "type": "Feature", "properties": { "name": "Frozen Margaritas", "barclass": "Bar", "barcode": 1 }, "geometry": { "type": "Point", "coordinates": [ -104.9937634, 39.7569225 ] } },
{ "type": "Feature", "properties": { "name": "Margaritas", "barclass": "Bar", "barcode": 1 }, "geometry": { "type": "Point", "coordinates": [ -104.993797, 39.7569588 ] } }
]
}
