{"type":"FeatureCollection","features":[{"type":"Feature","id":1,"geometry":{"type":"MultiPolygon","coordinates":[[[[-122.61229824861137,37.81522893339654],[-122.60024924533958,37.802487933240833],[-122.58818724202274,37.789366933053302],[-122.58474124032577,37.779160932472209],[-122.58330623919723,37.77127093193274],[-122.58199423816566,37.764054931439119],[-122.58129423761584,37.760207931175891],[-122.57991323600659,37.748083930285716],[-122.57830723413794,37.733992929250441],[-122.57520223052774,37.706725927244726],[-122.55069922695525,37.707336929078735],[-122.50711622055496,37.708089932313179],[-122.50694422052968,37.708092932325926],[-122.50439822015545,37.708136932514869],[-122.50284521992425,37.708137932627992],[-122.5027912199162,37.708137932631914],[-122.50249821987258,37.708137932653244],[-122.49831521924921,37.708136932957643],[-122.49824621923894,37.708136932962653],[-122.49818221922939,37.708136932967321],[-122.49812321922056,37.708136932971613],[-122.49810621921809,37.708136932972849],[-122.49811121921202,37.708077932967662],[-122.49779421916547,37.708083932991222],[-122.49572121885879,37.708102933143685],[-122.49418421863091,37.708112933256338],[-122.49188321828946,37.708125933424903],[-122.48989521799585,37.708148933571486],[-122.48879121783267,37.708160933652806],[-122.48638921747465,37.708160933827628],[-122.48614021743627,37.708149933844879],[-122.48605021742182,37.708140933850629],[-122.48580121738239,37.708120933867178],[-122.48570321736203,37.708070933870147],[-122.48565321736417,37.708153933880638],[-122.48560321736613,37.708235933891046],[-122.48539921732905,37.708177933901091],[-122.48473021722936,37.708177933949777],[-122.48426921716015,37.708173933983005],[-122.48349421704485,37.708175934039588],[-122.48233021687153,37.708177934124457],[-122.48103321667888,37.708183934219328],[-122.47957821646219,37.708185934325378],[-122.4779132162151,37.708195934447417],[-122.4764642159988,37.708193934552718],[-122.47512721579965,37.708195934650178],[-122.47285821546291,37.708209934816487],[-122.47174121529683,37.708213934898097],[-122.47143321525282,37.708230934921865],[-122.4713422152401,37.708237934929095],[-122.47109721520516,37.708251934948052],[-122.47101421519335,37.708256934954548],[-122.47089621517345,37.708236934961477],[-122.46924921492781,37.708236935081338],[-122.46907021490112,37.708236935094362],[-122.4689522148835,37.708236935102967],[-122.46892821487995,37.708236935104701],[-122.46889621487514,37.708236935107031],[-122.468620214834,37.708236935127118],[-122.46846321481058,37.708236935138551],[-122.467896214726,37.708236935179805],[-122.46719621462161,37.708236935230744],[-122.46699221458867,37.708214935243788],[-122.46696721458444,37.708210935245276],[-122.46686721456815,37.708198935251545],[-122.46680421455792,37.70819193525557],[-122.46664521453216,37.708173935265648],[-122.4662972144759,37.708135935287828],[-122.46577021439735,37.708136935326266],[-122.4653962143416,37.70813693535348],[-122.46497221428378,37.708183935388192],[-122.46490921427518,37.708190935393397],[-122.46468321424433,37.708215935411907],[-122.46458221423057,37.708226935420129],[-122.46449621421888,37.708236935427244],[-122.46446321421392,37.708236935429639],[-122.46409621415918,37.708236935456355],[-122.46405621415414,37.708244935459895],[-122.46359621409617,37.708336935500952],[-122.46297521399451,37.708258935539746],[-122.46279621396525,37.708236935550957],[-122.46275321395882,37.708236935554083],[-122.4626142139381,37.708236935564202],[-122.46229521389053,37.708236935587408],[-122.46206621385636,37.708236935604084],[-122.46139621375642,37.708236935652842],[-122.46128821374029,37.708236935660693],[-122.46079621366692,37.708236935696505],[-122.46061521363995,37.708236935709671],[-122.46024021358396,37.708236935736956],[-122.45990721353428,37.7082369357612],[-122.45967221349912,37.70823593577822],[-122.45948421347106,37.708235935791897],[-122.4590632134083,37.708235935822543],[-122.45852221332756,37.708235935861907],[-122.45792921324046,37.708247935906016],[-122.45764121319701,37.708243935926653],[-122.45719621313019,37.708239935958723],[-122.45684721307796,37.708238935984035],[-122.45649021302458,37.70823793600993],[-122.45609221296499,37.70823593603874],[-122.45576021291544,37.708235936062891],[-122.45549921287646,37.708235936081891],[-122.45520021283187,37.708235936103655],[-122.45436921270797,37.708236936164205],[-122.45435121270424,37.708227936164732],[-122.45399621265236,37.708236936191348],[-122.45382021262495,37.708226936203303],[-122.4534772125714,37.70820693622661],[-122.45332121254712,37.708197936237241],[-122.45300821249859,37.708181936258676],[-122.45284321247277,37.708171936269885],[-122.45248321241687,37.708152936294518],[-122.45231321239034,37.708142936306089],[-122.45219621237221,37.708136936314055],[-122.45168821229836,37.708153936352446],[-122.45145521226463,37.708162936370108],[-122.45144021226247,37.708163936371342],[-122.45112821221731,37.708175936395008],[-122.45039921211199,37.708205936450504],[-122.45023321208683,37.708202936462349],[-122.45017121207783,37.70820493646702],[-122.44976421201862,37.708217936497732],[-122.44956721199,37.708224936512629],[-122.44924621194187,37.708222936535833],[-122.44867921185759,37.708225936577335],[-122.44729421165179,37.708233936678795],[-122.44723821164526,37.708249936684147],[-122.44705921161807,37.708245936696869],[-122.44639421151747,37.708233936744293],[-122.44588821144238,37.70823793678143],[-122.44539421136851,37.708236936817308],[-122.44510221132899,37.708271936841413],[-122.44470521127447,37.708312936873675],[-122.44449521124594,37.70833693689093],[-122.44336121107105,37.70828893696951],[-122.4432252110502,37.708283936979001],[-122.44315121103664,37.708261936982566],[-122.44298421101108,37.708256936994317],[-122.44260321095319,37.708247937021262],[-122.44209221087553,37.708235937057488],[-122.44182521083857,37.708260937078983],[-122.44155921080174,37.708285937100385],[-122.44127121076218,37.708315937123807],[-122.4412362107586,37.708329937127516],[-122.44086821070384,37.708331937154441],[-122.44079421069014,37.708308937157952],[-122.4407242106772,37.708286937161226],[-122.44063621066081,37.70825893716534],[-122.44054921064448,37.708229937169229],[-122.44051021064529,37.708286937176787],[-122.44047221064605,37.708342937184156],[-122.43969021052871,37.708337937240657],[-122.43921621045229,37.708288937271114],[-122.439132210438,37.708273937275976],[-122.43904621042405,37.708263937281437],[-122.43892821040535,37.708254937289297],[-122.43890821040213,37.708252937290538],[-122.43881221038687,37.708244937296875],[-122.43869521036839,37.708235937304671],[-122.43857121034996,37.708236937313785],[-122.43834221031578,37.708236937330447],[-122.43819521029387,37.708236937341148],[-122.43762121020815,37.708236937382914],[-122.43659521005499,37.708236937457571],[-122.43647721003735,37.708236937466147],[-122.43621420999808,37.708236937485275],[-122.43619020999454,37.708236937487044],[-122.43603920997198,37.708236937498022],[-122.43589520995049,37.708236937508502],[-122.43539520986424,37.708136937536601],[-122.43511320982219,37.708136937557121],[-122.43498120980246,37.708136937566721],[-122.43488320978784,37.708136937573855],[-122.43460220974588,37.708136937594297],[-122.43432620970465,37.708136937614391],[-122.43399520965522,37.708136937638471],[-122.43339520957721,37.708236937690408],[-122.4333232095664,37.708236937695645],[-122.43281320949028,37.708236937732757],[-122.43243820943425,37.708236937760041],[-122.43239220942738,37.708236937763388],[-122.43236320942309,37.708236937765498],[-122.43230220941361,37.708233937769677],[-122.43225320940628,37.708233937773244],[-122.43223620940375,37.708233937774487],[-122.43219520939763,37.708233937777464],[-122.4319982093682,37.70823393779181],[-122.43157820930561,37.708234937822461],[-122.43135420927229,37.708235937838836],[-122.4308952092037,37.708235937872217],[-122.43004020908177,37.708285937938541],[-122.42935420898418,37.708327937991932],[-122.42919520896136,37.70833593800414],[-122.42894120892598,37.708357938024434],[-122.42830720883788,37.7084149380753],[-122.42809520880861,37.708435938092464],[-122.42792820878277,37.708427938103924],[-122.42717720866652,37.708392938155704],[-122.42711920865754,37.708389938159691],[-122.42694020863001,37.708382938172079],[-122.42637920854311,37.708355938210701],[-122.42628320852833,37.708351938217355],[-122.42620620851643,37.70834893822272],[-122.42610420850066,37.708343938229746],[-122.4260022084847,37.708337938236625],[-122.42563220842752,37.708320938262133],[-122.42543020839619,37.708310938276036],[-122.42541520840093,37.708371938282177],[-122.42536520842235,37.708621938306429],[-122.42405620818369,37.708247938370796],[-122.42390320816003,37.708240938381365],[-122.42379520814319,37.708234938388735],[-122.42239520793407,37.708234938490591],[-122.42009520759062,37.708235938658035],[-122.41981520754875,37.708235938678399],[-122.41919520745617,37.708235938723512],[-122.41914120744863,37.708240938727833],[-122.41870620738861,37.708283938763039],[-122.41844420735234,37.708308938784157],[-122.41821720732106,37.708331938802566],[-122.41817820731575,37.708335938805725],[-122.41769020724283,37.70833593884123],[-122.41750220721475,37.708335938854916],[-122.41722420717318,37.708335938875138],[-122.41709520715396,37.708335938884517],[-122.41698520713739,37.708334938892435],[-122.41623520702507,37.708332938946867],[-122.41578420695275,37.708289938976108],[-122.41528520687287,37.708243939008618],[-122.4151952068585,37.708235939014529],[-122.41455520676291,37.708235939061097],[-122.41449520675393,37.708235939065453],[-122.41433520673003,37.708235939077106],[-122.41419520670912,37.708235939087288],[-122.41401020668391,37.70825693910249],[-122.41375220664786,37.708278939123076],[-122.413494206612,37.708301939143738],[-122.41339420659804,37.708310939151751],[-122.41329420658417,37.708319939159736],[-122.41291120652625,37.708313939187121],[-122.41252920646861,37.708308939214511],[-122.41239320644816,37.708307939224319],[-122.41187320636965,37.708300939261591],[-122.4114552063067,37.708296939291643],[-122.41038320614544,37.708287939368894],[-122.40888320591856,37.708263939476055],[-122.40738320569159,37.708239939583201],[-122.4072892056773,37.708237939589885],[-122.40719520566303,37.708235939596555],[-122.40697420563336,37.70826493961502],[-122.40649420556889,37.708327939655156],[-122.40559520542391,37.708235939712971],[-122.40550020541086,37.70824593972069],[-122.40546620540626,37.708249939723473],[-122.40537820539423,37.708259939730738],[-122.40530520538414,37.708266939736603],[-122.40529220538251,37.708269939737797],[-122.40523920537531,37.708275939742123],[-122.4047642053103,37.708327939781014],[-122.40469520530092,37.708335939786679],[-122.40329520509168,37.708335939888542],[-122.40299520504681,37.708335939910356],[-122.40269520500195,37.708335939932176],[-122.40239520495716,37.708335939953997],[-122.40199520488581,37.708235939974877],[-122.4017782048583,37.708278939994223],[-122.40160420483632,37.708313940009738],[-122.40149520482261,37.708335940019481],[-122.40134020479942,37.708335940030757],[-122.40132020479642,37.708335940032207],[-122.40099520474782,37.708335940055846],[-122.40029520464316,37.708335940106778],[-122.3961942040301,37.708335940405128],[-122.39579520397041,37.708335940434161],[-122.39529020389564,37.708341940471378],[-122.39512020387043,37.708343940483957],[-122.39498320384867,37.708332940493001],[-122.39484720382707,37.708321940501996],[-122.39461220379033,37.708307940517926],[-122.39424820373338,37.708285940542581],[-122.3936482036394,37.708248940583161],[-122.39333320359565,37.708277940608511],[-122.39323920358262,37.708286940616055],[-122.39269520350696,37.708335940659673],[-122.38898920295276,37.708335940929281],[-122.38749520272933,37.708335941037951],[-122.38109420178347,37.708435941511894],[-122.37950220154336,37.708418941626284],[-122.37941420152924,37.708410941631996],[-122.37607620102507,37.70836894187137],[-122.37563720096038,37.708377941904033],[-122.37169420036561,37.708335942187354],[-122.36039419867438,37.708335943009303],[-122.29459318880222,37.708234947786195],[-122.2817931868816,37.708234948716864],[-122.28247318710794,37.709313948757064],[-122.28451318778754,37.712554948877937],[-122.28519318801403,37.713634948918198],[-122.28611218831789,37.71507494897088],[-122.28887318923017,37.719394949128741],[-122.28979318953427,37.720834949181345],[-122.29021318967342,37.721494949205599],[-122.29147319009084,37.72347494927827],[-122.29189319023,37.72413494930246],[-122.29223319033869,37.72463494931921],[-122.29325319066473,37.726134949369467],[-122.29359319077342,37.726634949386217],[-122.29377319083272,37.726914949396324],[-122.29431319101066,37.727754949426753],[-122.29449319106998,37.728034949436861],[-122.29768119214449,37.733200949633357],[-122.30029319302506,37.73743394979418],[-122.30119319332172,37.738833949844697],[-122.30729319537349,37.748672950215784],[-122.31049319645008,37.753833950410076],[-122.31314919733067,37.758003950561779],[-122.31610519831068,37.762642950730282],[-122.32156820012273,37.771219951041545],[-122.32497320125233,37.776564951235194],[-122.32793020223355,37.781206951403149],[-122.328653202475,37.782354951445285],[-122.32874720250622,37.78250295145061],[-122.32881820252989,37.782614951454676],[-122.32888920255363,37.782727951458838],[-122.32945320274192,37.783622951491644],[-122.32954520277264,37.783768951497024],[-122.32963620280309,37.783913951502349],[-122.33017720298352,37.784770951533673],[-122.33040020305801,37.785124951546671],[-122.3306232031325,37.785478951559654],[-122.33082420319971,37.785798951571415],[-122.33154920344147,37.786946951613345],[-122.33245620374628,37.788402951667379],[-122.33518320466193,37.792772951829292],[-122.3360932049674,37.794229951883132],[-122.33610420497111,37.794247951883797],[-122.33648020509743,37.794850951906156],[-122.33659420513564,37.795032951912866],[-122.33665520515558,37.79512595191607],[-122.3402942063401,37.800632952104934],[-122.34103420659055,37.80183495215006],[-122.34157420677332,37.802711952183003],[-122.34541420807349,37.80895195241726],[-122.34669420850699,37.81103195249527],[-122.34689420858338,37.811431952513658],[-122.34719420872364,37.812251952559393],[-122.34855920936054,37.815971952766439],[-122.34901420957303,37.817212952835504],[-122.34903720958364,37.81727495283895],[-122.34906320959571,37.817344952842824],[-122.34908020960358,37.817390952845351],[-122.34920720966235,37.817732952864269],[-122.34940020975176,37.818252952893033],[-122.34962020985368,37.818845952925876],[-122.34976820992223,37.819244952947919],[-122.35038921020961,37.820915953040341],[-122.35264721125483,37.826992953376099],[-122.35451721212095,37.832027953654226],[-122.35589421275847,37.835731953858655],[-122.3582732138369,37.841930954195099],[-122.36541321707502,37.860530955203046],[-122.36779421815527,37.866730955538486],[-122.36899321873169,37.870129955730079],[-122.36924121885073,37.870830955769584],[-122.37068921954659,37.874931956000559],[-122.37224222029319,37.879330956248182],[-122.37259422046266,37.880329956304458],[-122.37379522103997,37.883729956495721],[-122.37399522108851,37.883888956494147],[-122.37459522123447,37.884368956489503],[-122.37479522128325,37.884529956488045],[-122.38175322295999,37.889959956423006],[-122.39939522721197,37.903729956256527],[-122.40260622799099,37.906278956229436],[-122.40952022966839,37.911767956170856],[-122.41215523030772,37.91385995614845],[-122.42006023222575,37.920135956080749],[-122.42269623286536,37.922228956058106],[-122.42461523333068,37.923748956041287],[-122.42645723377709,37.925206956025022],[-122.43021823468867,37.928183955991699],[-122.43037523472681,37.928308955990332],[-122.43222923517617,37.929775955973867],[-122.43229623519241,37.929828955973257],[-122.43019623354091,37.918429955195009],[-122.42759623146436,37.904029954207125],[-122.42409622867041,37.884630952874673],[-122.42269622770111,37.878130952444579],[-122.42249622747249,37.876430952319808],[-122.42217522719197,37.87444095218018],[-122.42084922603711,37.866251951605705],[-122.42039322563953,37.863430951407707],[-122.42035522560781,37.863207951392191],[-122.41992022523648,37.860583951208739],[-122.41989422521462,37.860429951198043],[-122.41927122465803,37.856458950917776],[-122.41880722424359,37.853500950709012],[-122.41879522423349,37.853429950704069],[-122.41868622410989,37.852509950636509],[-122.41872322411379,37.852495950632637],[-122.42248822451546,37.851114950243165],[-122.42424022470036,37.850454950060531],[-122.43363822569208,37.846916949080992],[-122.44549622694048,37.842431947843693],[-122.45399622781345,37.839031946941788],[-122.46809222929525,37.833691945470946],[-122.47005022950097,37.832949945266648],[-122.47226122973325,37.832111945035962],[-122.47284322979503,37.831896944975675],[-122.47291022980436,37.83189094497029],[-122.47331822986123,37.831856944937577],[-122.47363222991709,37.831933944920927],[-122.47395322999593,37.832199944919203],[-122.47418423008374,37.832657944939776],[-122.47432923020672,37.833527945000462],[-122.4745022302458,37.833641944997119],[-122.47614723049121,37.833641944876575],[-122.47712923061628,37.833457944789551],[-122.47782123069285,37.833228944720034],[-122.47802323070167,37.833045944690234],[-122.47810923068002,37.832749944659696],[-122.47761923055346,37.83229094465802],[-122.47745423052042,37.832218944664227],[-122.47730123048994,37.832152944670021],[-122.47735023047333,37.831947944649585],[-122.47741623045128,37.831673944622302],[-122.47709923036396,37.831329944617373],[-122.47704323033506,37.831153944607046],[-122.47730223036218,37.831054944579975],[-122.47787823047732,37.831305944558338],[-122.47813823050821,37.831237944533711],[-122.47834223051451,37.831030944501812],[-122.47845523051812,37.830916944484208],[-122.47862723043325,37.82996794439385],[-122.47871323039128,37.829497944349043],[-122.47860523036019,37.829368944346363],[-122.47848323032497,37.829222944343314],[-122.47845323027509,37.828832944313582],[-122.47856523025838,37.828545944281842],[-122.47859423025827,37.828507944276637],[-122.47856823012175,37.827368944185203],[-122.47836622999323,37.826523944130798],[-122.47836622990519,37.825767944068822],[-122.47810722984511,37.82558394407274],[-122.47810522981806,37.825353944054051],[-122.47845222986182,37.825284944022961],[-122.4787512299192,37.82539494401005],[-122.47882822993394,37.825422944006732],[-122.47894522995155,37.825423943998253],[-122.47910722997628,37.825428943986772],[-122.47922122999363,37.825431943978664],[-122.47969323006555,37.825444943945186],[-122.48077123027713,37.825880943901907],[-122.48100723032313,37.825973943892222],[-122.48182923045611,37.826062943839311],[-122.48252423051647,37.825690943757955],[-122.48327223062324,37.825649943699794],[-122.48324323069356,37.826290943754401],[-122.48347423075199,37.82649694375435],[-122.48416723089262,37.826816943729838],[-122.48457223096106,37.826885943705811],[-122.48484423097634,37.826668943668096],[-122.48507723098568,37.826450943633148],[-122.48621623113181,37.826246943533015],[-122.48726723131401,37.826465943473963],[-122.48855523154148,37.826769943404521],[-122.48991123175968,37.826906943316402],[-122.49123823192274,37.826607943194652],[-122.4916122318746,37.825715943094238],[-122.49209623190218,37.825332943027426],[-122.4921292318781,37.825083943004628],[-122.49243823190331,37.824904942967351],[-122.4931992319885,37.824661942891666],[-122.49357423196174,37.823951942806048],[-122.49438223204216,37.823607942718695],[-122.49478623206234,37.823263942660944],[-122.49501923204298,37.822798942605793],[-122.49534623206773,37.822592942564981],[-122.49585323209082,37.822141942490923],[-122.49619923213436,37.82207294245994],[-122.49643123219828,37.82232494246356],[-122.49882523254435,37.822231942280609],[-122.49963323262486,37.821888942193368],[-122.49989223262877,37.821590942149953],[-122.49980723253169,37.82086594209683],[-122.4996902324841,37.820606942084218],[-122.49915623236458,37.820263942095259],[-122.49910923231381,37.819887942067901],[-122.50072123255042,37.819855941947196],[-122.50137223271543,37.820439941947328],[-122.50140523274217,37.820627941960339],[-122.50178023283011,37.820902941955381],[-122.50178023285943,37.82115494197599],[-122.50169223285539,37.821232941988846],[-122.50166623288249,37.821498942012489],[-122.5019522329286,37.821528941994025],[-122.50288023299451,37.820906941875123],[-122.50313623303501,37.820926941858019],[-122.50339623309775,37.821132941855836],[-122.50448823324939,37.821037941768083],[-122.50483723333369,37.821314941765174],[-122.50489723340046,37.821811941801464],[-122.50564623356647,37.82227894178483],[-122.50557823362175,37.8228409418358],[-122.50587323369238,37.823069941832934],[-122.51130123469196,37.824707941569322],[-122.51179223476511,37.824707941533369],[-122.51220023481005,37.824571941492344],[-122.51245523484256,37.824524941469825],[-122.51295323494354,37.824754941452134],[-122.51508523531872,37.825248941336362],[-122.51593923545248,37.825304941278347],[-122.51672423550818,37.824778941177826],[-122.51688923552089,37.824676941157428],[-122.51718923558276,37.824824941147511],[-122.51721923560603,37.824985941158474],[-122.51769123570173,37.825203941141751],[-122.51850223583315,37.825294941089766],[-122.51918023590619,37.825054941020447],[-122.51979623600633,37.825126940981242],[-122.52071023616078,37.825283940927129],[-122.52287323644218,37.82493394074001],[-122.52358223651656,37.824665940666151],[-122.52384023654244,37.8245579406384],[-122.52383723648178,37.824040940596355],[-122.52438723651923,37.823658940524822],[-122.52462723652027,37.823360940482878],[-122.52452723646066,37.822976940458808],[-122.52419123639068,37.822805940469429],[-122.5241702363694,37.82264994045827],[-122.52440823638705,37.822496940428316],[-122.52488123644864,37.82242094038741],[-122.52534023652829,37.822517940361749],[-122.52560123649441,37.821892940291519],[-122.52554423639639,37.82112394023283],[-122.52582723643086,37.821057940206693],[-122.52619623649639,37.821148940187108],[-122.52626323648703,37.820982940168584],[-122.52667523653726,37.820886940130578],[-122.52717023661992,37.820963940100626],[-122.52777823668985,37.820786940041629],[-122.52831323674111,37.820542939982488],[-122.52886523677329,37.820112939906892],[-122.52908423675284,37.819656939853594],[-122.52931923673063,37.819165939796228],[-122.52937223672082,37.819013939779914],[-122.52932723667547,37.818681939756047],[-122.52898523659863,37.818458939762856],[-122.52895923656321,37.818187939742607],[-122.5285992364464,37.817644939724588],[-122.52858923640244,37.817279939695482],[-122.52890523640855,37.816927939643534],[-122.52850623629315,37.816446939633451],[-122.52841923624339,37.816130939613984],[-122.52783823610777,37.815708939622006],[-122.5277612360705,37.815486939609492],[-122.52775223602934,37.815144939582197],[-122.52803823606753,37.81510693955812],[-122.52856623617782,37.815378939541745],[-122.52885423623206,37.815476939528651],[-122.52894623624826,37.815497939523631],[-122.52922123626337,37.815275939485332],[-122.52972123632338,37.81515193943855],[-122.52992223638275,37.815404939444569],[-122.53011323641465,37.815434939433011],[-122.53410123699877,37.81535193913416],[-122.53624523731288,37.815307938973561],[-122.54639923881555,37.815232938223836],[-122.55089923949686,37.815332937902461],[-122.58460124449711,37.815232935425811],[-122.61229824861137,37.81522893339654]]],[[[-123.17383832659944,37.775731889070975],[-123.1737763261372,37.771835888766631],[-123.17293932505822,37.763604888175209],[-123.1699983237386,37.755934887782118],[-123.16671232256326,37.749934887546537],[-123.1627643212456,37.743537887327562],[-123.15677031971187,37.737844887313841],[-123.14914031795517,37.732283887429858],[-123.14150831613358,37.726164887501163],[-123.13261031405251,37.719397887612857],[-123.12612731279874,37.716734887874466],[-123.11965831170596,37.715445888244325],[-123.11558831095057,37.71404988843036],[-123.10493430923421,37.71265288909705],[-123.09966030857345,37.713595889557411],[-123.09481430792103,37.71407188994926],[-123.09286330759231,37.713692890061481],[-123.0918133072289,37.711876889993235],[-123.08879730608524,37.70579688972817],[-123.0860703051041,37.700754889524639],[-123.08189330404215,37.696844889517159],[-123.07716830283026,37.69232888950097],[-123.07493430224315,37.690070889483458],[-123.07307630110792,37.682587889020738],[-123.06860229935347,37.673045888583566],[-123.06359129796124,37.667320888490394],[-123.0535932955013,37.658652888524252],[-123.04070929265968,37.650332888795013],[-123.0271662900911,37.645225889370401],[-123.01161828738853,37.641510890202682],[-123.0011232858829,37.641779890987287],[-123.0011232856593,37.639834890830997],[-123.00092528564177,37.639934890853404],[-122.99260228454763,37.641020891545708],[-122.98676028378,37.64178789203207],[-122.98052628310995,37.643904892655563],[-122.97302528231889,37.646585893416649],[-122.96301928147338,37.651988894579098],[-122.95488928101341,37.658352895682796],[-122.94908128074037,37.663381896510259],[-122.94502228088152,37.669777897320721],[-122.94137728113104,37.676584898134124],[-122.93967428154671,37.682357898722884],[-122.93903928193691,37.686548899106469],[-122.93735228219538,37.690934899582444],[-122.9357232827283,37.697622900239395],[-122.93587828331017,37.702463900617623],[-122.93769228436008,37.709245901030918],[-122.93793028447769,37.709960901071014],[-122.93972428536468,37.715354901373892],[-122.9423072864039,37.721061901644113],[-122.94553628737046,37.72531890175047],[-122.94999828882101,37.732191901976734],[-122.95465329004151,37.736831902009207],[-122.95840429092866,37.739738901968437],[-122.96107029157719,37.741959901951837],[-122.96411229229304,37.744285901916065],[-122.96728429299273,37.74630790184635],[-122.97046229363448,37.747822901735475],[-122.97326929414284,37.74865690159708],[-122.97407429440899,37.749933901640595],[-122.97546129492049,37.752589901752053],[-122.97760929551283,37.754980901786546],[-122.98144229653211,37.758920901821789],[-122.9874272979846,37.763874901780547],[-122.99510329972072,37.769135901639778],[-122.99755130027152,37.770788901592788],[-123.0011233009424,37.77205790143271],[-123.00616730185232,37.77352890118101],[-123.01060130266475,37.774930900968336],[-123.01698330373227,37.776073900592245],[-123.02586330515112,37.777094900023286],[-123.03144930597611,37.777157899619112],[-123.03385430647023,37.778379899540461],[-123.03511030689313,37.780435899612606],[-123.03873930840743,37.788885900020972],[-123.04883031115736,37.79982090015303],[-123.07050731596115,37.813834899678298],[-123.08165931809533,37.81815589920312],[-123.09527432051945,37.8218818984992],[-123.10826932249478,37.822546897597327],[-123.1183023240196,37.823062896901121],[-123.12612732499872,37.821668896215549],[-123.13228532566501,37.819680895605416],[-123.1394543263655,37.816723894844216],[-123.14722232694176,37.811955893895643],[-123.15334832730903,37.807448893088456],[-123.15387632734175,37.807069893019701],[-123.16094932778218,37.802006892099122],[-123.16602532792527,37.796889891320994],[-123.16912032784941,37.792369890735735],[-123.17372832662834,37.776117889109628],[-123.17383832659944,37.775731889070975]]]]},"properties":{"OBJECTID":1,"STATEFP20":"06","PLACEFP20":"67000","PLACENS20":"02411786","GEOID20":"0667000","NAME20":"San Francisco","NAMELSAD20":"San Francisco city","LSAD20":"25","CLASSFP20":"C1","PCICBSA20":"Y","PCINECTA20":"N","MTFCC20":"G4110","FUNCSTAT20":"A","ALAND20":121507089,"AWATER20":479146790,"INTPTLAT20":"+37.7272391","INTPTLON20":"-123.0322294","geom_Length":1.6502559726077657,"geom_Area":0.061414169055001834}}]}